{
  "type": "FeatureCollection",
  "name": "pba_geocoding_candidates",
  "crs": {
    "type": "name",
    "properties": {
      "name": "EPSG:4326"
    }
  },
  "features": [
    {
      "type": "Feature",
      "geometry": {
        "type": "Point",
        "coordinates": [
          -8.147308718619547,
          43.45066167519628
        ]
      },
      "properties": {
        "site_id": "tra-fene-fontenova",
        "primary_name": "Castro de Fontenova",
        "municipality": "Fene",
        "parish": "San Xurxo de Magalofes",
        "current_dataset_use": "needs_geocoding",
        "pba_decision": "duplicate_or_alias",
        "pba_name": "Castro de Magalofes",
        "pba_municipality": "Fene",
        "pba_parish": "Magalofes (San Xurxo)",
        "pba_place": "Fontenova, A",
        "pba_id_ipaga": "GA15035007",
        "pba_cod_impres": "Fene_9329",
        "pba_tipoloxia": "",
        "pba_x_etrs89_utm29": "568992",
        "pba_y_etrs89_utm29": "4811215",
        "pba_observacio": "",
        "review_priority": "P2",
        "qgis_action": "Revisar contra PNOA/LiDAR y copiar a geocoded_sites_reviewed solo si queda aceptado.",
        "reason": "PBA has Castro de Magalofes at A Fontenova; dataset already has GA15035007 as a separate row."
      }
    },
    {
      "type": "Feature",
      "geometry": {
        "type": "Point",
        "coordinates": [
          -8.171572505093756,
          43.47427554901182
        ]
      },
      "properties": {
        "site_id": "tra-fene-ga15035011",
        "primary_name": "Castro de Cordoeiro",
        "municipality": "Fene",
        "parish": "Perlío",
        "current_dataset_use": "needs_geocoding",
        "pba_decision": "coordinate_for_review_reconcile_duplicate",
        "pba_name": "Castro das Pías/Castro de Cardoeiro",
        "pba_municipality": "Fene",
        "pba_parish": "Perlío (Santo Estevo)",
        "pba_place": "Cruceiro, O",
        "pba_id_ipaga": "GA15035011",
        "pba_cod_impres": "Fene_9327",
        "pba_tipoloxia": "Castro",
        "pba_x_etrs89_utm29": "567002",
        "pba_y_etrs89_utm29": "4813818",
        "pba_observacio": "SI.2021.392.INV: Localización e duplicado",
        "review_priority": "P0",
        "qgis_action": "Revisar contra PNOA/LiDAR y copiar a geocoded_sites_reviewed solo si queda aceptado.",
        "reason": "Exact code match, but PBA names it Castro das Pias/Castro de Cardoeiro and flags location/duplicate in OBSERVACIO."
      }
    },
    {
      "type": "Feature",
      "geometry": {
        "type": "Point",
        "coordinates": [
          -8.178759499653474,
          43.46407350807626
        ]
      },
      "properties": {
        "site_id": "tra-fene-loureiros",
        "primary_name": "Castro de Loureiros",
        "municipality": "Fene",
        "parish": "Santiago de Barallobre",
        "current_dataset_use": "positive_damaged_review",
        "pba_decision": "duplicate_or_alias",
        "pba_name": "Castro de Barallobre",
        "pba_municipality": "Fene",
        "pba_parish": "Barallobre (Santiago)",
        "pba_place": "Loureiros, Os",
        "pba_id_ipaga": "GA15035010",
        "pba_cod_impres": "Fene_9328",
        "pba_tipoloxia": "",
        "pba_x_etrs89_utm29": "566432",
        "pba_y_etrs89_utm29": "4812679",
        "pba_observacio": "",
        "review_priority": "P2",
        "qgis_action": "Revisar contra PNOA/LiDAR y copiar a geocoded_sites_reviewed solo si queda aceptado.",
        "reason": "PBA has Castro de Barallobre in Os Loureiros; treat the Pena row as a damaged/alias row to reconcile."
      }
    },
    {
      "type": "Feature",
      "geometry": {
        "type": "Point",
        "coordinates": [
          -8.152626845317162,
          43.47117366486548
        ]
      },
      "properties": {
        "site_id": "tra-fene-ovra",
        "primary_name": "Castro de Ovra",
        "municipality": "Fene",
        "parish": "Santa María de Sillobre",
        "current_dataset_use": "needs_geocoding",
        "pba_decision": "duplicate_or_alias",
        "pba_name": "Castro de Orra",
        "pba_municipality": "Fene",
        "pba_parish": "Sillobre (Santa Mariña)",
        "pba_place": "Orra",
        "pba_id_ipaga": "GA15035009",
        "pba_cod_impres": "Fene_9330",
        "pba_tipoloxia": "",
        "pba_x_etrs89_utm29": "568538",
        "pba_y_etrs89_utm29": "4813489",
        "pba_observacio": "",
        "review_priority": "P2",
        "qgis_action": "Revisar contra PNOA/LiDAR y copiar a geocoded_sites_reviewed solo si queda aceptado.",
        "reason": "PBA has Castro de Orra in Sillobre; likely Ovra/Orra spelling reconciliation, not a new site."
      }
    },
    {
      "type": "Feature",
      "geometry": {
        "type": "Point",
        "coordinates": [
          -8.171572505093756,
          43.47427554901182
        ]
      },
      "properties": {
        "site_id": "tra-fene-san-esteban-de-perlio",
        "primary_name": "Castro de San Esteban de Perlío",
        "municipality": "Fene",
        "parish": "",
        "current_dataset_use": "positive_damaged_review",
        "pba_decision": "duplicate_possible_needs_human",
        "pba_name": "Castro das Pías/Castro de Cardoeiro",
        "pba_municipality": "Fene",
        "pba_parish": "Perlío (Santo Estevo)",
        "pba_place": "Cruceiro, O",
        "pba_id_ipaga": "GA15035011",
        "pba_cod_impres": "Fene_9327",
        "pba_tipoloxia": "Castro",
        "pba_x_etrs89_utm29": "567002",
        "pba_y_etrs89_utm29": "4813818",
        "pba_observacio": "SI.2021.392.INV: Localización e duplicado",
        "review_priority": "P2",
        "qgis_action": "Revisar contra PNOA/LiDAR y copiar a geocoded_sites_reviewed solo si queda aceptado.",
        "reason": "Likely points toward the As Pias/Cardoeiro/Cordoeiro cluster, but name-only evidence is too weak to geocode automatically."
      }
    },
    {
      "type": "Feature",
      "geometry": {
        "type": "Point",
        "coordinates": [
          -8.242723079720715,
          43.48378570961132
        ]
      },
      "properties": {
        "site_id": "tra-ferrol-canido",
        "primary_name": "Castro de Canido",
        "municipality": "Ferrol",
        "parish": "",
        "current_dataset_use": "positive_damaged_review",
        "pba_decision": "coordinate_for_damaged_review",
        "pba_name": "Castro de Canido",
        "pba_municipality": "Ferrol",
        "pba_parish": "Ferrol",
        "pba_place": "Ferrol",
        "pba_id_ipaga": "RE15036007",
        "pba_cod_impres": "Ferrol_9721",
        "pba_tipoloxia": "",
        "pba_x_etrs89_utm29": "561238",
        "pba_y_etrs89_utm29": "4814819",
        "pba_observacio": "",
        "review_priority": "P0",
        "qgis_action": "Revisar contra PNOA/LiDAR y copiar a geocoded_sites_reviewed solo si queda aceptado.",
        "reason": "Exact PBA reference-name match; keep review-only because the source row is marked damaged/disappeared."
      }
    },
    {
      "type": "Feature",
      "geometry": {
        "type": "Point",
        "coordinates": [
          -8.20836441392536,
          43.522706975089974
        ]
      },
      "properties": {
        "site_id": "tra-ferrol-o-xeixo",
        "primary_name": "Castro de O Xeixo",
        "municipality": "Ferrol",
        "parish": "San Pedro de Leixa",
        "current_dataset_use": "needs_geocoding",
        "pba_decision": "duplicate_or_alias",
        "pba_name": "Castro de Leixa/A Croa de Leixa",
        "pba_municipality": "Ferrol",
        "pba_parish": "Leixa (San Pedro)",
        "pba_place": "San Pedro de Leixa",
        "pba_id_ipaga": "GA15036006",
        "pba_cod_impres": "Ferrol_9723",
        "pba_tipoloxia": "",
        "pba_x_etrs89_utm29": "563975",
        "pba_y_etrs89_utm29": "4819168",
        "pba_observacio": "",
        "review_priority": "P2",
        "qgis_action": "Revisar contra PNOA/LiDAR y copiar a geocoded_sites_reviewed solo si queda aceptado.",
        "reason": "PBA has Castro de Leixa/A Croa de Leixa in San Pedro de Leixa; likely the same target as O Xeixo."
      }
    },
    {
      "type": "Feature",
      "geometry": {
        "type": "Point",
        "coordinates": [
          -8.249128691469277,
          43.539632953340096
        ]
      },
      "properties": {
        "site_id": "tra-ferrol-papoy",
        "primary_name": "Castro de Papoy",
        "municipality": "Ferrol",
        "parish": "San Pedro de Marmancón",
        "current_dataset_use": "needs_geocoding",
        "pba_decision": "duplicate_or_alias",
        "pba_name": "Castro de Marmancón/Castro de Papoi",
        "pba_municipality": "Ferrol",
        "pba_parish": "Marmancón (San Pedro)",
        "pba_place": "Rilo",
        "pba_id_ipaga": "GA15036003",
        "pba_cod_impres": "Ferrol_9725",
        "pba_tipoloxia": "",
        "pba_x_etrs89_utm29": "560664",
        "pba_y_etrs89_utm29": "4821017",
        "pba_observacio": "",
        "review_priority": "P2",
        "qgis_action": "Revisar contra PNOA/LiDAR y copiar a geocoded_sites_reviewed solo si queda aceptado.",
        "reason": "PBA has Castro de Marmancon/Castro de Papoi; Papoy should reconcile to that existing official row."
      }
    },
    {
      "type": "Feature",
      "geometry": {
        "type": "Point",
        "coordinates": [
          -8.17901516416762,
          43.501629521149226
        ]
      },
      "properties": {
        "site_id": "tra-naron-o-castro",
        "primary_name": "O Castro",
        "municipality": "Narón",
        "parish": "San Martiño do Couto",
        "current_dataset_use": "positive_damaged_review",
        "pba_decision": "duplicate_or_alias",
        "pba_name": "Castro de Petouzal/Castro da Croa",
        "pba_municipality": "Narón",
        "pba_parish": "Narón",
        "pba_place": "Castro, O",
        "pba_id_ipaga": "GA15054006",
        "pba_cod_impres": "Narón_14853",
        "pba_tipoloxia": "Castro",
        "pba_x_etrs89_utm29": "566370",
        "pba_y_etrs89_utm29": "4816850",
        "pba_observacio": "SI.2021.392.INV",
        "review_priority": "P2",
        "qgis_action": "Revisar contra PNOA/LiDAR y copiar a geocoded_sites_reviewed solo si queda aceptado.",
        "reason": "PBA has Castro de Petouzal/Castro da Croa in O Castro/Couto; dataset already has the official Petouzal row."
      }
    },
    {
      "type": "Feature",
      "geometry": {
        "type": "Point",
        "coordinates": [
          -8.149740461365019,
          43.50786201500216
        ]
      },
      "properties": {
        "site_id": "tra-neda-castros",
        "primary_name": "Castros",
        "municipality": "Neda",
        "parish": "San Martiño de Neda",
        "current_dataset_use": "needs_geocoding",
        "pba_decision": "coordinate_for_review_not_training",
        "pba_name": "Castros",
        "pba_municipality": "Neda",
        "pba_parish": "Santa María de Neda (Santa María)",
        "pba_place": "Castros, Os",
        "pba_id_ipaga": "TO15055002",
        "pba_cod_impres": "Neda_14979",
        "pba_tipoloxia": "",
        "pba_x_etrs89_utm29": "568730",
        "pba_y_etrs89_utm29": "4817566",
        "pba_observacio": "",
        "review_priority": "P0",
        "qgis_action": "Revisar contra PNOA/LiDAR y copiar a geocoded_sites_reviewed solo si queda aceptado.",
        "reason": "Exact topographic/toponymic PBA reference; not enough to promote as a training positive."
      }
    },
    {
      "type": "Feature",
      "geometry": {
        "type": "Point",
        "coordinates": [
          -8.149945022412972,
          43.489410895341756
        ]
      },
      "properties": {
        "site_id": "tra-neda-monte-de-rabadena",
        "primary_name": "Monte de Rabadeña",
        "municipality": "Neda",
        "parish": "Santa María de Neda",
        "current_dataset_use": "needs_geocoding",
        "pba_decision": "coordinate_for_review_not_training",
        "pba_name": "Cazoletas do Monte da Rabadeña",
        "pba_municipality": "Neda",
        "pba_parish": "Santa María de Neda (Santa María)",
        "pba_place": "Rabadeña, A",
        "pba_id_ipaga": "GA15055005",
        "pba_cod_impres": "Neda_14980",
        "pba_tipoloxia": "",
        "pba_x_etrs89_utm29": "568734",
        "pba_y_etrs89_utm29": "4815516",
        "pba_observacio": "Elemento desprazado 117 m con respecto a localización no PBA",
        "review_priority": "P0",
        "qgis_action": "Revisar contra PNOA/LiDAR y copiar a geocoded_sites_reviewed solo si queda aceptado.",
        "reason": "Exact code from the prior note, but PBA names it Cazoletas do Monte da Rabadena, not a castro."
      }
    },
    {
      "type": "Feature",
      "geometry": {
        "type": "Point",
        "coordinates": [
          -8.081000277632068,
          43.48946910625164
        ]
      },
      "properties": {
        "site_id": "tra-san-sadurnino-a-croa-naraio",
        "primary_name": "A Croa / Naraío",
        "municipality": "San Sadurniño",
        "parish": "Naraío",
        "current_dataset_use": "review_only",
        "pba_decision": "coordinate_for_toponymic_review",
        "pba_name": "A Croa",
        "pba_municipality": "San Sadurniño",
        "pba_parish": "Naraío (Santa María)",
        "pba_place": "O Batán",
        "pba_id_ipaga": "",
        "pba_cod_impres": "San Sadurniño_20165",
        "pba_tipoloxia": "",
        "pba_x_etrs89_utm29": "574309",
        "pba_y_etrs89_utm29": "4815582",
        "pba_observacio": "",
        "review_priority": "P0",
        "qgis_action": "Revisar contra PNOA/LiDAR y copiar a geocoded_sites_reviewed solo si queda aceptado.",
        "reason": "PBA has A Croa in Naraio/O Batan, but no ID_IPAGA; keep toponymic review-only."
      }
    },
    {
      "type": "Feature",
      "geometry": {
        "type": "Point",
        "coordinates": [
          -8.06556223656323,
          43.54359118222014
        ]
      },
      "properties": {
        "site_id": "tra-san-sadurnino-castro-das-croas",
        "primary_name": "Castro das Croas",
        "municipality": "San Sadurniño",
        "parish": "San Sadurniño",
        "current_dataset_use": "needs_geocoding",
        "pba_decision": "coordinate_for_review_reconcile_duplicate",
        "pba_name": "Castro Das Croas",
        "pba_municipality": "San Sadurniño",
        "pba_parish": "San Sadurniño (Santa María)",
        "pba_place": "A Rubiña",
        "pba_id_ipaga": "GA15076006",
        "pba_cod_impres": "San Sadurniño_20191",
        "pba_tipoloxia": "",
        "pba_x_etrs89_utm29": "575490",
        "pba_y_etrs89_utm29": "4821607",
        "pba_observacio": "NO PBA denomínase \"Castro de San Sadurniño\"",
        "review_priority": "P0",
        "qgis_action": "Revisar contra PNOA/LiDAR y copiar a geocoded_sites_reviewed solo si queda aceptado.",
        "reason": "Strong PBA name match; reconcile with existing Castro de San Sadurnino/Galipedia row before training."
      }
    },
    {
      "type": "Feature",
      "geometry": {
        "type": "Point",
        "coordinates": [
          -8.032826260167933,
          43.577979015085575
        ]
      },
      "properties": {
        "site_id": "tra-san-sadurnino-coto-da-croa-ou-a-croa-do-castro",
        "primary_name": "Coto da Croa ou A Croa do Castro",
        "municipality": "San Sadurniño",
        "parish": "Bardaos",
        "current_dataset_use": "needs_geocoding",
        "pba_decision": "coordinate_for_review",
        "pba_name": "Coto da Croa",
        "pba_municipality": "San Sadurniño",
        "pba_parish": "Bardaos (Santa María)",
        "pba_place": "O Castro",
        "pba_id_ipaga": "GA15076005",
        "pba_cod_impres": "San Sadurniño_20199",
        "pba_tipoloxia": "",
        "pba_x_etrs89_utm29": "578090",
        "pba_y_etrs89_utm29": "4825456",
        "pba_observacio": "",
        "review_priority": "P0",
        "qgis_action": "Revisar contra PNOA/LiDAR y copiar a geocoded_sites_reviewed solo si queda aceptado.",
        "reason": "PBA has Coto da Croa in Bardaos/O Castro."
      }
    },
    {
      "type": "Feature",
      "geometry": {
        "type": "Point",
        "coordinates": [
          -8.073395247811263,
          43.580510855618954
        ]
      },
      "properties": {
        "site_id": "tra-san-sadurnino-coto-da-croa-ou-a-croa-do-castro-2",
        "primary_name": "Coto da Croa ou A Croa do Castro",
        "municipality": "San Sadurniño",
        "parish": "Monte",
        "current_dataset_use": "needs_geocoding",
        "pba_decision": "coordinate_for_review",
        "pba_name": "A Croa do Castro",
        "pba_municipality": "San Sadurniño",
        "pba_parish": "Santa Mariña do Monte (Santa Mariña)",
        "pba_place": "Escoitadoira",
        "pba_id_ipaga": "GA15076004",
        "pba_cod_impres": "San Sadurniño_20166",
        "pba_tipoloxia": "",
        "pba_x_etrs89_utm29": "574811",
        "pba_y_etrs89_utm29": "4825700",
        "pba_observacio": "O planeamento identifica un ben co mesmo nome, situado na parroquia de Narahío",
        "review_priority": "P0",
        "qgis_action": "Revisar contra PNOA/LiDAR y copiar a geocoded_sites_reviewed solo si queda aceptado.",
        "reason": "PBA has A Croa do Castro in Santa Marina do Monte/Escoitadoira."
      }
    },
    {
      "type": "Feature",
      "geometry": {
        "type": "Point",
        "coordinates": [
          -8.19140505875158,
          43.61149392500149
        ]
      },
      "properties": {
        "site_id": "tra-valdovino-ga15087017",
        "primary_name": "Puerto de Meirás",
        "municipality": "Valdoviño",
        "parish": "Meirás",
        "current_dataset_use": "needs_geocoding",
        "pba_decision": "coordinate_for_review_not_training",
        "pba_name": "Porto de Meirás",
        "pba_municipality": "Valdoviño",
        "pba_parish": "Meirás (San Vicente)",
        "pba_place": "Carballoso, O",
        "pba_id_ipaga": "GA15087017",
        "pba_cod_impres": "Valdoviño_25090",
        "pba_tipoloxia": "Medieval",
        "pba_x_etrs89_utm29": "565250",
        "pba_y_etrs89_utm29": "4829041",
        "pba_observacio": "",
        "review_priority": "P0",
        "qgis_action": "Revisar contra PNOA/LiDAR y copiar a geocoded_sites_reviewed solo si queda aceptado.",
        "reason": "Exact code match, but PBA typology is Medieval, so do not use as castro training positive without review."
      }
    },
    {
      "type": "Feature",
      "geometry": {
        "type": "Point",
        "coordinates": [
          -8.148872875517807,
          43.618480398789906
        ]
      },
      "properties": {
        "site_id": "tra-valdovino-praia-frouxeira",
        "primary_name": "Castro de Praia Frouxeira",
        "municipality": "Valdoviño",
        "parish": "Santa Eulalia de Valdoviño",
        "current_dataset_use": "needs_geocoding",
        "pba_decision": "duplicate_or_alias",
        "pba_name": "Castro de Punta Frouxeira",
        "pba_municipality": "Valdoviño",
        "pba_parish": "Valdoviño (Santaia)",
        "pba_place": "Saíña, A",
        "pba_id_ipaga": "GA15087009",
        "pba_cod_impres": "Valdoviño_25034",
        "pba_tipoloxia": "Castro",
        "pba_x_etrs89_utm29": "568674",
        "pba_y_etrs89_utm29": "4829852",
        "pba_observacio": "",
        "review_priority": "P2",
        "qgis_action": "Revisar contra PNOA/LiDAR y copiar a geocoded_sites_reviewed solo si queda aceptado.",
        "reason": "PBA has Castro de Punta Frouxeira; reconcile with existing official GA15087009 row."
      }
    }
  ]
}