{
  "type": "FeatureCollection",
  "name": "tile_windows_512m",
  "crs": {
    "type": "name",
    "properties": {
      "name": "EPSG:4326"
    }
  },
  "features": [
    {
      "type": "Feature",
      "geometry": {
        "type": "Polygon",
        "coordinates": [
          [
            [
              -8.094477986784112,
              43.65845546339202
            ],
            [
              -8.088120373215888,
              43.65845546339202
            ],
            [
              -8.088120373215888,
              43.663054816607975
            ],
            [
              -8.094477986784112,
              43.663054816607975
            ],
            [
              -8.094477986784112,
              43.65845546339202
            ]
          ]
        ]
      },
      "properties": {
        "site_id": "tra-ferrol-ga15036001",
        "primary_name": "Castro de Lobariz / Lobadiz",
        "municipality": "Ferrol",
        "parish": "San Xurxo da Mariña",
        "place": "Punta do Castro",
        "ga_code": "GA15036001",
        "record_type": "official_castro",
        "confidence": "high",
        "dataset_use": "train_positive_candidate",
        "split": "train",
        "coord_source": "Patrimonio Galego",
        "review_priority": "P1",
        "qgis_action": "Verificar coordenada y dibujar polígono/buffer entrenable.",
        "suggested_decision": "draw_training_polygon",
        "notes": "catálogo Ferrol; otros nombres Punta do Castro | Presente en lista clásica Pena/Calaméo nº 1. | 3 coordenadas candidatas en fuentes; se eligió Patrimonio Galego por prioridad.",
        "tile_side_m": "512",
        "tile_status": "candidate_crop_window"
      }
    },
    {
      "type": "Feature",
      "geometry": {
        "type": "Polygon",
        "coordinates": [
          [
            [
              -8.270470078117084,
              43.52962029339202
            ],
            [
              -8.264126061882918,
              43.52962029339202
            ],
            [
              -8.264126061882918,
              43.53421964660797
            ],
            [
              -8.270470078117084,
              43.53421964660797
            ],
            [
              -8.270470078117084,
              43.52962029339202
            ]
          ]
        ]
      },
      "properties": {
        "site_id": "tra-ferrol-ga15036002",
        "primary_name": "Castro de Tralocastro / Esmelle",
        "municipality": "Ferrol",
        "parish": "Esmelle",
        "place": "Tralocastro",
        "ga_code": "GA15036002",
        "record_type": "official_castro",
        "confidence": "high",
        "dataset_use": "train_positive_candidate",
        "split": "train",
        "coord_source": "Patrimonio Galego",
        "review_priority": "P1",
        "qgis_action": "Verificar coordenada y dibujar polígono/buffer entrenable.",
        "suggested_decision": "draw_training_polygon",
        "notes": "catálogo Ferrol | Presente en lista clásica Pena/Calaméo nº 5. | 3 coordenadas candidatas en fuentes; se eligió Patrimonio Galego por prioridad.",
        "tile_side_m": "512",
        "tile_status": "candidate_crop_window"
      }
    },
    {
      "type": "Feature",
      "geometry": {
        "type": "Polygon",
        "coordinates": [
          [
            [
              -8.252113452594685,
              43.537499213392024
            ],
            [
              -8.245768607405314,
              43.537499213392024
            ],
            [
              -8.245768607405314,
              43.542098566607976
            ],
            [
              -8.252113452594685,
              43.542098566607976
            ],
            [
              -8.252113452594685,
              43.537499213392024
            ]
          ]
        ]
      },
      "properties": {
        "site_id": "tra-ferrol-ga15036003",
        "primary_name": "Castro de Marmancón / Papoi",
        "municipality": "Ferrol",
        "parish": "Marmancón",
        "place": "Papoi",
        "ga_code": "GA15036003",
        "record_type": "official_castro",
        "confidence": "high",
        "dataset_use": "train_positive_candidate",
        "split": "train",
        "coord_source": "Patrimonio Galego",
        "review_priority": "P1",
        "qgis_action": "Verificar coordenada y dibujar polígono/buffer entrenable.",
        "suggested_decision": "draw_training_polygon",
        "notes": "catálogo Ferrol; otros nombres Castro de Papoi | 3 coordenadas candidatas en fuentes; se eligió Patrimonio Galego por prioridad.",
        "tile_side_m": "512",
        "tile_status": "candidate_crop_window"
      }
    },
    {
      "type": "Feature",
      "geometry": {
        "type": "Polygon",
        "coordinates": [
          [
            [
              -8.243235610891755,
              43.522066323392025
            ],
            [
              -8.236892389108245,
              43.522066323392025
            ],
            [
              -8.236892389108245,
              43.526665676607976
            ],
            [
              -8.243235610891755,
              43.526665676607976
            ],
            [
              -8.243235610891755,
              43.522066323392025
            ]
          ]
        ]
      },
      "properties": {
        "site_id": "tra-ferrol-ga15036004",
        "primary_name": "Monte do Castro / Castro de Vilela",
        "municipality": "Ferrol",
        "parish": "Mandiá",
        "place": "Vilela",
        "ga_code": "GA15036004",
        "record_type": "official_castro",
        "confidence": "high",
        "dataset_use": "train_positive_candidate",
        "split": "train",
        "coord_source": "Artabro",
        "review_priority": "P1",
        "qgis_action": "Verificar coordenada y dibujar polígono/buffer entrenable.",
        "suggested_decision": "draw_training_polygon",
        "notes": "catálogo Ferrol; OCR lee Vuela/Vilela | Presente en lista clásica Pena/Calaméo nº 7. | 2 coordenadas candidatas en fuentes; se eligió Artabro por prioridad.",
        "tile_side_m": "512",
        "tile_status": "candidate_crop_window"
      }
    },
    {
      "type": "Feature",
      "geometry": {
        "type": "Polygon",
        "coordinates": [
          [
            [
              -8.23429153609729,
              43.51227218339202
            ],
            [
              -8.22794934390271,
              43.51227218339202
            ],
            [
              -8.22794934390271,
              43.51687153660797
            ],
            [
              -8.23429153609729,
              43.51687153660797
            ],
            [
              -8.23429153609729,
              43.51227218339202
            ]
          ]
        ]
      },
      "properties": {
        "site_id": "tra-ferrol-ga15036005",
        "primary_name": "Os Castros de Mandiá",
        "municipality": "Ferrol",
        "parish": "Mandiá",
        "place": "Fraga",
        "ga_code": "GA15036005",
        "record_type": "official_castro",
        "confidence": "high",
        "dataset_use": "train_positive_candidate",
        "split": "train",
        "coord_source": "Patrimonio Galego",
        "review_priority": "P1",
        "qgis_action": "Verificar coordenada y dibujar polígono/buffer entrenable.",
        "suggested_decision": "draw_training_polygon",
        "notes": "catálogo Ferrol",
        "tile_side_m": "512",
        "tile_status": "candidate_crop_window"
      }
    },
    {
      "type": "Feature",
      "geometry": {
        "type": "Polygon",
        "coordinates": [
          [
            [
              -8.203166995803484,
              43.508840863392024
            ],
            [
              -8.196825164196516,
              43.508840863392024
            ],
            [
              -8.196825164196516,
              43.513440216607975
            ],
            [
              -8.203166995803484,
              43.513440216607975
            ],
            [
              -8.203166995803484,
              43.508840863392024
            ]
          ]
        ]
      },
      "properties": {
        "site_id": "tra-ferrol-ga15036007",
        "primary_name": "Castro de Santa Cecilia",
        "municipality": "Ferrol",
        "parish": "Santa Icía de Trasancos",
        "place": "Castro",
        "ga_code": "GA15036007",
        "record_type": "official_castro",
        "confidence": "high",
        "dataset_use": "train_positive_candidate",
        "split": "train",
        "coord_source": "Patrimonio Galego",
        "review_priority": "P1",
        "qgis_action": "Verificar coordenada y dibujar polígono/buffer entrenable.",
        "suggested_decision": "draw_training_polygon",
        "notes": "catálogo Ferrol",
        "tile_side_m": "512",
        "tile_status": "candidate_crop_window"
      }
    },
    {
      "type": "Feature",
      "geometry": {
        "type": "Polygon",
        "coordinates": [
          [
            [
              -8.26640333538522,
              43.497790323392024
            ],
            [
              -8.260062664614779,
              43.497790323392024
            ],
            [
              -8.260062664614779,
              43.502389676607976
            ],
            [
              -8.26640333538522,
              43.502389676607976
            ],
            [
              -8.26640333538522,
              43.497790323392024
            ]
          ]
        ]
      },
      "properties": {
        "site_id": "tra-ferrol-ga15036008",
        "primary_name": "Castro de Vilasanche",
        "municipality": "Ferrol",
        "parish": "Serantes",
        "place": "Vilasanche",
        "ga_code": "GA15036008",
        "record_type": "official_castro",
        "confidence": "high",
        "dataset_use": "train_positive_candidate",
        "split": "train",
        "coord_source": "Artabro",
        "review_priority": "P1",
        "qgis_action": "Verificar coordenada y dibujar polígono/buffer entrenable.",
        "suggested_decision": "draw_training_polygon",
        "notes": "catálogo Ferrol | Presente en lista clásica Pena/Calaméo nº 8. | 2 coordenadas candidatas en fuentes; se eligió Artabro por prioridad.",
        "tile_side_m": "512",
        "tile_status": "candidate_crop_window"
      }
    },
    {
      "type": "Feature",
      "geometry": {
        "type": "Polygon",
        "coordinates": [
          [
            [
              -8.279930919347942,
              43.49158016339202
            ],
            [
              -8.273590900652058,
              43.49158016339202
            ],
            [
              -8.273590900652058,
              43.496179516607974
            ],
            [
              -8.279930919347942,
              43.496179516607974
            ],
            [
              -8.279930919347942,
              43.49158016339202
            ]
          ]
        ]
      },
      "properties": {
        "site_id": "tra-ferrol-ga15036010",
        "primary_name": "Coto dos Mouros / Castro de Vilabuíde",
        "municipality": "Ferrol",
        "parish": "Doniños",
        "place": "Vilabuíde",
        "ga_code": "GA15036010",
        "record_type": "official_castro",
        "confidence": "high",
        "dataset_use": "train_positive_candidate",
        "split": "train",
        "coord_source": "Patrimonio Galego",
        "review_priority": "P1",
        "qgis_action": "Verificar coordenada y dibujar polígono/buffer entrenable.",
        "suggested_decision": "draw_training_polygon",
        "notes": "catálogo Ferrol; otros nombres Castelo dos Mouros/Castro de Vilabuíde | Presente en lista clásica Pena/Calaméo nº 3. | 2 coordenadas candidatas en fuentes; se eligió Patrimonio Galego por prioridad.",
        "tile_side_m": "512",
        "tile_status": "candidate_crop_window"
      }
    },
    {
      "type": "Feature",
      "geometry": {
        "type": "Polygon",
        "coordinates": [
          [
            [
              -8.287079483902904,
              43.55803905339202
            ],
            [
              -8.280732476097096,
              43.55803905339202
            ],
            [
              -8.280732476097096,
              43.562638406607974
            ],
            [
              -8.287079483902904,
              43.562638406607974
            ],
            [
              -8.287079483902904,
              43.55803905339202
            ]
          ]
        ]
      },
      "properties": {
        "site_id": "tra-ferrol-ga15036014",
        "primary_name": "Necrópolis de Santa Comba",
        "municipality": "Ferrol",
        "parish": "Covas",
        "place": "Santa Comba",
        "ga_code": "GA15036014",
        "record_type": "official_castro",
        "confidence": "high",
        "dataset_use": "train_positive_candidate",
        "split": "train",
        "coord_source": "Patrimonio Galego",
        "review_priority": "P1",
        "qgis_action": "Verificar coordenada y dibujar polígono/buffer entrenable.",
        "suggested_decision": "draw_training_polygon",
        "notes": "el catálogo la tipa como castro/asentamiento fortificado y necrópolis | 2 coordenadas candidatas en fuentes; se eligió Patrimonio Galego por prioridad.",
        "tile_side_m": "512",
        "tile_status": "candidate_crop_window"
      }
    },
    {
      "type": "Feature",
      "geometry": {
        "type": "Polygon",
        "coordinates": [
          [
            [
              -8.22363078507735,
              43.564705063392026
            ],
            [
              -8.217283074922648,
              43.564705063392026
            ],
            [
              -8.217283074922648,
              43.56930441660798
            ],
            [
              -8.22363078507735,
              43.56930441660798
            ],
            [
              -8.22363078507735,
              43.564705063392026
            ]
          ]
        ]
      },
      "properties": {
        "site_id": "tra-naron-ga15054001",
        "primary_name": "X-39 Monte do Castro",
        "municipality": "Narón",
        "parish": "O Val",
        "place": "",
        "ga_code": "GA15054001",
        "record_type": "official_castro",
        "confidence": "high",
        "dataset_use": "positive_o_val_holdout",
        "split": "test_o_val",
        "coord_source": "PXOM Narón 2023/2024",
        "review_priority": "P0",
        "qgis_action": "Verificar coordenada y dibujar polígono/buffer; mantener fuera de entrenamiento.",
        "suggested_decision": "verify_holdout_polygon",
        "notes": "",
        "tile_side_m": "512",
        "tile_status": "candidate_crop_window"
      }
    },
    {
      "type": "Feature",
      "geometry": {
        "type": "Polygon",
        "coordinates": [
          [
            [
              -8.217437506360184,
              43.55049011339202
            ],
            [
              -8.211091293639814,
              43.55049011339202
            ],
            [
              -8.211091293639814,
              43.555089466607974
            ],
            [
              -8.217437506360184,
              43.555089466607974
            ],
            [
              -8.217437506360184,
              43.55049011339202
            ]
          ]
        ]
      },
      "properties": {
        "site_id": "tra-naron-ga15054002",
        "primary_name": "X-41 Castro de Quintá",
        "municipality": "Narón",
        "parish": "O Val",
        "place": "Quintá",
        "ga_code": "GA15054002",
        "record_type": "official_castro",
        "confidence": "high",
        "dataset_use": "positive_o_val_holdout",
        "split": "test_o_val",
        "coord_source": "PXOM Narón 2023/2024",
        "review_priority": "P0",
        "qgis_action": "Verificar coordenada y dibujar polígono/buffer; mantener fuera de entrenamiento.",
        "suggested_decision": "verify_holdout_polygon",
        "notes": "Presente en lista clásica Pena/Calaméo nº 14. | 4 coordenadas candidatas en fuentes; se eligió PXOM Narón 2023/2024 por prioridad.",
        "tile_side_m": "512",
        "tile_status": "candidate_crop_window"
      }
    },
    {
      "type": "Feature",
      "geometry": {
        "type": "Polygon",
        "coordinates": [
          [
            [
              -8.225439450524977,
              43.54145061339202
            ],
            [
              -8.219094189475022,
              43.54145061339202
            ],
            [
              -8.219094189475022,
              43.546049966607974
            ],
            [
              -8.225439450524977,
              43.546049966607974
            ],
            [
              -8.225439450524977,
              43.54145061339202
            ]
          ]
        ]
      },
      "properties": {
        "site_id": "tra-naron-ga15054003",
        "primary_name": "X-14 Castro de San Mateo",
        "municipality": "Narón",
        "parish": "Trasancos / San Mateo",
        "place": "O Vilar",
        "ga_code": "GA15054003",
        "record_type": "official_castro",
        "confidence": "high",
        "dataset_use": "test_positive_candidate",
        "split": "test",
        "coord_source": "PXOM Narón 2023/2024",
        "review_priority": "P1",
        "qgis_action": "Verificar coordenada y dibujar polígono/buffer entrenable.",
        "suggested_decision": "draw_training_polygon",
        "notes": "Presente en lista clásica Pena/Calaméo nº 15. | 2 coordenadas candidatas en fuentes; se eligió PXOM Narón 2023/2024 por prioridad.",
        "tile_side_m": "512",
        "tile_status": "candidate_crop_window"
      }
    },
    {
      "type": "Feature",
      "geometry": {
        "type": "Polygon",
        "coordinates": [
          [
            [
              -8.181311664934428,
              43.542294443392024
            ],
            [
              -8.174966315065573,
              43.542294443392024
            ],
            [
              -8.174966315065573,
              43.546893796607975
            ],
            [
              -8.181311664934428,
              43.546893796607975
            ],
            [
              -8.181311664934428,
              43.542294443392024
            ]
          ]
        ]
      },
      "properties": {
        "site_id": "tra-naron-ga15054004",
        "primary_name": "X-40 Castro de Santa María",
        "municipality": "Narón",
        "parish": "Castro (Santa María)",
        "place": "Borreiros",
        "ga_code": "GA15054004",
        "record_type": "official_castro",
        "confidence": "high",
        "dataset_use": "test_positive_candidate",
        "split": "test",
        "coord_source": "PXOM Narón 2023/2024",
        "review_priority": "P1",
        "qgis_action": "Verificar coordenada y dibujar polígono/buffer entrenable.",
        "suggested_decision": "draw_training_polygon",
        "notes": "",
        "tile_side_m": "512",
        "tile_status": "candidate_crop_window"
      }
    },
    {
      "type": "Feature",
      "geometry": {
        "type": "Polygon",
        "coordinates": [
          [
            [
              -8.136938117858822,
              43.54899910339203
            ],
            [
              -8.13059206214118,
              43.54899910339203
            ],
            [
              -8.13059206214118,
              43.55359845660798
            ],
            [
              -8.136938117858822,
              43.55359845660798
            ],
            [
              -8.136938117858822,
              43.54899910339203
            ]
          ]
        ]
      },
      "properties": {
        "site_id": "tra-naron-ga15054005",
        "primary_name": "X-10 Castro de Eiravedra",
        "municipality": "Narón",
        "parish": "Sedes",
        "place": "Eiravedra",
        "ga_code": "GA15054005",
        "record_type": "official_castro",
        "confidence": "high",
        "dataset_use": "test_positive_candidate",
        "split": "test",
        "coord_source": "PXOM Narón 2023/2024",
        "review_priority": "P1",
        "qgis_action": "Verificar coordenada y dibujar polígono/buffer entrenable.",
        "suggested_decision": "draw_training_polygon",
        "notes": "Presente en lista clásica Pena/Calaméo nº 18. | 3 coordenadas candidatas en fuentes; se eligió PXOM Narón 2023/2024 por prioridad.",
        "tile_side_m": "512",
        "tile_status": "candidate_crop_window"
      }
    },
    {
      "type": "Feature",
      "geometry": {
        "type": "Polygon",
        "coordinates": [
          [
            [
              -8.181903740522705,
              43.49941164339202
            ],
            [
              -8.175562899477294,
              43.49941164339202
            ],
            [
              -8.175562899477294,
              43.504010996607974
            ],
            [
              -8.181903740522705,
              43.504010996607974
            ],
            [
              -8.181903740522705,
              43.49941164339202
            ]
          ]
        ]
      },
      "properties": {
        "site_id": "tra-naron-ga15054006",
        "primary_name": "X-09 Castro de Couto / O Petouzal",
        "municipality": "Narón",
        "parish": "O Couto",
        "place": "",
        "ga_code": "GA15054006",
        "record_type": "official_castro",
        "confidence": "high",
        "dataset_use": "test_positive_candidate",
        "split": "test",
        "coord_source": "PXOM Narón 2023/2024",
        "review_priority": "P1",
        "qgis_action": "Verificar coordenada y dibujar polígono/buffer entrenable.",
        "suggested_decision": "draw_training_polygon",
        "notes": "3 coordenadas candidatas en fuentes; se eligió PXOM Narón 2023/2024 por prioridad.",
        "tile_side_m": "512",
        "tile_status": "candidate_crop_window"
      }
    },
    {
      "type": "Feature",
      "geometry": {
        "type": "Polygon",
        "coordinates": [
          [
            [
              -8.17601451778902,
              43.531325163392026
            ],
            [
              -8.16967032221098,
              43.531325163392026
            ],
            [
              -8.16967032221098,
              43.53592451660798
            ],
            [
              -8.17601451778902,
              43.53592451660798
            ],
            [
              -8.17601451778902,
              43.531325163392026
            ]
          ]
        ]
      },
      "properties": {
        "site_id": "tra-naron-ga15054007",
        "primary_name": "X-11 Castro de Sequeiro",
        "municipality": "Narón",
        "parish": "San Xiao de Narón",
        "place": "Sequeiro",
        "ga_code": "GA15054007",
        "record_type": "official_castro",
        "confidence": "high",
        "dataset_use": "test_positive_candidate",
        "split": "test",
        "coord_source": "PXOM Narón 2023/2024",
        "review_priority": "P1",
        "qgis_action": "Verificar coordenada y dibujar polígono/buffer entrenable.",
        "suggested_decision": "draw_training_polygon",
        "notes": "Presente en lista clásica Pena/Calaméo nº 16. | 4 coordenadas candidatas en fuentes; se eligió PXOM Narón 2023/2024 por prioridad.",
        "tile_side_m": "512",
        "tile_status": "candidate_crop_window"
      }
    },
    {
      "type": "Feature",
      "geometry": {
        "type": "Polygon",
        "coordinates": [
          [
            [
              -8.161845547818803,
              43.532086173392024
            ],
            [
              -8.155501272181198,
              43.532086173392024
            ],
            [
              -8.155501272181198,
              43.536685526607975
            ],
            [
              -8.161845547818803,
              43.536685526607975
            ],
            [
              -8.161845547818803,
              43.532086173392024
            ]
          ]
        ]
      },
      "properties": {
        "site_id": "tra-naron-ga15054009",
        "primary_name": "X-15 Castro de Vicás",
        "municipality": "Narón",
        "parish": "San Xiao de Narón",
        "place": "Vicás",
        "ga_code": "GA15054009",
        "record_type": "official_castro",
        "confidence": "high",
        "dataset_use": "test_positive_candidate",
        "split": "test",
        "coord_source": "PXOM Narón 2023/2024",
        "review_priority": "P1",
        "qgis_action": "Verificar coordenada y dibujar polígono/buffer entrenable.",
        "suggested_decision": "draw_training_polygon",
        "notes": "Presente en lista clásica Pena/Calaméo nº 19. | 2 coordenadas candidatas en fuentes; se eligió PXOM Narón 2023/2024 por prioridad.",
        "tile_side_m": "512",
        "tile_status": "candidate_crop_window"
      }
    },
    {
      "type": "Feature",
      "geometry": {
        "type": "Polygon",
        "coordinates": [
          [
            [
              -8.10738709184763,
              43.53140232339202
            ],
            [
              -8.101042888152369,
              43.53140232339202
            ],
            [
              -8.101042888152369,
              43.536001676607974
            ],
            [
              -8.10738709184763,
              43.536001676607974
            ],
            [
              -8.10738709184763,
              43.53140232339202
            ]
          ]
        ]
      },
      "properties": {
        "site_id": "tra-naron-ga15054010",
        "primary_name": "X-04 Castro da Ermida",
        "municipality": "Narón",
        "parish": "Pedroso",
        "place": "",
        "ga_code": "GA15054010",
        "record_type": "official_castro",
        "confidence": "high",
        "dataset_use": "test_positive_candidate",
        "split": "test",
        "coord_source": "PXOM Narón 2023/2024",
        "review_priority": "P1",
        "qgis_action": "Verificar coordenada y dibujar polígono/buffer entrenable.",
        "suggested_decision": "draw_training_polygon",
        "notes": "Presente en lista clásica Pena/Calaméo nº 20. | 3 coordenadas candidatas en fuentes; se eligió PXOM Narón 2023/2024 por prioridad.",
        "tile_side_m": "512",
        "tile_status": "candidate_crop_window"
      }
    },
    {
      "type": "Feature",
      "geometry": {
        "type": "Polygon",
        "coordinates": [
          [
            [
              -8.232303388497481,
              43.558505983392024
            ],
            [
              -8.22595633150252,
              43.558505983392024
            ],
            [
              -8.22595633150252,
              43.563105336607975
            ],
            [
              -8.232303388497481,
              43.563105336607975
            ],
            [
              -8.232303388497481,
              43.558505983392024
            ]
          ]
        ]
      },
      "properties": {
        "site_id": "tra-naron-ga15054037",
        "primary_name": "X-07 Castro de A Pedreira",
        "municipality": "Narón",
        "parish": "O Val",
        "place": "Pedreira",
        "ga_code": "GA15054037",
        "record_type": "official_castro",
        "confidence": "high",
        "dataset_use": "positive_o_val_holdout",
        "split": "test_o_val",
        "coord_source": "PXOM Narón 2023/2024",
        "review_priority": "P0",
        "qgis_action": "Verificar coordenada y dibujar polígono/buffer; mantener fuera de entrenamiento.",
        "suggested_decision": "verify_holdout_polygon",
        "notes": "4 coordenadas candidatas en fuentes; se eligió PXOM Narón 2023/2024 por prioridad.",
        "tile_side_m": "512",
        "tile_status": "candidate_crop_window"
      }
    },
    {
      "type": "Feature",
      "geometry": {
        "type": "Polygon",
        "coordinates": [
          [
            [
              -8.223737117574354,
              43.564752453392025
            ],
            [
              -8.217389402425647,
              43.564752453392025
            ],
            [
              -8.217389402425647,
              43.569351806607976
            ],
            [
              -8.223737117574354,
              43.569351806607976
            ],
            [
              -8.223737117574354,
              43.564752453392025
            ]
          ]
        ]
      },
      "properties": {
        "site_id": "tra-naron-vilasuso",
        "primary_name": "Castro de Vilasuso",
        "municipality": "Narón",
        "parish": "Santa María Maior do Val",
        "place": "",
        "ga_code": "GA150054001",
        "record_type": "classical_catalog_reference",
        "confidence": "medium_low",
        "dataset_use": "positive_o_val_holdout",
        "split": "test_o_val",
        "coord_source": "Patrimonio Galego",
        "review_priority": "P0",
        "qgis_action": "Verificar coordenada y dibujar polígono/buffer; mantener fuera de entrenamiento.",
        "suggested_decision": "verify_holdout_polygon",
        "notes": "Entrada de la lista clásica Pena/Calaméo pendiente de reconciliación con catálogo oficial. | 3 coordenadas candidatas en fuentes; se eligió Patrimonio Galego por prioridad.",
        "tile_side_m": "512",
        "tile_status": "candidate_crop_window"
      }
    },
    {
      "type": "Feature",
      "geometry": {
        "type": "Polygon",
        "coordinates": [
          [
            [
              -8.122558761681946,
              43.54090254339202
            ],
            [
              -8.116213558318053,
              43.54090254339202
            ],
            [
              -8.116213558318053,
              43.54550189660797
            ],
            [
              -8.122558761681946,
              43.54550189660797
            ],
            [
              -8.122558761681946,
              43.54090254339202
            ]
          ]
        ]
      },
      "properties": {
        "site_id": "tra-naron-x-05-castro-da-pereiruga",
        "primary_name": "X-05 Castro da Pereiruga",
        "municipality": "Narón",
        "parish": "Pedroso",
        "place": "",
        "ga_code": "GA15054016",
        "record_type": "official_uncoded_castro",
        "confidence": "medium_high",
        "dataset_use": "test_positive_candidate",
        "split": "test",
        "coord_source": "PXOM Narón 2023/2024",
        "review_priority": "P1",
        "qgis_action": "Verificar coordenada y dibujar polígono/buffer entrenable.",
        "suggested_decision": "draw_training_polygon",
        "notes": "Presente en lista clásica Pena/Calaméo nº 24. | 3 coordenadas candidatas en fuentes; se eligió PXOM Narón 2023/2024 por prioridad.",
        "tile_side_m": "512",
        "tile_status": "candidate_crop_window"
      }
    },
    {
      "type": "Feature",
      "geometry": {
        "type": "Polygon",
        "coordinates": [
          [
            [
              -8.160243064888753,
              43.536972643392026
            ],
            [
              -8.153898275111246,
              43.536972643392026
            ],
            [
              -8.153898275111246,
              43.54157199660798
            ],
            [
              -8.160243064888753,
              43.54157199660798
            ],
            [
              -8.160243064888753,
              43.536972643392026
            ]
          ]
        ]
      },
      "properties": {
        "site_id": "tra-naron-x-06-castro-da-revolta",
        "primary_name": "X-06 Castro da Revolta",
        "municipality": "Narón",
        "parish": "Sedes",
        "place": "A Revolta",
        "ga_code": "GA15054008",
        "record_type": "official_uncoded_castro",
        "confidence": "medium_high",
        "dataset_use": "test_positive_candidate",
        "split": "test",
        "coord_source": "PXOM Narón 2023/2024",
        "review_priority": "P1",
        "qgis_action": "Verificar coordenada y dibujar polígono/buffer entrenable.",
        "suggested_decision": "draw_training_polygon",
        "notes": "Presente en lista clásica Pena/Calaméo nº 17. | 3 coordenadas candidatas en fuentes; se eligió PXOM Narón 2023/2024 por prioridad.",
        "tile_side_m": "512",
        "tile_status": "candidate_crop_window"
      }
    },
    {
      "type": "Feature",
      "geometry": {
        "type": "Polygon",
        "coordinates": [
          [
            [
              -8.107034513532845,
              43.51755110339202
            ],
            [
              -8.100691766467154,
              43.51755110339202
            ],
            [
              -8.100691766467154,
              43.522150456607974
            ],
            [
              -8.107034513532845,
              43.522150456607974
            ],
            [
              -8.107034513532845,
              43.51755110339202
            ]
          ]
        ]
      },
      "properties": {
        "site_id": "tra-naron-x-48-castro-do-ramo",
        "primary_name": "X-48 Castro do Ramo",
        "municipality": "Narón",
        "parish": "",
        "place": "",
        "ga_code": "",
        "record_type": "official_uncoded_castro",
        "confidence": "medium_high",
        "dataset_use": "test_positive_candidate",
        "split": "test",
        "coord_source": "PXOM Narón 2023/2024",
        "review_priority": "P1",
        "qgis_action": "Verificar coordenada y dibujar polígono/buffer entrenable.",
        "suggested_decision": "draw_training_polygon",
        "notes": "en trámite según índice PXOM",
        "tile_side_m": "512",
        "tile_status": "candidate_crop_window"
      }
    },
    {
      "type": "Feature",
      "geometry": {
        "type": "Polygon",
        "coordinates": [
          [
            [
              -8.14354148440477,
              43.519660323392024
            ],
            [
              -8.137198515595232,
              43.519660323392024
            ],
            [
              -8.137198515595232,
              43.524259676607976
            ],
            [
              -8.14354148440477,
              43.524259676607976
            ],
            [
              -8.14354148440477,
              43.519660323392024
            ]
          ]
        ]
      },
      "properties": {
        "site_id": "tra-neda-castro-de-ancos",
        "primary_name": "Castro de Ancos",
        "municipality": "Neda",
        "parish": "Santa María de Neda",
        "place": "Alto de Ancos",
        "ga_code": "",
        "record_type": "official_uncoded_castro",
        "confidence": "medium_high",
        "dataset_use": "train_positive_candidate",
        "split": "train",
        "coord_source": "Galipedia",
        "review_priority": "P1",
        "qgis_action": "Verificar coordenada y dibujar polígono/buffer entrenable.",
        "suggested_decision": "draw_training_polygon",
        "notes": "catálogo NNSS Neda, ficha 42 | Presente en lista clásica Pena/Calaméo nº 46.",
        "tile_side_m": "512",
        "tile_status": "candidate_crop_window"
      }
    },
    {
      "type": "Feature",
      "geometry": {
        "type": "Polygon",
        "coordinates": [
          [
            [
              -8.123249853573803,
              43.482895523392024
            ],
            [
              -8.116910746426196,
              43.482895523392024
            ],
            [
              -8.116910746426196,
              43.487494876607975
            ],
            [
              -8.123249853573803,
              43.487494876607975
            ],
            [
              -8.123249853573803,
              43.482895523392024
            ]
          ]
        ]
      },
      "properties": {
        "site_id": "tra-neda-castro-de-viladonelle",
        "primary_name": "Castro de Viladonelle",
        "municipality": "Neda",
        "parish": "Viladonelle",
        "place": "Monte da Croa",
        "ga_code": "",
        "record_type": "official_uncoded_castro",
        "confidence": "medium_high",
        "dataset_use": "train_positive_candidate",
        "split": "train",
        "coord_source": "Galipedia",
        "review_priority": "P1",
        "qgis_action": "Verificar coordenada y dibujar polígono/buffer entrenable.",
        "suggested_decision": "draw_training_polygon",
        "notes": "catálogo NNSS Neda, ficha 43 | Presente en lista clásica Pena/Calaméo nº 47.",
        "tile_side_m": "512",
        "tile_status": "candidate_crop_window"
      }
    },
    {
      "type": "Feature",
      "geometry": {
        "type": "Polygon",
        "coordinates": [
          [
            [
              -8.037866890819751,
              43.544496223392024
            ],
            [
              -8.031521309180247,
              43.544496223392024
            ],
            [
              -8.031521309180247,
              43.549095576607975
            ],
            [
              -8.037866890819751,
              43.549095576607975
            ],
            [
              -8.037866890819751,
              43.544496223392024
            ]
          ]
        ]
      },
      "properties": {
        "site_id": "tra-san-sadurnino-castro-da-croa-do-redo",
        "primary_name": "Castro da Croa do Redo",
        "municipality": "San Sadurniño",
        "parish": "Lamas",
        "place": "Lugar de Redo",
        "ga_code": "GA15076008",
        "record_type": "official_uncoded_castro",
        "confidence": "medium_high",
        "dataset_use": "val_positive_candidate",
        "split": "val",
        "coord_source": "Galipedia",
        "review_priority": "P1",
        "qgis_action": "Verificar coordenada y dibujar polígono/buffer entrenable.",
        "suggested_decision": "draw_training_polygon",
        "notes": "OCR lee Retío; Fálame/Galipedia leen Redo | Presente en lista clásica Pena/Calaméo nº 73. | parte del sistema de cinco castros del Val do Xuvia",
        "tile_side_m": "512",
        "tile_status": "candidate_crop_window"
      }
    },
    {
      "type": "Feature",
      "geometry": {
        "type": "Polygon",
        "coordinates": [
          [
            [
              -8.083575217490074,
              43.53474124339203
            ],
            [
              -8.077230662509928,
              43.53474124339203
            ],
            [
              -8.077230662509928,
              43.53934059660798
            ],
            [
              -8.083575217490074,
              43.53934059660798
            ],
            [
              -8.083575217490074,
              43.53474124339203
            ]
          ]
        ]
      },
      "properties": {
        "site_id": "tra-san-sadurnino-castro-da-croa-ou-castro-de-rupiallo",
        "primary_name": "Castro da Croa ou Castro de Rupiallo",
        "municipality": "San Sadurniño",
        "parish": "San Sadurniño",
        "place": "Lugar de Rupiallo",
        "ga_code": "GA15076009",
        "record_type": "official_uncoded_castro",
        "confidence": "medium_high",
        "dataset_use": "val_positive_candidate",
        "split": "val",
        "coord_source": "Patrimonio Galego",
        "review_priority": "P1",
        "qgis_action": "Verificar coordenada y dibujar polígono/buffer entrenable.",
        "suggested_decision": "draw_training_polygon",
        "notes": "catálogo NNSS San Sadurniño | flanco suroeste del sistema; junto a A Portela | 2 coordenadas candidatas en fuentes; se eligió Patrimonio Galego por prioridad.",
        "tile_side_m": "512",
        "tile_status": "candidate_crop_window"
      }
    },
    {
      "type": "Feature",
      "geometry": {
        "type": "Polygon",
        "coordinates": [
          [
            [
              -8.078351434476906,
              43.58138782339203
            ],
            [
              -8.072001965523095,
              43.58138782339203
            ],
            [
              -8.072001965523095,
              43.58598717660798
            ],
            [
              -8.078351434476906,
              43.58598717660798
            ],
            [
              -8.078351434476906,
              43.58138782339203
            ]
          ]
        ]
      },
      "properties": {
        "site_id": "tra-san-sadurnino-castro-de-castrelo",
        "primary_name": "Castro de Castrelo",
        "municipality": "San Sadurniño",
        "parish": "Monte",
        "place": "Lugar de Castrelo",
        "ga_code": "GA15076003",
        "record_type": "official_uncoded_castro",
        "confidence": "medium_high",
        "dataset_use": "val_positive_candidate",
        "split": "val",
        "coord_source": "Galipedia",
        "review_priority": "P1",
        "qgis_action": "Verificar coordenada y dibujar polígono/buffer entrenable.",
        "suggested_decision": "draw_training_polygon",
        "notes": "catálogo NNSS San Sadurniño | Presente en lista clásica Pena/Calaméo nº 69. | Presente en lista clásica Pena/Calaméo nº 70. | apoyo norte; deteriorado; fuente en Fálame y Ateneo 1987 | solo pista nominal Galipedia/O Noso Patrimonio; confirmar",
        "tile_side_m": "512",
        "tile_status": "candidate_crop_window"
      }
    },
    {
      "type": "Feature",
      "geometry": {
        "type": "Polygon",
        "coordinates": [
          [
            [
              -8.045328493893155,
              43.53885422339202
            ],
            [
              -8.038983506106845,
              43.53885422339202
            ],
            [
              -8.038983506106845,
              43.54345357660797
            ],
            [
              -8.045328493893155,
              43.54345357660797
            ],
            [
              -8.045328493893155,
              43.53885422339202
            ]
          ]
        ]
      },
      "properties": {
        "site_id": "tra-san-sadurnino-castro-de-croas-de-ramil",
        "primary_name": "Castro de Croas de Ramil",
        "municipality": "San Sadurniño",
        "parish": "Lamas",
        "place": "Lugar de Ramil",
        "ga_code": "",
        "record_type": "official_uncoded_castro",
        "confidence": "medium_high",
        "dataset_use": "val_positive_candidate",
        "split": "val",
        "coord_source": "Galipedia",
        "review_priority": "P1",
        "qgis_action": "Verificar coordenada y dibujar polígono/buffer entrenable.",
        "suggested_decision": "draw_training_polygon",
        "notes": "catálogo NNSS San Sadurniño | Presente en lista clásica Pena/Calaméo nº 72. | flanco sureste del sistema según Fálame",
        "tile_side_m": "512",
        "tile_status": "candidate_crop_window"
      }
    },
    {
      "type": "Feature",
      "geometry": {
        "type": "Polygon",
        "coordinates": [
          [
            [
              -8.058461075497366,
              43.54116506339202
            ],
            [
              -8.052115844502634,
              43.54116506339202
            ],
            [
              -8.052115844502634,
              43.54576441660797
            ],
            [
              -8.058461075497366,
              43.54576441660797
            ],
            [
              -8.058461075497366,
              43.54116506339202
            ]
          ]
        ]
      },
      "properties": {
        "site_id": "tra-san-sadurnino-castro-de-riboira",
        "primary_name": "Castro de Riboira",
        "municipality": "San Sadurniño",
        "parish": "Lamas",
        "place": "Lugar de Riboira",
        "ga_code": "GA15076007",
        "record_type": "official_uncoded_castro",
        "confidence": "medium_high",
        "dataset_use": "val_positive_candidate",
        "split": "val",
        "coord_source": "Patrimonio Galego",
        "review_priority": "P1",
        "qgis_action": "Verificar coordenada y dibujar polígono/buffer entrenable.",
        "suggested_decision": "draw_training_polygon",
        "notes": "catálogo NNSS San Sadurniño | Presente en lista clásica Pena/Calaméo nº 67. | parte del sistema de cinco castros del Val do Xuvia | 2 coordenadas candidatas en fuentes; se eligió Patrimonio Galego por prioridad.",
        "tile_side_m": "512",
        "tile_status": "candidate_crop_window"
      }
    },
    {
      "type": "Feature",
      "geometry": {
        "type": "Polygon",
        "coordinates": [
          [
            [
              -8.202375685348654,
              43.59941032339202
            ],
            [
              -8.196024314651345,
              43.59941032339202
            ],
            [
              -8.196024314651345,
              43.60400967660797
            ],
            [
              -8.202375685348654,
              43.60400967660797
            ],
            [
              -8.202375685348654,
              43.59941032339202
            ]
          ]
        ]
      },
      "properties": {
        "site_id": "tra-valdovino-ga15087001",
        "primary_name": "Castro de Punta Taraza",
        "municipality": "Valdoviño",
        "parish": "Meirás",
        "place": "Lavacerido",
        "ga_code": "GA15087001",
        "record_type": "official_castro",
        "confidence": "high",
        "dataset_use": "train_positive_candidate",
        "split": "train",
        "coord_source": "Galipedia",
        "review_priority": "P1",
        "qgis_action": "Verificar coordenada y dibujar polígono/buffer entrenable.",
        "suggested_decision": "draw_training_polygon",
        "notes": "tabla ID_IPAGA 2021 | Presente en lista clásica Pena/Calaméo nº 52.",
        "tile_side_m": "512",
        "tile_status": "candidate_crop_window"
      }
    },
    {
      "type": "Feature",
      "geometry": {
        "type": "Polygon",
        "coordinates": [
          [
            [
              -8.199562305693348,
              43.573255323392026
            ],
            [
              -8.193213694306653,
              43.573255323392026
            ],
            [
              -8.193213694306653,
              43.57785467660798
            ],
            [
              -8.199562305693348,
              43.57785467660798
            ],
            [
              -8.199562305693348,
              43.573255323392026
            ]
          ]
        ]
      },
      "properties": {
        "site_id": "tra-valdovino-ga15087002",
        "primary_name": "O Castrillón",
        "municipality": "Valdoviño",
        "parish": "Meirás",
        "place": "Riobó",
        "ga_code": "GA15087002",
        "record_type": "official_castro",
        "confidence": "high",
        "dataset_use": "train_positive_candidate",
        "split": "train",
        "coord_source": "Artabro",
        "review_priority": "P1",
        "qgis_action": "Verificar coordenada y dibujar polígono/buffer entrenable.",
        "suggested_decision": "draw_training_polygon",
        "notes": "tabla ID_IPAGA 2021 | 2 coordenadas candidatas en fuentes; se eligió Artabro por prioridad.",
        "tile_side_m": "512",
        "tile_status": "candidate_crop_window"
      }
    },
    {
      "type": "Feature",
      "geometry": {
        "type": "Polygon",
        "coordinates": [
          [
            [
              -8.113641815059456,
              43.64160592339202
            ],
            [
              -8.107285984940543,
              43.64160592339202
            ],
            [
              -8.107285984940543,
              43.64620527660797
            ],
            [
              -8.113641815059456,
              43.64620527660797
            ],
            [
              -8.113641815059456,
              43.64160592339202
            ]
          ]
        ]
      },
      "properties": {
        "site_id": "tra-valdovino-ga15087003",
        "primary_name": "Castro de Coto Redondo",
        "municipality": "Valdoviño",
        "parish": "Pantín",
        "place": "A Gabeira",
        "ga_code": "GA15087003",
        "record_type": "official_castro",
        "confidence": "high",
        "dataset_use": "train_positive_candidate",
        "split": "train",
        "coord_source": "Galipedia",
        "review_priority": "P1",
        "qgis_action": "Verificar coordenada y dibujar polígono/buffer entrenable.",
        "suggested_decision": "draw_training_polygon",
        "notes": "tabla ID_IPAGA 2021 | Presente en lista clásica Pena/Calaméo nº 53.",
        "tile_side_m": "512",
        "tile_status": "candidate_crop_window"
      }
    },
    {
      "type": "Feature",
      "geometry": {
        "type": "Polygon",
        "coordinates": [
          [
            [
              -8.12262126779158,
              43.62936632339203
            ],
            [
              -8.11626673220842,
              43.62936632339203
            ],
            [
              -8.11626673220842,
              43.63396567660798
            ],
            [
              -8.12262126779158,
              43.63396567660798
            ],
            [
              -8.12262126779158,
              43.62936632339203
            ]
          ]
        ]
      },
      "properties": {
        "site_id": "tra-valdovino-ga15087004",
        "primary_name": "Castro de Lagoa",
        "municipality": "Valdoviño",
        "parish": "Pantín",
        "place": "O Castro",
        "ga_code": "GA15087004",
        "record_type": "official_castro",
        "confidence": "high",
        "dataset_use": "train_positive_candidate",
        "split": "train",
        "coord_source": "Artabro",
        "review_priority": "P1",
        "qgis_action": "Verificar coordenada y dibujar polígono/buffer entrenable.",
        "suggested_decision": "draw_training_polygon",
        "notes": "tabla ID_IPAGA 2021 | 4 coordenadas candidatas en fuentes; se eligió Artabro por prioridad.",
        "tile_side_m": "512",
        "tile_status": "candidate_crop_window"
      }
    },
    {
      "type": "Feature",
      "geometry": {
        "type": "Polygon",
        "coordinates": [
          [
            [
              -8.096788693771781,
              43.63742232339202
            ],
            [
              -8.090433306228217,
              43.63742232339202
            ],
            [
              -8.090433306228217,
              43.642021676607975
            ],
            [
              -8.096788693771781,
              43.642021676607975
            ],
            [
              -8.096788693771781,
              43.63742232339202
            ]
          ]
        ]
      },
      "properties": {
        "site_id": "tra-valdovino-ga15087005",
        "primary_name": "Os Castros",
        "municipality": "Valdoviño",
        "parish": "Pantín",
        "place": "A Loira",
        "ga_code": "GA15087005",
        "record_type": "official_castro",
        "confidence": "high",
        "dataset_use": "train_positive_candidate",
        "split": "train",
        "coord_source": "Artabro",
        "review_priority": "P1",
        "qgis_action": "Verificar coordenada y dibujar polígono/buffer entrenable.",
        "suggested_decision": "draw_training_polygon",
        "notes": "tabla ID_IPAGA 2021 | Presente en lista clásica Pena/Calaméo nº 55. | 4 coordenadas candidatas en fuentes; se eligió Artabro por prioridad.",
        "tile_side_m": "512",
        "tile_status": "candidate_crop_window"
      }
    },
    {
      "type": "Feature",
      "geometry": {
        "type": "Polygon",
        "coordinates": [
          [
            [
              -8.069162969774174,
              43.62372832339202
            ],
            [
              -8.062809030225827,
              43.62372832339202
            ],
            [
              -8.062809030225827,
              43.628327676607974
            ],
            [
              -8.069162969774174,
              43.628327676607974
            ],
            [
              -8.069162969774174,
              43.62372832339202
            ]
          ]
        ]
      },
      "properties": {
        "site_id": "tra-valdovino-ga15087006",
        "primary_name": "Castro de Vilarrube / Os Castros de Ferreirías",
        "municipality": "Valdoviño",
        "parish": "Pantín",
        "place": "Frádegas",
        "ga_code": "GA15087006",
        "record_type": "official_castro",
        "confidence": "high",
        "dataset_use": "train_positive_candidate",
        "split": "train",
        "coord_source": "Galipedia",
        "review_priority": "P1",
        "qgis_action": "Verificar coordenada y dibujar polígono/buffer entrenable.",
        "suggested_decision": "draw_training_polygon",
        "notes": "tabla ID_IPAGA 2021",
        "tile_side_m": "512",
        "tile_status": "candidate_crop_window"
      }
    },
    {
      "type": "Feature",
      "geometry": {
        "type": "Polygon",
        "coordinates": [
          [
            [
              -8.152276567440204,
              43.616114223392024
            ],
            [
              -8.145923432559798,
              43.616114223392024
            ],
            [
              -8.145923432559798,
              43.620713576607976
            ],
            [
              -8.152276567440204,
              43.620713576607976
            ],
            [
              -8.152276567440204,
              43.616114223392024
            ]
          ]
        ]
      },
      "properties": {
        "site_id": "tra-valdovino-ga15087009",
        "primary_name": "Castro de Punta Frouxeira",
        "municipality": "Valdoviño",
        "parish": "Valdoviño",
        "place": "A Saíña",
        "ga_code": "GA15087009",
        "record_type": "official_castro",
        "confidence": "high",
        "dataset_use": "train_positive_candidate",
        "split": "train",
        "coord_source": "Galipedia",
        "review_priority": "P1",
        "qgis_action": "Verificar coordenada y dibujar polígono/buffer entrenable.",
        "suggested_decision": "draw_training_polygon",
        "notes": "tabla ID_IPAGA 2021",
        "tile_side_m": "512",
        "tile_status": "candidate_crop_window"
      }
    },
    {
      "type": "Feature",
      "geometry": {
        "type": "Polygon",
        "coordinates": [
          [
            [
              -8.14595381494349,
              43.601865323392026
            ],
            [
              -8.13960218505651,
              43.601865323392026
            ],
            [
              -8.13960218505651,
              43.60646467660798
            ],
            [
              -8.14595381494349,
              43.60646467660798
            ],
            [
              -8.14595381494349,
              43.601865323392026
            ]
          ]
        ]
      },
      "properties": {
        "site_id": "tra-valdovino-ga15087010",
        "primary_name": "Castro de Poulo",
        "municipality": "Valdoviño",
        "parish": "Valdoviño",
        "place": "Piñeiros",
        "ga_code": "GA15087010",
        "record_type": "official_castro",
        "confidence": "high",
        "dataset_use": "train_positive_candidate",
        "split": "train",
        "coord_source": "Artabro",
        "review_priority": "P1",
        "qgis_action": "Verificar coordenada y dibujar polígono/buffer entrenable.",
        "suggested_decision": "draw_training_polygon",
        "notes": "tabla ID_IPAGA 2021 | Presente en lista clásica Pena/Calaméo nº 51. | 2 coordenadas candidatas en fuentes; se eligió Artabro por prioridad.",
        "tile_side_m": "512",
        "tile_status": "candidate_crop_window"
      }
    },
    {
      "type": "Feature",
      "geometry": {
        "type": "Polygon",
        "coordinates": [
          [
            [
              -8.174375182433305,
              43.58988032339202
            ],
            [
              -8.168024817566696,
              43.58988032339202
            ],
            [
              -8.168024817566696,
              43.594479676607975
            ],
            [
              -8.174375182433305,
              43.594479676607975
            ],
            [
              -8.174375182433305,
              43.58988032339202
            ]
          ]
        ]
      },
      "properties": {
        "site_id": "tra-valdovino-ga15087011",
        "primary_name": "O Castro",
        "municipality": "Valdoviño",
        "parish": "Lago",
        "place": "O Castro",
        "ga_code": "GA15087011",
        "record_type": "official_castro",
        "confidence": "high",
        "dataset_use": "train_positive_candidate",
        "split": "train",
        "coord_source": "Galipedia",
        "review_priority": "P1",
        "qgis_action": "Verificar coordenada y dibujar polígono/buffer entrenable.",
        "suggested_decision": "draw_training_polygon",
        "notes": "tabla ID_IPAGA 2021",
        "tile_side_m": "512",
        "tile_status": "candidate_crop_window"
      }
    },
    {
      "type": "Feature",
      "geometry": {
        "type": "Polygon",
        "coordinates": [
          [
            [
              -8.136340259621619,
              43.58186462339202
            ],
            [
              -8.129990740378382,
              43.58186462339202
            ],
            [
              -8.129990740378382,
              43.58646397660797
            ],
            [
              -8.136340259621619,
              43.58646397660797
            ],
            [
              -8.136340259621619,
              43.58186462339202
            ]
          ]
        ]
      },
      "properties": {
        "site_id": "tra-valdovino-ga15087012",
        "primary_name": "Castro de Aviño",
        "municipality": "Valdoviño",
        "parish": "Valdoviño",
        "place": "As Casas Novas",
        "ga_code": "GA15087012",
        "record_type": "official_castro",
        "confidence": "high",
        "dataset_use": "train_positive_candidate",
        "split": "train",
        "coord_source": "Galipedia",
        "review_priority": "P1",
        "qgis_action": "Verificar coordenada y dibujar polígono/buffer entrenable.",
        "suggested_decision": "draw_training_polygon",
        "notes": "tabla ID_IPAGA 2021 | Presente en lista clásica Pena/Calaméo nº 49.",
        "tile_side_m": "512",
        "tile_status": "candidate_crop_window"
      }
    },
    {
      "type": "Feature",
      "geometry": {
        "type": "Polygon",
        "coordinates": [
          [
            [
              -8.09650840446661,
              43.59408832339202
            ],
            [
              -8.09015759553339,
              43.59408832339202
            ],
            [
              -8.09015759553339,
              43.59868767660797
            ],
            [
              -8.09650840446661,
              43.59868767660797
            ],
            [
              -8.09650840446661,
              43.59408832339202
            ]
          ]
        ]
      },
      "properties": {
        "site_id": "tra-valdovino-ga15087013",
        "primary_name": "Castro de Crecente",
        "municipality": "Valdoviño",
        "parish": "Loira",
        "place": "A Furada",
        "ga_code": "GA15087013",
        "record_type": "official_castro",
        "confidence": "high",
        "dataset_use": "train_positive_candidate",
        "split": "train",
        "coord_source": "Artabro",
        "review_priority": "P1",
        "qgis_action": "Verificar coordenada y dibujar polígono/buffer entrenable.",
        "suggested_decision": "draw_training_polygon",
        "notes": "tabla ID_IPAGA 2021 | Presente en lista clásica Pena/Calaméo nº 50. | 2 coordenadas candidatas en fuentes; se eligió Artabro por prioridad.",
        "tile_side_m": "512",
        "tile_status": "candidate_crop_window"
      }
    },
    {
      "type": "Feature",
      "geometry": {
        "type": "Polygon",
        "coordinates": [
          [
            [
              -8.05123049243847,
              43.59575532339203
            ],
            [
              -8.044879507561529,
              43.59575532339203
            ],
            [
              -8.044879507561529,
              43.60035467660798
            ],
            [
              -8.05123049243847,
              43.60035467660798
            ],
            [
              -8.05123049243847,
              43.59575532339203
            ]
          ]
        ]
      },
      "properties": {
        "site_id": "tra-valdovino-ga15087014",
        "primary_name": "Castro de Vidueiros",
        "municipality": "Valdoviño",
        "parish": "Vilaboa",
        "place": "Morgadelle",
        "ga_code": "GA15087014",
        "record_type": "official_castro",
        "confidence": "high",
        "dataset_use": "train_positive_candidate",
        "split": "train",
        "coord_source": "Artabro",
        "review_priority": "P1",
        "qgis_action": "Verificar coordenada y dibujar polígono/buffer entrenable.",
        "suggested_decision": "draw_training_polygon",
        "notes": "tabla ID_IPAGA 2021 | Presente en lista clásica Pena/Calaméo nº 56. | 2 coordenadas candidatas en fuentes; se eligió Artabro por prioridad.",
        "tile_side_m": "512",
        "tile_status": "candidate_crop_window"
      }
    },
    {
      "type": "Feature",
      "geometry": {
        "type": "Polygon",
        "coordinates": [
          [
            [
              -8.173230324828578,
              43.573618323392026
            ],
            [
              -8.166881675171423,
              43.573618323392026
            ],
            [
              -8.166881675171423,
              43.57821767660798
            ],
            [
              -8.173230324828578,
              43.57821767660798
            ],
            [
              -8.173230324828578,
              43.573618323392026
            ]
          ]
        ]
      },
      "properties": {
        "site_id": "tra-valdovino-ga15087015",
        "primary_name": "Castro de Lodeiro",
        "municipality": "Valdoviño",
        "parish": "O Sequeiro",
        "place": "O Lodeiro",
        "ga_code": "GA15087015",
        "record_type": "official_castro",
        "confidence": "high",
        "dataset_use": "train_positive_candidate",
        "split": "train",
        "coord_source": "Artabro",
        "review_priority": "P1",
        "qgis_action": "Verificar coordenada y dibujar polígono/buffer entrenable.",
        "suggested_decision": "draw_training_polygon",
        "notes": "tabla ID_IPAGA 2021 | Presente en lista clásica Pena/Calaméo nº 57. | 2 coordenadas candidatas en fuentes; se eligió Artabro por prioridad.",
        "tile_side_m": "512",
        "tile_status": "candidate_crop_window"
      }
    },
    {
      "type": "Feature",
      "geometry": {
        "type": "Polygon",
        "coordinates": [
          [
            [
              -8.178728339750737,
              43.55492232339203
            ],
            [
              -8.172381660249261,
              43.55492232339203
            ],
            [
              -8.172381660249261,
              43.55952167660798
            ],
            [
              -8.178728339750737,
              43.55952167660798
            ],
            [
              -8.178728339750737,
              43.55492232339203
            ]
          ]
        ]
      },
      "properties": {
        "site_id": "tra-valdovino-ga15087016",
        "primary_name": "Castro de Carreira de Abaixo",
        "municipality": "Valdoviño",
        "parish": "O Sequeiro",
        "place": "A Mata",
        "ga_code": "GA15087016",
        "record_type": "official_castro",
        "confidence": "high",
        "dataset_use": "train_positive_candidate",
        "split": "train",
        "coord_source": "Artabro",
        "review_priority": "P1",
        "qgis_action": "Verificar coordenada y dibujar polígono/buffer entrenable.",
        "suggested_decision": "draw_training_polygon",
        "notes": "tabla ID_IPAGA 2021 | Presente en lista clásica Pena/Calaméo nº 64. | 2 coordenadas candidatas en fuentes; se eligió Artabro por prioridad.",
        "tile_side_m": "512",
        "tile_status": "candidate_crop_window"
      }
    },
    {
      "type": "Feature",
      "geometry": {
        "type": "Polygon",
        "coordinates": [
          [
            [
              -8.190675184649178,
              43.589922323392024
            ],
            [
              -8.184324815350822,
              43.589922323392024
            ],
            [
              -8.184324815350822,
              43.594521676607975
            ],
            [
              -8.190675184649178,
              43.594521676607975
            ],
            [
              -8.190675184649178,
              43.589922323392024
            ]
          ]
        ]
      },
      "properties": {
        "site_id": "tra-valdovino-ga15087020",
        "primary_name": "Zona arqueológica de la Iglesia y Castro Sto. Tomás de Taraza",
        "municipality": "Valdoviño",
        "parish": "Meirás",
        "place": "Padín",
        "ga_code": "GA15087020",
        "record_type": "official_castro",
        "confidence": "high",
        "dataset_use": "train_positive_candidate",
        "split": "train",
        "coord_source": "Artabro",
        "review_priority": "P1",
        "qgis_action": "Verificar coordenada y dibujar polígono/buffer entrenable.",
        "suggested_decision": "draw_training_polygon",
        "notes": "tabla ID_IPAGA 2021",
        "tile_side_m": "512",
        "tile_status": "candidate_crop_window"
      }
    },
    {
      "type": "Feature",
      "geometry": {
        "type": "Polygon",
        "coordinates": [
          [
            [
              -8.150885089203422,
              43.620311423392025
            ],
            [
              -8.144531510796577,
              43.620311423392025
            ],
            [
              -8.144531510796577,
              43.624910776607976
            ],
            [
              -8.150885089203422,
              43.624910776607976
            ],
            [
              -8.150885089203422,
              43.620311423392025
            ]
          ]
        ]
      },
      "properties": {
        "site_id": "tra-valdovino-ga15087022",
        "primary_name": "Castro de Punta do Vico",
        "municipality": "Valdoviño",
        "parish": "Valdoviño",
        "place": "Postamaior",
        "ga_code": "GA15087022",
        "record_type": "official_castro",
        "confidence": "high",
        "dataset_use": "train_positive_candidate",
        "split": "train",
        "coord_source": "Galipedia",
        "review_priority": "P1",
        "qgis_action": "Verificar coordenada y dibujar polígono/buffer entrenable.",
        "suggested_decision": "draw_training_polygon",
        "notes": "tabla ID_IPAGA 2021",
        "tile_side_m": "512",
        "tile_status": "candidate_crop_window"
      }
    },
    {
      "type": "Feature",
      "geometry": {
        "type": "Polygon",
        "coordinates": [
          [
            [
              -8.092462868377085,
              43.616889083392024
            ],
            [
              -8.086109651622914,
              43.616889083392024
            ],
            [
              -8.086109651622914,
              43.621488436607976
            ],
            [
              -8.092462868377085,
              43.621488436607976
            ],
            [
              -8.092462868377085,
              43.616889083392024
            ]
          ]
        ]
      },
      "properties": {
        "site_id": "tra-valdovino-ga15087024",
        "primary_name": "Castro de Lousada",
        "municipality": "Valdoviño",
        "parish": "Loira",
        "place": "Lousada",
        "ga_code": "GA15087024",
        "record_type": "official_castro",
        "confidence": "high",
        "dataset_use": "train_positive_candidate",
        "split": "train",
        "coord_source": "Patrimonio Galego",
        "review_priority": "P1",
        "qgis_action": "Verificar coordenada y dibujar polígono/buffer entrenable.",
        "suggested_decision": "draw_training_polygon",
        "notes": "tabla ID_IPAGA 2021 | Presente en lista clásica Pena/Calaméo nº 65. | 3 coordenadas candidatas en fuentes; se eligió Patrimonio Galego por prioridad.",
        "tile_side_m": "512",
        "tile_status": "candidate_crop_window"
      }
    },
    {
      "type": "Feature",
      "geometry": {
        "type": "Polygon",
        "coordinates": [
          [
            [
              -8.136229759711272,
              43.58186632339203
            ],
            [
              -8.12988024028873,
              43.58186632339203
            ],
            [
              -8.12988024028873,
              43.58646567660798
            ],
            [
              -8.136229759711272,
              43.58646567660798
            ],
            [
              -8.136229759711272,
              43.58186632339203
            ]
          ]
        ]
      },
      "properties": {
        "site_id": "tra-valdovino-ga15087032",
        "primary_name": "O Foro",
        "municipality": "Valdoviño",
        "parish": "Valdoviño",
        "place": "A Espiñuda | As Casas Novas",
        "ga_code": "GA15087032",
        "record_type": "official_castro",
        "confidence": "high",
        "dataset_use": "train_positive_candidate",
        "split": "train",
        "coord_source": "Artabro",
        "review_priority": "P1",
        "qgis_action": "Verificar coordenada y dibujar polígono/buffer entrenable.",
        "suggested_decision": "draw_training_polygon",
        "notes": "tabla ID_IPAGA 2021 | 2 coordenadas candidatas en fuentes; se eligió Artabro por prioridad.",
        "tile_side_m": "512",
        "tile_status": "candidate_crop_window"
      }
    }
  ]
}