{
  "type": "FeatureCollection",
  "features": [
    {
      "type": "Feature",
      "geometry": {
        "type": "Point",
        "coordinates": [
          -8.22594601477777,
          43.57701844556937
        ]
      },
      "properties": {
        "review_id": "err-review-0025",
        "sample_review_key": "wl-pos-pos-es-pba-14588",
        "duplicate_count": "2",
        "duplicate_queues": "holdout_low_rank_positives;holdout_morphology_rescues",
        "review_priority": "P0",
        "queue": "holdout_low_rank_positives",
        "priority_order": "1",
        "review_lane": "mamoa_specialist_positive_review",
        "dataset": "holdouts",
        "final_split": "test_o_val",
        "sample_id": "wl-pos-pos-es-pba-14588",
        "bank_id": "pos-es-pba-14588",
        "label_class": "1",
        "label_role": "positive",
        "suggested_taxonomy": "castro",
        "suggested_decision": "inspect_as_positive_rescue",
        "boundary_action": "If visible, draw croa/muralla/recinto polygon; otherwise mark needs_followup.",
        "review_status": "pending",
        "review_notes": "",
        "final_taxonomy": "",
        "final_decision": "",
        "pretriage_order": "1",
        "pretriage_group": "o_val_local_first",
        "pretriage_decision": "local_positive_boundary_review",
        "pretriage_confidence": "high_model_signal_boundary_needed",
        "training_use_after_review": "positive_candidate_after_boundary_review",
        "do_not_use_as": "new_discovery_claim_without_review",
        "visual_reading": "Specialist score is strong against mamoa distractors; inspect visible boundary and source context before accepting.",
        "name": "Castro de Pena Lopesa",
        "municipality": "Narón",
        "parish": "O Val (Santa María A Maior)",
        "country": "ES",
        "fusion_probability": "0.06230073",
        "fusion_rank": "199",
        "max_safety_rank": "72",
        "archetype_only_rank": "47",
        "specialist_probability": "1.00000000",
        "specialist_rank": "2",
        "specialist_mean_rank": "51",
        "rank_delta_fusion_to_max": "127",
        "negative_type": "",
        "morphology_proxy": "hilltop_hint",
        "visual_sheet": "reports/figures/weak_label_error_review_v1/holdout-low-rank-positives.png",
        "review_reason": "Known positive ranked low by the main fusion model; inspect as false-negative morphology."
      }
    },
    {
      "type": "Feature",
      "geometry": {
        "type": "Point",
        "coordinates": [
          -8.147683735016127,
          43.62230830936563
        ]
      },
      "properties": {
        "review_id": "err-review-0026",
        "sample_review_key": "wl-pos-pos-es-pba-24674",
        "duplicate_count": "2",
        "duplicate_queues": "holdout_low_rank_positives;holdout_morphology_rescues",
        "review_priority": "P0",
        "queue": "holdout_low_rank_positives",
        "priority_order": "11",
        "review_lane": "mamoa_specialist_positive_review",
        "dataset": "holdouts",
        "final_split": "test_trasancos",
        "sample_id": "wl-pos-pos-es-pba-24674",
        "bank_id": "pos-es-pba-24674",
        "label_class": "1",
        "label_role": "positive",
        "suggested_taxonomy": "castro",
        "suggested_decision": "inspect_as_positive_rescue",
        "boundary_action": "If visible, draw croa/muralla/recinto polygon; otherwise mark needs_followup.",
        "review_status": "pending",
        "review_notes": "",
        "final_taxonomy": "",
        "final_decision": "",
        "pretriage_order": "6",
        "pretriage_group": "positive_rescue",
        "pretriage_decision": "positive_boundary_review",
        "pretriage_confidence": "medium_model_signal_boundary_needed",
        "training_use_after_review": "positive_candidate_after_boundary_review",
        "do_not_use_as": "new_discovery_claim_without_review",
        "visual_reading": "Contact sheets show coastal/promontory morphology; inspect boundary instead of penalizing non-round shape.",
        "name": "Castro da Punta do Vico",
        "municipality": "Valdoviño",
        "parish": "Valdoviño (Santaia)",
        "country": "ES",
        "fusion_probability": "0.26762530",
        "fusion_rank": "93",
        "max_safety_rank": "25",
        "archetype_only_rank": "13",
        "specialist_probability": "0.99996177",
        "specialist_rank": "6",
        "specialist_mean_rank": "37",
        "rank_delta_fusion_to_max": "68",
        "negative_type": "",
        "morphology_proxy": "coastal_promontory_hint",
        "visual_sheet": "reports/figures/weak_label_error_review_v1/holdout-low-rank-positives.png",
        "review_reason": "Known positive ranked low by the main fusion model; inspect as false-negative morphology."
      }
    },
    {
      "type": "Feature",
      "geometry": {
        "type": "Point",
        "coordinates": [
          -8.110405528230721,
          43.64384397902806
        ]
      },
      "properties": {
        "review_id": "err-review-0027",
        "sample_review_key": "wl-pos-pos-es-pba-24678",
        "duplicate_count": "1",
        "duplicate_queues": "holdout_low_rank_positives",
        "review_priority": "P0",
        "queue": "holdout_low_rank_positives",
        "priority_order": "21",
        "review_lane": "mamoa_specialist_positive_review",
        "dataset": "holdouts",
        "final_split": "test_trasancos",
        "sample_id": "wl-pos-pos-es-pba-24678",
        "bank_id": "pos-es-pba-24678",
        "label_class": "1",
        "label_role": "positive",
        "suggested_taxonomy": "castro",
        "suggested_decision": "inspect_as_positive_rescue",
        "boundary_action": "If visible, draw croa/muralla/recinto polygon; otherwise mark needs_followup.",
        "review_status": "pending",
        "review_notes": "",
        "final_taxonomy": "",
        "final_decision": "",
        "pretriage_order": "7",
        "pretriage_group": "positive_rescue",
        "pretriage_decision": "positive_boundary_review",
        "pretriage_confidence": "medium_model_signal_boundary_needed",
        "training_use_after_review": "positive_candidate_after_boundary_review",
        "do_not_use_as": "new_discovery_claim_without_review",
        "visual_reading": "Specialist score is strong against mamoa distractors; inspect visible boundary and source context before accepting.",
        "name": "Castro de Coto Redondo",
        "municipality": "Valdoviño",
        "parish": "Pantín (Santiago)",
        "country": "ES",
        "fusion_probability": "0.47510947",
        "fusion_rank": "54",
        "max_safety_rank": "64",
        "archetype_only_rank": "111",
        "specialist_probability": "0.99790934",
        "specialist_rank": "8",
        "specialist_mean_rank": "31",
        "rank_delta_fusion_to_max": "-10",
        "negative_type": "",
        "morphology_proxy": "hilltop_hint",
        "visual_sheet": "reports/figures/weak_label_error_review_v1/holdout-low-rank-positives.png",
        "review_reason": "Known positive ranked low by the main fusion model; inspect as false-negative morphology."
      }
    },
    {
      "type": "Feature",
      "geometry": {
        "type": "Point",
        "coordinates": [
          -8.22594601477777,
          43.57701844556937
        ]
      },
      "properties": {
        "review_id": "err-review-0028",
        "sample_review_key": "wl-pos-pos-es-pba-14588",
        "duplicate_count": "2",
        "duplicate_queues": "holdout_low_rank_positives;holdout_morphology_rescues",
        "review_priority": "P0",
        "queue": "holdout_morphology_rescues",
        "priority_order": "1",
        "review_lane": "mamoa_specialist_positive_review",
        "dataset": "holdouts",
        "final_split": "test_o_val",
        "sample_id": "wl-pos-pos-es-pba-14588",
        "bank_id": "pos-es-pba-14588",
        "label_class": "1",
        "label_role": "positive",
        "suggested_taxonomy": "castro",
        "suggested_decision": "inspect_as_positive_rescue",
        "boundary_action": "If visible, draw croa/muralla/recinto polygon; otherwise mark needs_followup.",
        "review_status": "pending",
        "review_notes": "",
        "final_taxonomy": "",
        "final_decision": "",
        "pretriage_order": "1",
        "pretriage_group": "o_val_local_first",
        "pretriage_decision": "local_positive_boundary_review",
        "pretriage_confidence": "high_model_signal_boundary_needed",
        "training_use_after_review": "positive_candidate_after_boundary_review",
        "do_not_use_as": "new_discovery_claim_without_review",
        "visual_reading": "Specialist score is strong against mamoa distractors; inspect visible boundary and source context before accepting.",
        "name": "Castro de Pena Lopesa",
        "municipality": "Narón",
        "parish": "O Val (Santa María A Maior)",
        "country": "ES",
        "fusion_probability": "0.06230073",
        "fusion_rank": "199",
        "max_safety_rank": "72",
        "archetype_only_rank": "47",
        "specialist_probability": "1.00000000",
        "specialist_rank": "2",
        "specialist_mean_rank": "51",
        "rank_delta_fusion_to_max": "127",
        "negative_type": "",
        "morphology_proxy": "hilltop_hint",
        "visual_sheet": "reports/figures/weak_label_error_review_v1/holdout-morphology-rescues.png",
        "review_reason": "Known positive moved upward by max_safety; inspect morphology archetype missed by the main model."
      }
    },
    {
      "type": "Feature",
      "geometry": {
        "type": "Point",
        "coordinates": [
          -8.147683735016127,
          43.62230830936563
        ]
      },
      "properties": {
        "review_id": "err-review-0029",
        "sample_review_key": "wl-pos-pos-es-pba-24674",
        "duplicate_count": "2",
        "duplicate_queues": "holdout_low_rank_positives;holdout_morphology_rescues",
        "review_priority": "P0",
        "queue": "holdout_morphology_rescues",
        "priority_order": "5",
        "review_lane": "mamoa_specialist_positive_review",
        "dataset": "holdouts",
        "final_split": "test_trasancos",
        "sample_id": "wl-pos-pos-es-pba-24674",
        "bank_id": "pos-es-pba-24674",
        "label_class": "1",
        "label_role": "positive",
        "suggested_taxonomy": "castro",
        "suggested_decision": "inspect_as_positive_rescue",
        "boundary_action": "If visible, draw croa/muralla/recinto polygon; otherwise mark needs_followup.",
        "review_status": "pending",
        "review_notes": "",
        "final_taxonomy": "",
        "final_decision": "",
        "pretriage_order": "6",
        "pretriage_group": "positive_rescue",
        "pretriage_decision": "positive_boundary_review",
        "pretriage_confidence": "medium_model_signal_boundary_needed",
        "training_use_after_review": "positive_candidate_after_boundary_review",
        "do_not_use_as": "new_discovery_claim_without_review",
        "visual_reading": "Contact sheets show coastal/promontory morphology; inspect boundary instead of penalizing non-round shape.",
        "name": "Castro da Punta do Vico",
        "municipality": "Valdoviño",
        "parish": "Valdoviño (Santaia)",
        "country": "ES",
        "fusion_probability": "0.26762530",
        "fusion_rank": "93",
        "max_safety_rank": "25",
        "archetype_only_rank": "13",
        "specialist_probability": "0.99996177",
        "specialist_rank": "6",
        "specialist_mean_rank": "37",
        "rank_delta_fusion_to_max": "68",
        "negative_type": "",
        "morphology_proxy": "coastal_promontory_hint",
        "visual_sheet": "reports/figures/weak_label_error_review_v1/holdout-morphology-rescues.png",
        "review_reason": "Known positive moved upward by max_safety; inspect morphology archetype missed by the main model."
      }
    },
    {
      "type": "Feature",
      "geometry": {
        "type": "Point",
        "coordinates": [
          -8.148872875517807,
          43.618480398789906
        ]
      },
      "properties": {
        "review_id": "err-review-0030",
        "sample_review_key": "wl-pos-pos-es-pba-24709",
        "duplicate_count": "1",
        "duplicate_queues": "holdout_morphology_rescues",
        "review_priority": "P0",
        "queue": "holdout_morphology_rescues",
        "priority_order": "11",
        "review_lane": "mamoa_specialist_positive_review",
        "dataset": "holdouts",
        "final_split": "test_trasancos",
        "sample_id": "wl-pos-pos-es-pba-24709",
        "bank_id": "pos-es-pba-24709",
        "label_class": "1",
        "label_role": "positive",
        "suggested_taxonomy": "castro",
        "suggested_decision": "inspect_as_positive_rescue",
        "boundary_action": "If visible, draw croa/muralla/recinto polygon; otherwise mark needs_followup.",
        "review_status": "pending",
        "review_notes": "",
        "final_taxonomy": "",
        "final_decision": "",
        "pretriage_order": "4",
        "pretriage_group": "positive_rescue",
        "pretriage_decision": "positive_boundary_review",
        "pretriage_confidence": "high_model_signal_boundary_needed",
        "training_use_after_review": "positive_candidate_after_boundary_review",
        "do_not_use_as": "new_discovery_claim_without_review",
        "visual_reading": "Contact sheets show coastal/promontory morphology; inspect boundary instead of penalizing non-round shape.",
        "name": "Castro de Punta Frouxeira",
        "municipality": "Valdoviño",
        "parish": "Valdoviño (Santaia)",
        "country": "ES",
        "fusion_probability": "0.93602800",
        "fusion_rank": "7",
        "max_safety_rank": "4",
        "archetype_only_rank": "4",
        "specialist_probability": "0.99999962",
        "specialist_rank": "3",
        "specialist_mean_rank": "6",
        "rank_delta_fusion_to_max": "3",
        "negative_type": "",
        "morphology_proxy": "coastal_promontory_hint",
        "visual_sheet": "reports/figures/weak_label_error_review_v1/holdout-morphology-rescues.png",
        "review_reason": "Known positive moved upward by max_safety; inspect morphology archetype missed by the main model."
      }
    },
    {
      "type": "Feature",
      "geometry": {
        "type": "Point",
        "coordinates": [
          -8.198712287595123,
          43.60215405961929
        ]
      },
      "properties": {
        "review_id": "err-review-0031",
        "sample_review_key": "wl-pos-pos-es-pba-24710",
        "duplicate_count": "1",
        "duplicate_queues": "holdout_morphology_rescues",
        "review_priority": "P0",
        "queue": "holdout_morphology_rescues",
        "priority_order": "12",
        "review_lane": "mamoa_specialist_positive_review",
        "dataset": "holdouts",
        "final_split": "test_trasancos",
        "sample_id": "wl-pos-pos-es-pba-24710",
        "bank_id": "pos-es-pba-24710",
        "label_class": "1",
        "label_role": "positive",
        "suggested_taxonomy": "castro",
        "suggested_decision": "inspect_as_positive_rescue",
        "boundary_action": "If visible, draw croa/muralla/recinto polygon; otherwise mark needs_followup.",
        "review_status": "pending",
        "review_notes": "",
        "final_taxonomy": "",
        "final_decision": "",
        "pretriage_order": "3",
        "pretriage_group": "positive_rescue",
        "pretriage_decision": "positive_boundary_review",
        "pretriage_confidence": "high_model_signal_boundary_needed",
        "training_use_after_review": "positive_candidate_after_boundary_review",
        "do_not_use_as": "new_discovery_claim_without_review",
        "visual_reading": "Contact sheets show coastal/promontory morphology; inspect boundary instead of penalizing non-round shape.",
        "name": "Castro de Punta Taraza",
        "municipality": "Valdoviño",
        "parish": "Meirás (San Vicente)",
        "country": "ES",
        "fusion_probability": "0.96686012",
        "fusion_rank": "4",
        "max_safety_rank": "3",
        "archetype_only_rank": "3",
        "specialist_probability": "1.00000000",
        "specialist_rank": "1",
        "specialist_mean_rank": "4",
        "rank_delta_fusion_to_max": "1",
        "negative_type": "",
        "morphology_proxy": "coastal_promontory_hint",
        "visual_sheet": "reports/figures/weak_label_error_review_v1/holdout-morphology-rescues.png",
        "review_reason": "Known positive moved upward by max_safety; inspect morphology archetype missed by the main model."
      }
    },
    {
      "type": "Feature",
      "geometry": {
        "type": "Point",
        "coordinates": [
          -8.282642845995516,
          43.559082757693524
        ]
      },
      "properties": {
        "review_id": "err-review-0032",
        "sample_review_key": "wl-pos-pos-es-pba-10262",
        "duplicate_count": "1",
        "duplicate_queues": "holdout_morphology_rescues",
        "review_priority": "P0",
        "queue": "holdout_morphology_rescues",
        "priority_order": "13",
        "review_lane": "mamoa_specialist_positive_review",
        "dataset": "holdouts",
        "final_split": "test_trasancos",
        "sample_id": "wl-pos-pos-es-pba-10262",
        "bank_id": "pos-es-pba-10262",
        "label_class": "1",
        "label_role": "positive",
        "suggested_taxonomy": "castro",
        "suggested_decision": "inspect_as_positive_rescue",
        "boundary_action": "If visible, draw croa/muralla/recinto polygon; otherwise mark needs_followup.",
        "review_status": "pending",
        "review_notes": "",
        "final_taxonomy": "",
        "final_decision": "",
        "pretriage_order": "5",
        "pretriage_group": "positive_rescue",
        "pretriage_decision": "positive_boundary_review",
        "pretriage_confidence": "medium_model_signal_boundary_needed",
        "training_use_after_review": "positive_candidate_after_boundary_review",
        "do_not_use_as": "new_discovery_claim_without_review",
        "visual_reading": "Specialist score is strong against mamoa distractors; inspect visible boundary and source context before accepting.",
        "name": "Necrópole de Santa Comba/Castro de Santa Comba",
        "municipality": "Ferrol",
        "parish": "Covas (San Martiño)",
        "country": "ES",
        "fusion_probability": "0.97212417",
        "fusion_rank": "3",
        "max_safety_rank": "2",
        "archetype_only_rank": "2",
        "specialist_probability": "0.99999575",
        "specialist_rank": "4",
        "specialist_mean_rank": "2",
        "rank_delta_fusion_to_max": "1",
        "negative_type": "",
        "morphology_proxy": "generic_castro_hint",
        "visual_sheet": "reports/figures/weak_label_error_review_v1/holdout-morphology-rescues.png",
        "review_reason": "Known positive moved upward by max_safety; inspect morphology archetype missed by the main model."
      }
    }
  ]
}
