{
  "type": "FeatureCollection",
  "features": [
    {
      "type": "Feature",
      "geometry": {
        "type": "Point",
        "coordinates": [
          -8.136844261989637,
          43.55153816561511
        ]
      },
      "properties": {
        "review_id": "err-review-0033",
        "sample_review_key": "wl-pos-pos-es-pba-14590",
        "duplicate_count": "1",
        "duplicate_queues": "holdout_low_rank_positives",
        "review_priority": "P1",
        "queue": "holdout_low_rank_positives",
        "priority_order": "3",
        "review_lane": "low_positive_review",
        "dataset": "holdouts",
        "final_split": "test_trasancos",
        "sample_id": "wl-pos-pos-es-pba-14590",
        "bank_id": "pos-es-pba-14590",
        "label_class": "1",
        "label_role": "positive",
        "suggested_taxonomy": "castro",
        "suggested_decision": "inspect_low_rank_known_positive",
        "boundary_action": "If visible, draw croa/muralla/recinto polygon; otherwise mark needs_followup.",
        "review_status": "pending",
        "review_notes": "",
        "final_taxonomy": "",
        "final_decision": "",
        "pretriage_order": "",
        "pretriage_group": "low_rank_positive",
        "pretriage_decision": "visibility_or_centroid_review",
        "pretriage_confidence": "low_pretriage_confidence",
        "training_use_after_review": "positive_candidate_after_boundary_review",
        "do_not_use_as": "new_discovery_claim_without_review",
        "visual_reading": "Known positive remains low in fusion; inspect centering, visibility, vegetation and morphology proxy.",
        "name": "Castro de Santo Estevo",
        "municipality": "Narón",
        "parish": "Sedes (Santo Estevo)",
        "country": "ES",
        "fusion_probability": "0.13038397",
        "fusion_rank": "164",
        "max_safety_rank": "184",
        "archetype_only_rank": "166",
        "specialist_probability": "0.13156826",
        "specialist_rank": "135",
        "specialist_mean_rank": "152",
        "rank_delta_fusion_to_max": "-20",
        "negative_type": "",
        "morphology_proxy": "generic_castro_hint",
        "visual_sheet": "reports/figures/weak_label_error_review_v1/holdout-low-rank-positives.png",
        "review_reason": "Known positive ranked low by the main fusion model; inspect as false-negative morphology."
      }
    },
    {
      "type": "Feature",
      "geometry": {
        "type": "Point",
        "coordinates": [
          -8.09873394334149,
          43.6341480312583
        ]
      },
      "properties": {
        "review_id": "err-review-0034",
        "sample_review_key": "wl-pos-pos-es-pba-24677",
        "duplicate_count": "1",
        "duplicate_queues": "holdout_low_rank_positives",
        "review_priority": "P1",
        "queue": "holdout_low_rank_positives",
        "priority_order": "7",
        "review_lane": "low_positive_review",
        "dataset": "holdouts",
        "final_split": "test_trasancos",
        "sample_id": "wl-pos-pos-es-pba-24677",
        "bank_id": "pos-es-pba-24677",
        "label_class": "1",
        "label_role": "positive",
        "suggested_taxonomy": "castro",
        "suggested_decision": "inspect_low_rank_known_positive",
        "boundary_action": "If visible, draw croa/muralla/recinto polygon; otherwise mark needs_followup.",
        "review_status": "pending",
        "review_notes": "",
        "final_taxonomy": "",
        "final_decision": "",
        "pretriage_order": "",
        "pretriage_group": "low_rank_positive",
        "pretriage_decision": "visibility_or_centroid_review",
        "pretriage_confidence": "low_pretriage_confidence",
        "training_use_after_review": "positive_candidate_after_boundary_review",
        "do_not_use_as": "new_discovery_claim_without_review",
        "visual_reading": "Known positive remains low in fusion; inspect centering, visibility, vegetation and morphology proxy.",
        "name": "Castro de Casianes",
        "municipality": "Valdoviño",
        "parish": "Pantín (Santiago)",
        "country": "ES",
        "fusion_probability": "0.17325151",
        "fusion_rank": "138",
        "max_safety_rank": "163",
        "archetype_only_rank": "152",
        "specialist_probability": "0.32742838",
        "specialist_rank": "86",
        "specialist_mean_rank": "99",
        "rank_delta_fusion_to_max": "-25",
        "negative_type": "",
        "morphology_proxy": "generic_castro_hint",
        "visual_sheet": "reports/figures/weak_label_error_review_v1/holdout-low-rank-positives.png",
        "review_reason": "Known positive ranked low by the main fusion model; inspect as false-negative morphology."
      }
    },
    {
      "type": "Feature",
      "geometry": {
        "type": "Point",
        "coordinates": [
          -8.135936419804226,
          43.61914947103172
        ]
      },
      "properties": {
        "review_id": "err-review-0035",
        "sample_review_key": "wl-pos-pos-es-pba-24738",
        "duplicate_count": "1",
        "duplicate_queues": "holdout_low_rank_positives",
        "review_priority": "P1",
        "queue": "holdout_low_rank_positives",
        "priority_order": "8",
        "review_lane": "low_positive_review",
        "dataset": "holdouts",
        "final_split": "test_trasancos",
        "sample_id": "wl-pos-pos-es-pba-24738",
        "bank_id": "pos-es-pba-24738",
        "label_class": "1",
        "label_role": "positive",
        "suggested_taxonomy": "castro",
        "suggested_decision": "inspect_low_rank_known_positive",
        "boundary_action": "If visible, draw croa/muralla/recinto polygon; otherwise mark needs_followup.",
        "review_status": "pending",
        "review_notes": "",
        "final_taxonomy": "",
        "final_decision": "",
        "pretriage_order": "",
        "pretriage_group": "low_rank_positive",
        "pretriage_decision": "visibility_or_centroid_review",
        "pretriage_confidence": "low_pretriage_confidence",
        "training_use_after_review": "positive_candidate_after_boundary_review",
        "do_not_use_as": "new_discovery_claim_without_review",
        "visual_reading": "Known positive remains low in fusion; inspect centering, visibility, vegetation and morphology proxy.",
        "name": "Castro e Mina do Pereiro",
        "municipality": "Valdoviño",
        "parish": "Valdoviño (Santaia)",
        "country": "ES",
        "fusion_probability": "0.23039334",
        "fusion_rank": "106",
        "max_safety_rank": "131",
        "archetype_only_rank": "164",
        "specialist_probability": "0.41540962",
        "specialist_rank": "70",
        "specialist_mean_rank": "82",
        "rank_delta_fusion_to_max": "-25",
        "negative_type": "",
        "morphology_proxy": "generic_castro_hint",
        "visual_sheet": "reports/figures/weak_label_error_review_v1/holdout-low-rank-positives.png",
        "review_reason": "Known positive ranked low by the main fusion model; inspect as false-negative morphology."
      }
    },
    {
      "type": "Feature",
      "geometry": {
        "type": "Point",
        "coordinates": [
          -8.178759499653474,
          43.46407350807626
        ]
      },
      "properties": {
        "review_id": "err-review-0036",
        "sample_review_key": "wl-pos-pos-es-pba-8705",
        "duplicate_count": "1",
        "duplicate_queues": "holdout_low_rank_positives",
        "review_priority": "P1",
        "queue": "holdout_low_rank_positives",
        "priority_order": "9",
        "review_lane": "low_positive_review",
        "dataset": "holdouts",
        "final_split": "test_trasancos",
        "sample_id": "wl-pos-pos-es-pba-8705",
        "bank_id": "pos-es-pba-8705",
        "label_class": "1",
        "label_role": "positive",
        "suggested_taxonomy": "castro",
        "suggested_decision": "inspect_low_rank_known_positive",
        "boundary_action": "If visible, draw croa/muralla/recinto polygon; otherwise mark needs_followup.",
        "review_status": "pending",
        "review_notes": "",
        "final_taxonomy": "",
        "final_decision": "",
        "pretriage_order": "",
        "pretriage_group": "low_rank_positive",
        "pretriage_decision": "visibility_or_centroid_review",
        "pretriage_confidence": "low_pretriage_confidence",
        "training_use_after_review": "positive_candidate_after_boundary_review",
        "do_not_use_as": "new_discovery_claim_without_review",
        "visual_reading": "Known positive remains low in fusion; inspect centering, visibility, vegetation and morphology proxy.",
        "name": "Castro de Barallobre",
        "municipality": "Fene",
        "parish": "Barallobre (Santiago)",
        "country": "ES",
        "fusion_probability": "0.25615015",
        "fusion_rank": "96",
        "max_safety_rank": "117",
        "archetype_only_rank": "127",
        "specialist_probability": "0.24187362",
        "specialist_rank": "100",
        "specialist_mean_rank": "100",
        "rank_delta_fusion_to_max": "-21",
        "negative_type": "",
        "morphology_proxy": "generic_castro_hint",
        "visual_sheet": "reports/figures/weak_label_error_review_v1/holdout-low-rank-positives.png",
        "review_reason": "Known positive ranked low by the main fusion model; inspect as false-negative morphology."
      }
    },
    {
      "type": "Feature",
      "geometry": {
        "type": "Point",
        "coordinates": [
          -8.242723079720715,
          43.48378570961132
        ]
      },
      "properties": {
        "review_id": "err-review-0037",
        "sample_review_key": "wl-pos-pos-es-pba-9152",
        "duplicate_count": "1",
        "duplicate_queues": "holdout_low_rank_positives",
        "review_priority": "P1",
        "queue": "holdout_low_rank_positives",
        "priority_order": "12",
        "review_lane": "low_positive_review",
        "dataset": "holdouts",
        "final_split": "test_trasancos",
        "sample_id": "wl-pos-pos-es-pba-9152",
        "bank_id": "pos-es-pba-9152",
        "label_class": "1",
        "label_role": "positive",
        "suggested_taxonomy": "castro",
        "suggested_decision": "inspect_low_rank_known_positive",
        "boundary_action": "If visible, draw croa/muralla/recinto polygon; otherwise mark needs_followup.",
        "review_status": "pending",
        "review_notes": "",
        "final_taxonomy": "",
        "final_decision": "",
        "pretriage_order": "",
        "pretriage_group": "low_rank_positive",
        "pretriage_decision": "visibility_or_centroid_review",
        "pretriage_confidence": "low_pretriage_confidence",
        "training_use_after_review": "positive_candidate_after_boundary_review",
        "do_not_use_as": "new_discovery_claim_without_review",
        "visual_reading": "Known positive remains low in fusion; inspect centering, visibility, vegetation and morphology proxy.",
        "name": "Castro de Canido",
        "municipality": "Ferrol",
        "parish": "Ferrol",
        "country": "ES",
        "fusion_probability": "0.29191905",
        "fusion_rank": "84",
        "max_safety_rank": "105",
        "archetype_only_rank": "142",
        "specialist_probability": "0.40867851",
        "specialist_rank": "73",
        "specialist_mean_rank": "79",
        "rank_delta_fusion_to_max": "-21",
        "negative_type": "",
        "morphology_proxy": "generic_castro_hint",
        "visual_sheet": "reports/figures/weak_label_error_review_v1/holdout-low-rank-positives.png",
        "review_reason": "Known positive ranked low by the main fusion model; inspect as false-negative morphology."
      }
    },
    {
      "type": "Feature",
      "geometry": {
        "type": "Point",
        "coordinates": [
          -8.220621570398505,
          43.54366705275839
        ]
      },
      "properties": {
        "review_id": "err-review-0038",
        "sample_review_key": "wl-pos-pos-es-pba-14593",
        "duplicate_count": "1",
        "duplicate_queues": "holdout_low_rank_positives",
        "review_priority": "P1",
        "queue": "holdout_low_rank_positives",
        "priority_order": "13",
        "review_lane": "low_positive_review",
        "dataset": "holdouts",
        "final_split": "test_trasancos",
        "sample_id": "wl-pos-pos-es-pba-14593",
        "bank_id": "pos-es-pba-14593",
        "label_class": "1",
        "label_role": "positive",
        "suggested_taxonomy": "castro",
        "suggested_decision": "inspect_low_rank_known_positive",
        "boundary_action": "If visible, draw croa/muralla/recinto polygon; otherwise mark needs_followup.",
        "review_status": "pending",
        "review_notes": "",
        "final_taxonomy": "",
        "final_decision": "",
        "pretriage_order": "",
        "pretriage_group": "low_rank_positive",
        "pretriage_decision": "visibility_or_centroid_review",
        "pretriage_confidence": "low_pretriage_confidence",
        "training_use_after_review": "positive_candidate_after_boundary_review",
        "do_not_use_as": "new_discovery_claim_without_review",
        "visual_reading": "Known positive remains low in fusion; inspect centering, visibility, vegetation and morphology proxy.",
        "name": "Castro de Trasancos",
        "municipality": "Narón",
        "parish": "Trasancos (San Mateo)",
        "country": "ES",
        "fusion_probability": "0.33627011",
        "fusion_rank": "76",
        "max_safety_rank": "93",
        "archetype_only_rank": "67",
        "specialist_probability": "0.38699860",
        "specialist_rank": "77",
        "specialist_mean_rank": "76",
        "rank_delta_fusion_to_max": "-17",
        "negative_type": "",
        "morphology_proxy": "generic_castro_hint",
        "visual_sheet": "reports/figures/weak_label_error_review_v1/holdout-low-rank-positives.png",
        "review_reason": "Known positive ranked low by the main fusion model; inspect as false-negative morphology."
      }
    },
    {
      "type": "Feature",
      "geometry": {
        "type": "Point",
        "coordinates": [
          -8.17901516416762,
          43.501629521149226
        ]
      },
      "properties": {
        "review_id": "err-review-0039",
        "sample_review_key": "wl-pos-pos-es-pba-14589",
        "duplicate_count": "1",
        "duplicate_queues": "holdout_low_rank_positives",
        "review_priority": "P1",
        "queue": "holdout_low_rank_positives",
        "priority_order": "14",
        "review_lane": "low_positive_review",
        "dataset": "holdouts",
        "final_split": "test_trasancos",
        "sample_id": "wl-pos-pos-es-pba-14589",
        "bank_id": "pos-es-pba-14589",
        "label_class": "1",
        "label_role": "positive",
        "suggested_taxonomy": "castro",
        "suggested_decision": "inspect_low_rank_known_positive",
        "boundary_action": "If visible, draw croa/muralla/recinto polygon; otherwise mark needs_followup.",
        "review_status": "pending",
        "review_notes": "",
        "final_taxonomy": "",
        "final_decision": "",
        "pretriage_order": "",
        "pretriage_group": "low_rank_positive",
        "pretriage_decision": "visibility_or_centroid_review",
        "pretriage_confidence": "low_pretriage_confidence",
        "training_use_after_review": "positive_candidate_after_boundary_review",
        "do_not_use_as": "new_discovery_claim_without_review",
        "visual_reading": "Known positive remains low in fusion; inspect centering, visibility, vegetation and morphology proxy.",
        "name": "Castro de Petouzal/Castro da Croa",
        "municipality": "Narón",
        "parish": "Narón",
        "country": "ES",
        "fusion_probability": "0.34422154",
        "fusion_rank": "75",
        "max_safety_rank": "92",
        "archetype_only_rank": "147",
        "specialist_probability": "0.39190514",
        "specialist_rank": "74",
        "specialist_mean_rank": "74",
        "rank_delta_fusion_to_max": "-17",
        "negative_type": "",
        "morphology_proxy": "croa_top_ring_hint",
        "visual_sheet": "reports/figures/weak_label_error_review_v1/holdout-low-rank-positives.png",
        "review_reason": "Known positive ranked low by the main fusion model; inspect as false-negative morphology."
      }
    },
    {
      "type": "Feature",
      "geometry": {
        "type": "Point",
        "coordinates": [
          -8.17116511354815,
          43.59217497513028
        ]
      },
      "properties": {
        "review_id": "err-review-0040",
        "sample_review_key": "wl-pos-pos-es-pba-24335",
        "duplicate_count": "1",
        "duplicate_queues": "holdout_low_rank_positives",
        "review_priority": "P1",
        "queue": "holdout_low_rank_positives",
        "priority_order": "15",
        "review_lane": "low_positive_review",
        "dataset": "holdouts",
        "final_split": "test_trasancos",
        "sample_id": "wl-pos-pos-es-pba-24335",
        "bank_id": "pos-es-pba-24335",
        "label_class": "1",
        "label_role": "positive",
        "suggested_taxonomy": "castro",
        "suggested_decision": "inspect_low_rank_known_positive",
        "boundary_action": "If visible, draw croa/muralla/recinto polygon; otherwise mark needs_followup.",
        "review_status": "pending",
        "review_notes": "",
        "final_taxonomy": "",
        "final_decision": "",
        "pretriage_order": "",
        "pretriage_group": "low_rank_positive",
        "pretriage_decision": "visibility_or_centroid_review",
        "pretriage_confidence": "low_pretriage_confidence",
        "training_use_after_review": "positive_candidate_after_boundary_review",
        "do_not_use_as": "new_discovery_claim_without_review",
        "visual_reading": "Known positive remains low in fusion; inspect centering, visibility, vegetation and morphology proxy.",
        "name": "O Castro",
        "municipality": "Valdoviño",
        "parish": "Lago (Santiago)",
        "country": "ES",
        "fusion_probability": "0.35609470",
        "fusion_rank": "72",
        "max_safety_rank": "86",
        "archetype_only_rank": "119",
        "specialist_probability": "0.25289350",
        "specialist_rank": "97",
        "specialist_mean_rank": "88",
        "rank_delta_fusion_to_max": "-14",
        "negative_type": "",
        "morphology_proxy": "generic_castro_hint",
        "visual_sheet": "reports/figures/weak_label_error_review_v1/holdout-low-rank-positives.png",
        "review_reason": "Known positive ranked low by the main fusion model; inspect as false-negative morphology."
      }
    },
    {
      "type": "Feature",
      "geometry": {
        "type": "Point",
        "coordinates": [
          -8.249128691469277,
          43.539632953340096
        ]
      },
      "properties": {
        "review_id": "err-review-0041",
        "sample_review_key": "wl-pos-pos-es-pba-9183",
        "duplicate_count": "1",
        "duplicate_queues": "holdout_low_rank_positives",
        "review_priority": "P1",
        "queue": "holdout_low_rank_positives",
        "priority_order": "16",
        "review_lane": "low_positive_review",
        "dataset": "holdouts",
        "final_split": "test_trasancos",
        "sample_id": "wl-pos-pos-es-pba-9183",
        "bank_id": "pos-es-pba-9183",
        "label_class": "1",
        "label_role": "positive",
        "suggested_taxonomy": "castro",
        "suggested_decision": "inspect_low_rank_known_positive",
        "boundary_action": "If visible, draw croa/muralla/recinto polygon; otherwise mark needs_followup.",
        "review_status": "pending",
        "review_notes": "",
        "final_taxonomy": "",
        "final_decision": "",
        "pretriage_order": "",
        "pretriage_group": "low_rank_positive",
        "pretriage_decision": "visibility_or_centroid_review",
        "pretriage_confidence": "low_pretriage_confidence",
        "training_use_after_review": "positive_candidate_after_boundary_review",
        "do_not_use_as": "new_discovery_claim_without_review",
        "visual_reading": "Known positive remains low in fusion; inspect centering, visibility, vegetation and morphology proxy.",
        "name": "Castro de Marmancón/Castro de Papoi",
        "municipality": "Ferrol",
        "parish": "Marmancón (San Pedro)",
        "country": "ES",
        "fusion_probability": "0.37927244",
        "fusion_rank": "65",
        "max_safety_rank": "78",
        "archetype_only_rank": "64",
        "specialist_probability": "0.43818702",
        "specialist_rank": "68",
        "specialist_mean_rank": "66",
        "rank_delta_fusion_to_max": "-13",
        "negative_type": "",
        "morphology_proxy": "coastal_promontory_hint",
        "visual_sheet": "reports/figures/weak_label_error_review_v1/holdout-low-rank-positives.png",
        "review_reason": "Known positive ranked low by the main fusion model; inspect as false-negative morphology."
      }
    },
    {
      "type": "Feature",
      "geometry": {
        "type": "Point",
        "coordinates": [
          -8.042097773882631,
          43.54078893976058
        ]
      },
      "properties": {
        "review_id": "err-review-0042",
        "sample_review_key": "wl-pos-pos-es-pba-20784",
        "duplicate_count": "1",
        "duplicate_queues": "holdout_low_rank_positives",
        "review_priority": "P1",
        "queue": "holdout_low_rank_positives",
        "priority_order": "17",
        "review_lane": "low_positive_review",
        "dataset": "holdouts",
        "final_split": "test_trasancos",
        "sample_id": "wl-pos-pos-es-pba-20784",
        "bank_id": "pos-es-pba-20784",
        "label_class": "1",
        "label_role": "positive",
        "suggested_taxonomy": "castro",
        "suggested_decision": "inspect_low_rank_known_positive",
        "boundary_action": "If visible, draw croa/muralla/recinto polygon; otherwise mark needs_followup.",
        "review_status": "pending",
        "review_notes": "",
        "final_taxonomy": "",
        "final_decision": "",
        "pretriage_order": "",
        "pretriage_group": "low_rank_positive",
        "pretriage_decision": "visibility_or_centroid_review",
        "pretriage_confidence": "low_pretriage_confidence",
        "training_use_after_review": "positive_candidate_after_boundary_review",
        "do_not_use_as": "new_discovery_claim_without_review",
        "visual_reading": "Known positive remains low in fusion; inspect centering, visibility, vegetation and morphology proxy.",
        "name": "Castro de croas de Ramil",
        "municipality": "San Sadurniño",
        "parish": "Lamas (San Xiao)",
        "country": "ES",
        "fusion_probability": "0.39220577",
        "fusion_rank": "62",
        "max_safety_rank": "75",
        "archetype_only_rank": "128",
        "specialist_probability": "0.25096524",
        "specialist_rank": "98",
        "specialist_mean_rank": "83",
        "rank_delta_fusion_to_max": "-13",
        "negative_type": "",
        "morphology_proxy": "croa_top_ring_hint",
        "visual_sheet": "reports/figures/weak_label_error_review_v1/holdout-low-rank-positives.png",
        "review_reason": "Known positive ranked low by the main fusion model; inspect as false-negative morphology."
      }
    },
    {
      "type": "Feature",
      "geometry": {
        "type": "Point",
        "coordinates": [
          -8.242394964840896,
          43.47839760085566
        ]
      },
      "properties": {
        "review_id": "err-review-0043",
        "sample_review_key": "wl-pos-pos-es-pba-9886",
        "duplicate_count": "1",
        "duplicate_queues": "holdout_low_rank_positives",
        "review_priority": "P1",
        "queue": "holdout_low_rank_positives",
        "priority_order": "19",
        "review_lane": "low_positive_review",
        "dataset": "holdouts",
        "final_split": "test_trasancos",
        "sample_id": "wl-pos-pos-es-pba-9886",
        "bank_id": "pos-es-pba-9886",
        "label_class": "1",
        "label_role": "positive",
        "suggested_taxonomy": "castro",
        "suggested_decision": "inspect_low_rank_known_positive",
        "boundary_action": "If visible, draw croa/muralla/recinto polygon; otherwise mark needs_followup.",
        "review_status": "pending",
        "review_notes": "",
        "final_taxonomy": "",
        "final_decision": "",
        "pretriage_order": "",
        "pretriage_group": "low_rank_positive",
        "pretriage_decision": "visibility_or_centroid_review",
        "pretriage_confidence": "low_pretriage_confidence",
        "training_use_after_review": "positive_candidate_after_boundary_review",
        "do_not_use_as": "new_discovery_claim_without_review",
        "visual_reading": "Known positive remains low in fusion; inspect centering, visibility, vegetation and morphology proxy.",
        "name": "Porta do Castro/Arco do Cristo",
        "municipality": "Ferrol",
        "parish": "Ferrol",
        "country": "ES",
        "fusion_probability": "0.40925940",
        "fusion_rank": "59",
        "max_safety_rank": "70",
        "archetype_only_rank": "183",
        "specialist_probability": "0.66567977",
        "specialist_rank": "38",
        "specialist_mean_rank": "50",
        "rank_delta_fusion_to_max": "-11",
        "negative_type": "",
        "morphology_proxy": "generic_castro_hint",
        "visual_sheet": "reports/figures/weak_label_error_review_v1/holdout-low-rank-positives.png",
        "review_reason": "Known positive ranked low by the main fusion model; inspect as false-negative morphology."
      }
    },
    {
      "type": "Feature",
      "geometry": {
        "type": "Point",
        "coordinates": [
          -8.1781798324184,
          43.544581317028644
        ]
      },
      "properties": {
        "review_id": "err-review-0044",
        "sample_review_key": "wl-pos-pos-es-pba-14336",
        "duplicate_count": "1",
        "duplicate_queues": "holdout_low_rank_positives",
        "review_priority": "P1",
        "queue": "holdout_low_rank_positives",
        "priority_order": "20",
        "review_lane": "low_positive_review",
        "dataset": "holdouts",
        "final_split": "test_trasancos",
        "sample_id": "wl-pos-pos-es-pba-14336",
        "bank_id": "pos-es-pba-14336",
        "label_class": "1",
        "label_role": "positive",
        "suggested_taxonomy": "castro",
        "suggested_decision": "inspect_low_rank_known_positive",
        "boundary_action": "If visible, draw croa/muralla/recinto polygon; otherwise mark needs_followup.",
        "review_status": "pending",
        "review_notes": "",
        "final_taxonomy": "",
        "final_decision": "",
        "pretriage_order": "",
        "pretriage_group": "low_rank_positive",
        "pretriage_decision": "visibility_or_centroid_review",
        "pretriage_confidence": "low_pretriage_confidence",
        "training_use_after_review": "positive_candidate_after_boundary_review",
        "do_not_use_as": "new_discovery_claim_without_review",
        "visual_reading": "Known positive remains low in fusion; inspect centering, visibility, vegetation and morphology proxy.",
        "name": "O Castro",
        "municipality": "Narón",
        "parish": "Castro (Santa María)",
        "country": "ES",
        "fusion_probability": "0.43335312",
        "fusion_rank": "57",
        "max_safety_rank": "68",
        "archetype_only_rank": "177",
        "specialist_probability": "0.38184513",
        "specialist_rank": "78",
        "specialist_mean_rank": "68",
        "rank_delta_fusion_to_max": "-11",
        "negative_type": "",
        "morphology_proxy": "generic_castro_hint",
        "visual_sheet": "reports/figures/weak_label_error_review_v1/holdout-low-rank-positives.png",
        "review_reason": "Known positive ranked low by the main fusion model; inspect as false-negative morphology."
      }
    },
    {
      "type": "Feature",
      "geometry": {
        "type": "Point",
        "coordinates": [
          -8.172870217067269,
          43.53362624920575
        ]
      },
      "properties": {
        "review_id": "err-review-0045",
        "sample_review_key": "wl-pos-pos-es-pba-14592",
        "duplicate_count": "1",
        "duplicate_queues": "holdout_low_rank_positives",
        "review_priority": "P1",
        "queue": "holdout_low_rank_positives",
        "priority_order": "22",
        "review_lane": "low_positive_review",
        "dataset": "holdouts",
        "final_split": "test_trasancos",
        "sample_id": "wl-pos-pos-es-pba-14592",
        "bank_id": "pos-es-pba-14592",
        "label_class": "1",
        "label_role": "positive",
        "suggested_taxonomy": "castro",
        "suggested_decision": "inspect_low_rank_known_positive",
        "boundary_action": "If visible, draw croa/muralla/recinto polygon; otherwise mark needs_followup.",
        "review_status": "pending",
        "review_notes": "",
        "final_taxonomy": "",
        "final_decision": "",
        "pretriage_order": "",
        "pretriage_group": "low_rank_positive",
        "pretriage_decision": "visibility_or_centroid_review",
        "pretriage_confidence": "low_pretriage_confidence",
        "training_use_after_review": "positive_candidate_after_boundary_review",
        "do_not_use_as": "new_discovery_claim_without_review",
        "visual_reading": "Known positive remains low in fusion; inspect centering, visibility, vegetation and morphology proxy.",
        "name": "Castro de Sequeiro/Castro de Narón",
        "municipality": "Narón",
        "parish": "San Xiao de Narón (San Xiao)",
        "country": "ES",
        "fusion_probability": "0.47687365",
        "fusion_rank": "52",
        "max_safety_rank": "62",
        "archetype_only_rank": "191",
        "specialist_probability": "0.34799726",
        "specialist_rank": "80",
        "specialist_mean_rank": "64",
        "rank_delta_fusion_to_max": "-10",
        "negative_type": "",
        "morphology_proxy": "generic_castro_hint",
        "visual_sheet": "reports/figures/weak_label_error_review_v1/holdout-low-rank-positives.png",
        "review_reason": "Known positive ranked low by the main fusion model; inspect as false-negative morphology."
      }
    },
    {
      "type": "Feature",
      "geometry": {
        "type": "Point",
        "coordinates": [
          -8.20836441392536,
          43.522706975089974
        ]
      },
      "properties": {
        "review_id": "err-review-0046",
        "sample_review_key": "wl-pos-pos-es-pba-9154",
        "duplicate_count": "1",
        "duplicate_queues": "holdout_low_rank_positives",
        "review_priority": "P1",
        "queue": "holdout_low_rank_positives",
        "priority_order": "23",
        "review_lane": "low_positive_review",
        "dataset": "holdouts",
        "final_split": "test_trasancos",
        "sample_id": "wl-pos-pos-es-pba-9154",
        "bank_id": "pos-es-pba-9154",
        "label_class": "1",
        "label_role": "positive",
        "suggested_taxonomy": "castro",
        "suggested_decision": "inspect_low_rank_known_positive",
        "boundary_action": "If visible, draw croa/muralla/recinto polygon; otherwise mark needs_followup.",
        "review_status": "pending",
        "review_notes": "",
        "final_taxonomy": "",
        "final_decision": "",
        "pretriage_order": "",
        "pretriage_group": "low_rank_positive",
        "pretriage_decision": "visibility_or_centroid_review",
        "pretriage_confidence": "low_pretriage_confidence",
        "training_use_after_review": "positive_candidate_after_boundary_review",
        "do_not_use_as": "new_discovery_claim_without_review",
        "visual_reading": "Known positive remains low in fusion; inspect centering, visibility, vegetation and morphology proxy.",
        "name": "Castro de Leixa/A Croa de Leixa",
        "municipality": "Ferrol",
        "parish": "Leixa (San Pedro)",
        "country": "ES",
        "fusion_probability": "0.48876775",
        "fusion_rank": "51",
        "max_safety_rank": "60",
        "archetype_only_rank": "116",
        "specialist_probability": "0.41003802",
        "specialist_rank": "72",
        "specialist_mean_rank": "59",
        "rank_delta_fusion_to_max": "-9",
        "negative_type": "",
        "morphology_proxy": "croa_top_ring_hint",
        "visual_sheet": "reports/figures/weak_label_error_review_v1/holdout-low-rank-positives.png",
        "review_reason": "Known positive ranked low by the main fusion model; inspect as false-negative morphology."
      }
    },
    {
      "type": "Feature",
      "geometry": {
        "type": "Point",
        "coordinates": [
          -8.199972868867611,
          43.51103121295041
        ]
      },
      "properties": {
        "review_id": "err-review-0047",
        "sample_review_key": "wl-pos-pos-es-pba-9184",
        "duplicate_count": "1",
        "duplicate_queues": "holdout_low_rank_positives",
        "review_priority": "P1",
        "queue": "holdout_low_rank_positives",
        "priority_order": "24",
        "review_lane": "low_positive_review",
        "dataset": "holdouts",
        "final_split": "test_trasancos",
        "sample_id": "wl-pos-pos-es-pba-9184",
        "bank_id": "pos-es-pba-9184",
        "label_class": "1",
        "label_role": "positive",
        "suggested_taxonomy": "castro",
        "suggested_decision": "inspect_low_rank_known_positive",
        "boundary_action": "If visible, draw croa/muralla/recinto polygon; otherwise mark needs_followup.",
        "review_status": "pending",
        "review_notes": "",
        "final_taxonomy": "",
        "final_decision": "",
        "pretriage_order": "",
        "pretriage_group": "low_rank_positive",
        "pretriage_decision": "visibility_or_centroid_review",
        "pretriage_confidence": "low_pretriage_confidence",
        "training_use_after_review": "positive_candidate_after_boundary_review",
        "do_not_use_as": "new_discovery_claim_without_review",
        "visual_reading": "Known positive remains low in fusion; inspect centering, visibility, vegetation and morphology proxy.",
        "name": "Castro de Santa Cecilia",
        "municipality": "Ferrol",
        "parish": "Santa Cecilia de Trasancos (Santa Cecilia)",
        "country": "ES",
        "fusion_probability": "0.51840315",
        "fusion_rank": "50",
        "max_safety_rank": "56",
        "archetype_only_rank": "72",
        "specialist_probability": "0.29891182",
        "specialist_rank": "90",
        "specialist_mean_rank": "67",
        "rank_delta_fusion_to_max": "-6",
        "negative_type": "",
        "morphology_proxy": "generic_castro_hint",
        "visual_sheet": "reports/figures/weak_label_error_review_v1/holdout-low-rank-positives.png",
        "review_reason": "Known positive ranked low by the main fusion model; inspect as false-negative morphology."
      }
    },
    {
      "type": "Feature",
      "geometry": {
        "type": "Point",
        "coordinates": [
          -8.242683156451365,
          43.47962400888347
        ]
      },
      "properties": {
        "review_id": "err-review-0048",
        "sample_review_key": "wl-pos-pos-es-pba-9153",
        "duplicate_count": "1",
        "duplicate_queues": "holdout_low_rank_positives",
        "review_priority": "P1",
        "queue": "holdout_low_rank_positives",
        "priority_order": "25",
        "review_lane": "low_positive_review",
        "dataset": "holdouts",
        "final_split": "test_trasancos",
        "sample_id": "wl-pos-pos-es-pba-9153",
        "bank_id": "pos-es-pba-9153",
        "label_class": "1",
        "label_role": "positive",
        "suggested_taxonomy": "castro",
        "suggested_decision": "inspect_low_rank_known_positive",
        "boundary_action": "If visible, draw croa/muralla/recinto polygon; otherwise mark needs_followup.",
        "review_status": "pending",
        "review_notes": "",
        "final_taxonomy": "",
        "final_decision": "",
        "pretriage_order": "",
        "pretriage_group": "low_rank_positive",
        "pretriage_decision": "visibility_or_centroid_review",
        "pretriage_confidence": "low_pretriage_confidence",
        "training_use_after_review": "positive_candidate_after_boundary_review",
        "do_not_use_as": "new_discovery_claim_without_review",
        "visual_reading": "Known positive remains low in fusion; inspect centering, visibility, vegetation and morphology proxy.",
        "name": "Castro de Ferrol Vello",
        "municipality": "Ferrol",
        "parish": "Ferrol",
        "country": "ES",
        "fusion_probability": "0.52383388",
        "fusion_rank": "49",
        "max_safety_rank": "55",
        "archetype_only_rank": "42",
        "specialist_probability": "0.82053006",
        "specialist_rank": "35",
        "specialist_mean_rank": "34",
        "rank_delta_fusion_to_max": "-6",
        "negative_type": "",
        "morphology_proxy": "generic_castro_hint",
        "visual_sheet": "reports/figures/weak_label_error_review_v1/holdout-low-rank-positives.png",
        "review_reason": "Known positive ranked low by the main fusion model; inspect as false-negative morphology."
      }
    },
    {
      "type": "Feature",
      "geometry": {
        "type": "Point",
        "coordinates": [
          -7.22652655882318,
          43.49768971762742
        ]
      },
      "properties": {
        "review_id": "err-review-0144",
        "sample_review_key": "wl-pos-pos-es-pba-28733",
        "duplicate_count": "1",
        "duplicate_queues": "val_low_rank_weak_positives",
        "review_priority": "P2",
        "queue": "val_low_rank_weak_positives",
        "priority_order": "6",
        "review_lane": "low_positive_review",
        "dataset": "val",
        "final_split": "val",
        "sample_id": "wl-pos-pos-es-pba-28733",
        "bank_id": "pos-es-pba-28733",
        "label_class": "1",
        "label_role": "positive",
        "suggested_taxonomy": "castro",
        "suggested_decision": "inspect_low_rank_known_positive",
        "boundary_action": "If visible, draw croa/muralla/recinto polygon; otherwise mark needs_followup.",
        "review_status": "pending",
        "review_notes": "",
        "final_taxonomy": "",
        "final_decision": "",
        "pretriage_order": "",
        "pretriage_group": "low_rank_positive",
        "pretriage_decision": "visibility_or_centroid_review",
        "pretriage_confidence": "low_pretriage_confidence",
        "training_use_after_review": "positive_candidate_after_boundary_review",
        "do_not_use_as": "new_discovery_claim_without_review",
        "visual_reading": "Known positive remains low in fusion; inspect centering, visibility, vegetation and morphology proxy.",
        "name": "O Castro",
        "municipality": "Barreiros",
        "parish": "Cabarcos (San Xulián)",
        "country": "ES",
        "fusion_probability": "0.04952022",
        "fusion_rank": "1749",
        "max_safety_rank": "1830",
        "archetype_only_rank": "1720",
        "specialist_probability": "0.03019735",
        "specialist_rank": "1773",
        "specialist_mean_rank": "1763",
        "rank_delta_fusion_to_max": "-81",
        "negative_type": "",
        "morphology_proxy": "generic_castro_hint",
        "visual_sheet": "reports/figures/weak_label_error_review_v1/val-low-rank-weak-positives.png",
        "review_reason": "Weak positive ranked low on validation; inspect label noise, morphology and imagery quality."
      }
    },
    {
      "type": "Feature",
      "geometry": {
        "type": "Point",
        "coordinates": [
          -7.73630430123401,
          42.65948803776814
        ]
      },
      "properties": {
        "review_id": "err-review-0145",
        "sample_review_key": "wl-pos-pos-es-pba-29397",
        "duplicate_count": "1",
        "duplicate_queues": "val_low_rank_weak_positives",
        "review_priority": "P2",
        "queue": "val_low_rank_weak_positives",
        "priority_order": "14",
        "review_lane": "low_positive_review",
        "dataset": "val",
        "final_split": "val",
        "sample_id": "wl-pos-pos-es-pba-29397",
        "bank_id": "pos-es-pba-29397",
        "label_class": "1",
        "label_role": "positive",
        "suggested_taxonomy": "castro",
        "suggested_decision": "inspect_low_rank_known_positive",
        "boundary_action": "If visible, draw croa/muralla/recinto polygon; otherwise mark needs_followup.",
        "review_status": "pending",
        "review_notes": "",
        "final_taxonomy": "",
        "final_decision": "",
        "pretriage_order": "",
        "pretriage_group": "low_rank_positive",
        "pretriage_decision": "visibility_or_centroid_review",
        "pretriage_confidence": "low_pretriage_confidence",
        "training_use_after_review": "positive_candidate_after_boundary_review",
        "do_not_use_as": "new_discovery_claim_without_review",
        "visual_reading": "Known positive remains low in fusion; inspect centering, visibility, vegetation and morphology proxy.",
        "name": "Castro de Candad",
        "municipality": "Chantada",
        "parish": "Pedrafita (Santa Baia)",
        "country": "ES",
        "fusion_probability": "0.10776018",
        "fusion_rank": "1489",
        "max_safety_rank": "1793",
        "archetype_only_rank": "1851",
        "specialist_probability": "0.05539912",
        "specialist_rank": "1644",
        "specialist_mean_rank": "1592",
        "rank_delta_fusion_to_max": "-304",
        "negative_type": "",
        "morphology_proxy": "generic_castro_hint",
        "visual_sheet": "",
        "review_reason": "Weak positive ranked low on validation; inspect label noise, morphology and imagery quality."
      }
    },
    {
      "type": "Feature",
      "geometry": {
        "type": "Point",
        "coordinates": [
          -7.430037611209077,
          41.983278496802875
        ]
      },
      "properties": {
        "review_id": "err-review-0146",
        "sample_review_key": "wl-pos-pos-es-pba-47185",
        "duplicate_count": "1",
        "duplicate_queues": "val_low_rank_weak_positives",
        "review_priority": "P2",
        "queue": "val_low_rank_weak_positives",
        "priority_order": "19",
        "review_lane": "low_positive_review",
        "dataset": "val",
        "final_split": "val",
        "sample_id": "wl-pos-pos-es-pba-47185",
        "bank_id": "pos-es-pba-47185",
        "label_class": "1",
        "label_role": "positive",
        "suggested_taxonomy": "castro",
        "suggested_decision": "inspect_low_rank_known_positive",
        "boundary_action": "If visible, draw croa/muralla/recinto polygon; otherwise mark needs_followup.",
        "review_status": "pending",
        "review_notes": "",
        "final_taxonomy": "",
        "final_decision": "",
        "pretriage_order": "",
        "pretriage_group": "low_rank_positive",
        "pretriage_decision": "visibility_or_centroid_review",
        "pretriage_confidence": "low_pretriage_confidence",
        "training_use_after_review": "positive_candidate_after_boundary_review",
        "do_not_use_as": "new_discovery_claim_without_review",
        "visual_reading": "Known positive remains low in fusion; inspect centering, visibility, vegetation and morphology proxy.",
        "name": "Xacemento romano do Castro",
        "municipality": "Castrelo do Val",
        "parish": "Castrelo do Val (Santa María)",
        "country": "ES",
        "fusion_probability": "0.19485620",
        "fusion_rank": "1162",
        "max_safety_rank": "1568",
        "archetype_only_rank": "1706",
        "specialist_probability": "0.05875561",
        "specialist_rank": "1628",
        "specialist_mean_rank": "1394",
        "rank_delta_fusion_to_max": "-406",
        "negative_type": "",
        "morphology_proxy": "generic_castro_hint",
        "visual_sheet": "",
        "review_reason": "Weak positive ranked low on validation; inspect label noise, morphology and imagery quality."
      }
    },
    {
      "type": "Feature",
      "geometry": {
        "type": "Point",
        "coordinates": [
          -7.642458623171671,
          43.593659855605146
        ]
      },
      "properties": {
        "review_id": "err-review-0147",
        "sample_review_key": "wl-pos-pos-es-pba-35702",
        "duplicate_count": "1",
        "duplicate_queues": "val_low_rank_weak_positives",
        "review_priority": "P2",
        "queue": "val_low_rank_weak_positives",
        "priority_order": "20",
        "review_lane": "low_positive_review",
        "dataset": "val",
        "final_split": "val",
        "sample_id": "wl-pos-pos-es-pba-35702",
        "bank_id": "pos-es-pba-35702",
        "label_class": "1",
        "label_role": "positive",
        "suggested_taxonomy": "castro",
        "suggested_decision": "inspect_low_rank_known_positive",
        "boundary_action": "If visible, draw croa/muralla/recinto polygon; otherwise mark needs_followup.",
        "review_status": "pending",
        "review_notes": "",
        "final_taxonomy": "",
        "final_decision": "",
        "pretriage_order": "",
        "pretriage_group": "low_rank_positive",
        "pretriage_decision": "visibility_or_centroid_review",
        "pretriage_confidence": "low_pretriage_confidence",
        "training_use_after_review": "positive_candidate_after_boundary_review",
        "do_not_use_as": "new_discovery_claim_without_review",
        "visual_reading": "Known positive remains low in fusion; inspect centering, visibility, vegetation and morphology proxy.",
        "name": "Castro de Pena Gateira",
        "municipality": "Ourol",
        "parish": "Bravos (Santiago)",
        "country": "ES",
        "fusion_probability": "0.20722190",
        "fusion_rank": "1132",
        "max_safety_rank": "1239",
        "archetype_only_rank": "872",
        "specialist_probability": "0.23929394",
        "specialist_rank": "924",
        "specialist_mean_rank": "1042",
        "rank_delta_fusion_to_max": "-107",
        "negative_type": "",
        "morphology_proxy": "hilltop_hint",
        "visual_sheet": "",
        "review_reason": "Weak positive ranked low on validation; inspect label noise, morphology and imagery quality."
      }
    },
    {
      "type": "Feature",
      "geometry": {
        "type": "Point",
        "coordinates": [
          -8.371934625986794,
          42.85362862119057
        ]
      },
      "properties": {
        "review_id": "err-review-0148",
        "sample_review_key": "wl-pos-pos-es-pba-24554",
        "duplicate_count": "1",
        "duplicate_queues": "val_low_rank_weak_positives",
        "review_priority": "P2",
        "queue": "val_low_rank_weak_positives",
        "priority_order": "21",
        "review_lane": "low_positive_review",
        "dataset": "val",
        "final_split": "val",
        "sample_id": "wl-pos-pos-es-pba-24554",
        "bank_id": "pos-es-pba-24554",
        "label_class": "1",
        "label_role": "positive",
        "suggested_taxonomy": "castro",
        "suggested_decision": "inspect_low_rank_known_positive",
        "boundary_action": "If visible, draw croa/muralla/recinto polygon; otherwise mark needs_followup.",
        "review_status": "pending",
        "review_notes": "",
        "final_taxonomy": "",
        "final_decision": "",
        "pretriage_order": "",
        "pretriage_group": "low_rank_positive",
        "pretriage_decision": "visibility_or_centroid_review",
        "pretriage_confidence": "low_pretriage_confidence",
        "training_use_after_review": "positive_candidate_after_boundary_review",
        "do_not_use_as": "new_discovery_claim_without_review",
        "visual_reading": "Known positive remains low in fusion; inspect centering, visibility, vegetation and morphology proxy.",
        "name": "Pombal no Castro",
        "municipality": "Touro",
        "parish": "Prevediños (Santiago)",
        "country": "ES",
        "fusion_probability": "0.20852133",
        "fusion_rank": "1129",
        "max_safety_rank": "1523",
        "archetype_only_rank": "1480",
        "specialist_probability": "0.31680987",
        "specialist_rank": "749",
        "specialist_mean_rank": "926",
        "rank_delta_fusion_to_max": "-394",
        "negative_type": "",
        "morphology_proxy": "generic_castro_hint",
        "visual_sheet": "",
        "review_reason": "Weak positive ranked low on validation; inspect label noise, morphology and imagery quality."
      }
    },
    {
      "type": "Feature",
      "geometry": {
        "type": "Point",
        "coordinates": [
          -7.079411492299075,
          42.205935551801176
        ]
      },
      "properties": {
        "review_id": "err-review-0149",
        "sample_review_key": "wl-pos-pos-es-pba-58803",
        "duplicate_count": "1",
        "duplicate_queues": "val_low_rank_weak_positives",
        "review_priority": "P2",
        "queue": "val_low_rank_weak_positives",
        "priority_order": "23",
        "review_lane": "low_positive_review",
        "dataset": "val",
        "final_split": "val",
        "sample_id": "wl-pos-pos-es-pba-58803",
        "bank_id": "pos-es-pba-58803",
        "label_class": "1",
        "label_role": "positive",
        "suggested_taxonomy": "castro",
        "suggested_decision": "inspect_low_rank_known_positive",
        "boundary_action": "If visible, draw croa/muralla/recinto polygon; otherwise mark needs_followup.",
        "review_status": "pending",
        "review_notes": "",
        "final_taxonomy": "",
        "final_decision": "",
        "pretriage_order": "",
        "pretriage_group": "low_rank_positive",
        "pretriage_decision": "visibility_or_centroid_review",
        "pretriage_confidence": "low_pretriage_confidence",
        "training_use_after_review": "positive_candidate_after_boundary_review",
        "do_not_use_as": "new_discovery_claim_without_review",
        "visual_reading": "Known positive remains low in fusion; inspect centering, visibility, vegetation and morphology proxy.",
        "name": "Castro do Froxancal",
        "municipality": "Viana do Bolo",
        "parish": "Hedroso (San Román)",
        "country": "ES",
        "fusion_probability": "0.21453366",
        "fusion_rank": "1111",
        "max_safety_rank": "1505",
        "archetype_only_rank": "1136",
        "specialist_probability": "0.45058281",
        "specialist_rank": "528",
        "specialist_mean_rank": "743",
        "rank_delta_fusion_to_max": "-394",
        "negative_type": "",
        "morphology_proxy": "generic_castro_hint",
        "visual_sheet": "",
        "review_reason": "Weak positive ranked low on validation; inspect label noise, morphology and imagery quality."
      }
    },
    {
      "type": "Feature",
      "geometry": {
        "type": "Point",
        "coordinates": [
          -7.199790611342973,
          43.488202225975805
        ]
      },
      "properties": {
        "review_id": "err-review-0150",
        "sample_review_key": "wl-pos-pos-es-pba-28589",
        "duplicate_count": "1",
        "duplicate_queues": "val_low_rank_weak_positives",
        "review_priority": "P2",
        "queue": "val_low_rank_weak_positives",
        "priority_order": "26",
        "review_lane": "low_positive_review",
        "dataset": "val",
        "final_split": "val",
        "sample_id": "wl-pos-pos-es-pba-28589",
        "bank_id": "pos-es-pba-28589",
        "label_class": "1",
        "label_role": "positive",
        "suggested_taxonomy": "castro",
        "suggested_decision": "inspect_low_rank_known_positive",
        "boundary_action": "If visible, draw croa/muralla/recinto polygon; otherwise mark needs_followup.",
        "review_status": "pending",
        "review_notes": "",
        "final_taxonomy": "",
        "final_decision": "",
        "pretriage_order": "",
        "pretriage_group": "low_rank_positive",
        "pretriage_decision": "visibility_or_centroid_review",
        "pretriage_confidence": "low_pretriage_confidence",
        "training_use_after_review": "positive_candidate_after_boundary_review",
        "do_not_use_as": "new_discovery_claim_without_review",
        "visual_reading": "Known positive remains low in fusion; inspect centering, visibility, vegetation and morphology proxy.",
        "name": "Castro dos Calixos",
        "municipality": "Barreiros",
        "parish": "Vilamartín Pequeno (San Xoán Degolado)",
        "country": "ES",
        "fusion_probability": "0.24304535",
        "fusion_rank": "1024",
        "max_safety_rank": "1402",
        "archetype_only_rank": "1063",
        "specialist_probability": "0.35506741",
        "specialist_rank": "675",
        "specialist_mean_rank": "833",
        "rank_delta_fusion_to_max": "-378",
        "negative_type": "",
        "morphology_proxy": "generic_castro_hint",
        "visual_sheet": "",
        "review_reason": "Weak positive ranked low on validation; inspect label noise, morphology and imagery quality."
      }
    },
    {
      "type": "Feature",
      "geometry": {
        "type": "Point",
        "coordinates": [
          -8.720640967088528,
          42.72023104050819
        ]
      },
      "properties": {
        "review_id": "err-review-0151",
        "sample_review_key": "wl-pos-pos-es-pba-9491",
        "duplicate_count": "1",
        "duplicate_queues": "val_low_rank_weak_positives",
        "review_priority": "P2",
        "queue": "val_low_rank_weak_positives",
        "priority_order": "27",
        "review_lane": "low_positive_review",
        "dataset": "val",
        "final_split": "val",
        "sample_id": "wl-pos-pos-es-pba-9491",
        "bank_id": "pos-es-pba-9491",
        "label_class": "1",
        "label_role": "positive",
        "suggested_taxonomy": "castro",
        "suggested_decision": "inspect_low_rank_known_positive",
        "boundary_action": "If visible, draw croa/muralla/recinto polygon; otherwise mark needs_followup.",
        "review_status": "pending",
        "review_notes": "",
        "final_taxonomy": "",
        "final_decision": "",
        "pretriage_order": "",
        "pretriage_group": "low_rank_positive",
        "pretriage_decision": "visibility_or_centroid_review",
        "pretriage_confidence": "low_pretriage_confidence",
        "training_use_after_review": "positive_candidate_after_boundary_review",
        "do_not_use_as": "new_discovery_claim_without_review",
        "visual_reading": "Known positive remains low in fusion; inspect centering, visibility, vegetation and morphology proxy.",
        "name": "Castro",
        "municipality": "Dodro",
        "parish": "San Xoán de Laíño (San Xoán)",
        "country": "ES",
        "fusion_probability": "0.24506523",
        "fusion_rank": "1017",
        "max_safety_rank": "1396",
        "archetype_only_rank": "1478",
        "specialist_probability": "0.32755180",
        "specialist_rank": "731",
        "specialist_mean_rank": "869",
        "rank_delta_fusion_to_max": "-379",
        "negative_type": "",
        "morphology_proxy": "generic_castro_hint",
        "visual_sheet": "",
        "review_reason": "Weak positive ranked low on validation; inspect label noise, morphology and imagery quality."
      }
    },
    {
      "type": "Feature",
      "geometry": {
        "type": "Point",
        "coordinates": [
          -8.131303184393992,
          42.32573123250317
        ]
      },
      "properties": {
        "review_id": "err-review-0152",
        "sample_review_key": "wl-pos-pos-es-pba-46071",
        "duplicate_count": "1",
        "duplicate_queues": "val_low_rank_weak_positives",
        "review_priority": "P2",
        "queue": "val_low_rank_weak_positives",
        "priority_order": "31",
        "review_lane": "low_positive_review",
        "dataset": "val",
        "final_split": "val",
        "sample_id": "wl-pos-pos-es-pba-46071",
        "bank_id": "pos-es-pba-46071",
        "label_class": "1",
        "label_role": "positive",
        "suggested_taxonomy": "castro",
        "suggested_decision": "inspect_low_rank_known_positive",
        "boundary_action": "If visible, draw croa/muralla/recinto polygon; otherwise mark needs_followup.",
        "review_status": "pending",
        "review_notes": "",
        "final_taxonomy": "",
        "final_decision": "",
        "pretriage_order": "",
        "pretriage_group": "low_rank_positive",
        "pretriage_decision": "visibility_or_centroid_review",
        "pretriage_confidence": "low_pretriage_confidence",
        "training_use_after_review": "positive_candidate_after_boundary_review",
        "do_not_use_as": "new_discovery_claim_without_review",
        "visual_reading": "Known positive remains low in fusion; inspect centering, visibility, vegetation and morphology proxy.",
        "name": "Coto do Castro",
        "municipality": "Beade",
        "parish": "Beade (Santa María)",
        "country": "ES",
        "fusion_probability": "0.25803663",
        "fusion_rank": "991",
        "max_safety_rank": "1153",
        "archetype_only_rank": "803",
        "specialist_probability": "0.50892071",
        "specialist_rank": "473",
        "specialist_mean_rank": "643",
        "rank_delta_fusion_to_max": "-162",
        "negative_type": "",
        "morphology_proxy": "hilltop_hint",
        "visual_sheet": "",
        "review_reason": "Weak positive ranked low on validation; inspect label noise, morphology and imagery quality."
      }
    },
    {
      "type": "Feature",
      "geometry": {
        "type": "Point",
        "coordinates": [
          -8.72071779148683,
          42.719812282778975
        ]
      },
      "properties": {
        "review_id": "err-review-0153",
        "sample_review_key": "wl-pos-pos-es-pba-9496",
        "duplicate_count": "1",
        "duplicate_queues": "val_low_rank_weak_positives",
        "review_priority": "P2",
        "queue": "val_low_rank_weak_positives",
        "priority_order": "32",
        "review_lane": "low_positive_review",
        "dataset": "val",
        "final_split": "val",
        "sample_id": "wl-pos-pos-es-pba-9496",
        "bank_id": "pos-es-pba-9496",
        "label_class": "1",
        "label_role": "positive",
        "suggested_taxonomy": "castro",
        "suggested_decision": "inspect_low_rank_known_positive",
        "boundary_action": "If visible, draw croa/muralla/recinto polygon; otherwise mark needs_followup.",
        "review_status": "pending",
        "review_notes": "",
        "final_taxonomy": "",
        "final_decision": "",
        "pretriage_order": "",
        "pretriage_group": "low_rank_positive",
        "pretriage_decision": "visibility_or_centroid_review",
        "pretriage_confidence": "low_pretriage_confidence",
        "training_use_after_review": "positive_candidate_after_boundary_review",
        "do_not_use_as": "new_discovery_claim_without_review",
        "visual_reading": "Known positive remains low in fusion; inspect centering, visibility, vegetation and morphology proxy.",
        "name": "Conxunto de Castro",
        "municipality": "Dodro",
        "parish": "San Xoán de Laíño (San Xoán)",
        "country": "ES",
        "fusion_probability": "0.26378646",
        "fusion_rank": "978",
        "max_safety_rank": "1343",
        "archetype_only_rank": "1670",
        "specialist_probability": "0.34812548",
        "specialist_rank": "687",
        "specialist_mean_rank": "813",
        "rank_delta_fusion_to_max": "-365",
        "negative_type": "",
        "morphology_proxy": "generic_castro_hint",
        "visual_sheet": "",
        "review_reason": "Weak positive ranked low on validation; inspect label noise, morphology and imagery quality."
      }
    },
    {
      "type": "Feature",
      "geometry": {
        "type": "Point",
        "coordinates": [
          -7.10116369970316,
          42.17441422474813
        ]
      },
      "properties": {
        "review_id": "err-review-0154",
        "sample_review_key": "wl-pos-pos-es-pba-58797",
        "duplicate_count": "1",
        "duplicate_queues": "val_low_rank_weak_positives",
        "review_priority": "P2",
        "queue": "val_low_rank_weak_positives",
        "priority_order": "34",
        "review_lane": "low_positive_review",
        "dataset": "val",
        "final_split": "val",
        "sample_id": "wl-pos-pos-es-pba-58797",
        "bank_id": "pos-es-pba-58797",
        "label_class": "1",
        "label_role": "positive",
        "suggested_taxonomy": "castro",
        "suggested_decision": "inspect_low_rank_known_positive",
        "boundary_action": "If visible, draw croa/muralla/recinto polygon; otherwise mark needs_followup.",
        "review_status": "pending",
        "review_notes": "",
        "final_taxonomy": "",
        "final_decision": "",
        "pretriage_order": "",
        "pretriage_group": "low_rank_positive",
        "pretriage_decision": "visibility_or_centroid_review",
        "pretriage_confidence": "low_pretriage_confidence",
        "training_use_after_review": "positive_candidate_after_boundary_review",
        "do_not_use_as": "new_discovery_claim_without_review",
        "visual_reading": "Known positive remains low in fusion; inspect centering, visibility, vegetation and morphology proxy.",
        "name": "Castro do Castelo",
        "municipality": "Viana do Bolo",
        "parish": "Pinza (Santa María)",
        "country": "ES",
        "fusion_probability": "0.27633453",
        "fusion_rank": "933",
        "max_safety_rank": "1298",
        "archetype_only_rank": "1135",
        "specialist_probability": "0.25721317",
        "specialist_rank": "880",
        "specialist_mean_rank": "915",
        "rank_delta_fusion_to_max": "-365",
        "negative_type": "",
        "morphology_proxy": "generic_castro_hint",
        "visual_sheet": "",
        "review_reason": "Weak positive ranked low on validation; inspect label noise, morphology and imagery quality."
      }
    },
    {
      "type": "Feature",
      "geometry": {
        "type": "Point",
        "coordinates": [
          -7.077247456700112,
          43.105493302301895
        ]
      },
      "properties": {
        "review_id": "err-review-0155",
        "sample_review_key": "wl-pos-pos-es-pba-31176",
        "duplicate_count": "1",
        "duplicate_queues": "val_low_rank_weak_positives",
        "review_priority": "P2",
        "queue": "val_low_rank_weak_positives",
        "priority_order": "35",
        "review_lane": "low_positive_review",
        "dataset": "val",
        "final_split": "val",
        "sample_id": "wl-pos-pos-es-pba-31176",
        "bank_id": "pos-es-pba-31176",
        "label_class": "1",
        "label_role": "positive",
        "suggested_taxonomy": "castro",
        "suggested_decision": "inspect_low_rank_known_positive",
        "boundary_action": "If visible, draw croa/muralla/recinto polygon; otherwise mark needs_followup.",
        "review_status": "pending",
        "review_notes": "",
        "final_taxonomy": "",
        "final_decision": "",
        "pretriage_order": "",
        "pretriage_group": "low_rank_positive",
        "pretriage_decision": "visibility_or_centroid_review",
        "pretriage_confidence": "low_pretriage_confidence",
        "training_use_after_review": "positive_candidate_after_boundary_review",
        "do_not_use_as": "new_discovery_claim_without_review",
        "visual_reading": "Known positive remains low in fusion; inspect centering, visibility, vegetation and morphology proxy.",
        "name": "Capela de San Xoán Degolado en Castro",
        "municipality": "A Fonsagrada",
        "parish": "Cuíñas (San Cristovo)",
        "country": "ES",
        "fusion_probability": "0.28044059",
        "fusion_rank": "918",
        "max_safety_rank": "1280",
        "archetype_only_rank": "1322",
        "specialist_probability": "0.39835357",
        "specialist_rank": "601",
        "specialist_mean_rank": "724",
        "rank_delta_fusion_to_max": "-362",
        "negative_type": "",
        "morphology_proxy": "generic_castro_hint",
        "visual_sheet": "",
        "review_reason": "Weak positive ranked low on validation; inspect label noise, morphology and imagery quality."
      }
    },
    {
      "type": "Feature",
      "geometry": {
        "type": "Point",
        "coordinates": [
          -8.292134315507132,
          42.85166278030645
        ]
      },
      "properties": {
        "review_id": "err-review-0156",
        "sample_review_key": "wl-pos-pos-es-pba-25010",
        "duplicate_count": "1",
        "duplicate_queues": "val_low_rank_weak_positives",
        "review_priority": "P2",
        "queue": "val_low_rank_weak_positives",
        "priority_order": "36",
        "review_lane": "low_positive_review",
        "dataset": "val",
        "final_split": "val",
        "sample_id": "wl-pos-pos-es-pba-25010",
        "bank_id": "pos-es-pba-25010",
        "label_class": "1",
        "label_role": "positive",
        "suggested_taxonomy": "castro",
        "suggested_decision": "inspect_low_rank_known_positive",
        "boundary_action": "If visible, draw croa/muralla/recinto polygon; otherwise mark needs_followup.",
        "review_status": "pending",
        "review_notes": "",
        "final_taxonomy": "",
        "final_decision": "",
        "pretriage_order": "",
        "pretriage_group": "low_rank_positive",
        "pretriage_decision": "visibility_or_centroid_review",
        "pretriage_confidence": "low_pretriage_confidence",
        "training_use_after_review": "positive_candidate_after_boundary_review",
        "do_not_use_as": "new_discovery_claim_without_review",
        "visual_reading": "Known positive remains low in fusion; inspect centering, visibility, vegetation and morphology proxy.",
        "name": "Castro de Fao/A Croa do Castro",
        "municipality": "Touro",
        "parish": "Fao (Santa Uxía)",
        "country": "ES",
        "fusion_probability": "0.28607652",
        "fusion_rank": "904",
        "max_safety_rank": "1265",
        "archetype_only_rank": "1571",
        "specialist_probability": "0.14707308",
        "specialist_rank": "1208",
        "specialist_mean_rank": "1061",
        "rank_delta_fusion_to_max": "-361",
        "negative_type": "",
        "morphology_proxy": "croa_top_ring_hint",
        "visual_sheet": "",
        "review_reason": "Weak positive ranked low on validation; inspect label noise, morphology and imagery quality."
      }
    },
    {
      "type": "Feature",
      "geometry": {
        "type": "Point",
        "coordinates": [
          -7.7678187971804125,
          42.247867507663656
        ]
      },
      "properties": {
        "review_id": "err-review-0157",
        "sample_review_key": "wl-pos-pos-es-pba-54470",
        "duplicate_count": "1",
        "duplicate_queues": "val_low_rank_weak_positives",
        "review_priority": "P2",
        "queue": "val_low_rank_weak_positives",
        "priority_order": "38",
        "review_lane": "low_positive_review",
        "dataset": "val",
        "final_split": "val",
        "sample_id": "wl-pos-pos-es-pba-54470",
        "bank_id": "pos-es-pba-54470",
        "label_class": "1",
        "label_role": "positive",
        "suggested_taxonomy": "castro",
        "suggested_decision": "inspect_low_rank_known_positive",
        "boundary_action": "If visible, draw croa/muralla/recinto polygon; otherwise mark needs_followup.",
        "review_status": "pending",
        "review_notes": "",
        "final_taxonomy": "",
        "final_decision": "",
        "pretriage_order": "",
        "pretriage_group": "low_rank_positive",
        "pretriage_decision": "visibility_or_centroid_review",
        "pretriage_confidence": "low_pretriage_confidence",
        "training_use_after_review": "positive_candidate_after_boundary_review",
        "do_not_use_as": "new_discovery_claim_without_review",
        "visual_reading": "Known positive remains low in fusion; inspect centering, visibility, vegetation and morphology proxy.",
        "name": "Castro de San Vicente de Coucieiro",
        "municipality": "Paderne de Allariz",
        "parish": "Coucieiro (San Vicente)",
        "country": "ES",
        "fusion_probability": "0.29614857",
        "fusion_rank": "883",
        "max_safety_rank": "1227",
        "archetype_only_rank": "1105",
        "specialist_probability": "0.43858019",
        "specialist_rank": "541",
        "specialist_mean_rank": "671",
        "rank_delta_fusion_to_max": "-344",
        "negative_type": "",
        "morphology_proxy": "generic_castro_hint",
        "visual_sheet": "",
        "review_reason": "Weak positive ranked low on validation; inspect label noise, morphology and imagery quality."
      }
    },
    {
      "type": "Feature",
      "geometry": {
        "type": "Point",
        "coordinates": [
          -7.58788984405704,
          43.55460111284514
        ]
      },
      "properties": {
        "review_id": "err-review-0158",
        "sample_review_key": "wl-pos-pos-es-pba-35730",
        "duplicate_count": "1",
        "duplicate_queues": "val_low_rank_weak_positives",
        "review_priority": "P2",
        "queue": "val_low_rank_weak_positives",
        "priority_order": "39",
        "review_lane": "low_positive_review",
        "dataset": "val",
        "final_split": "val",
        "sample_id": "wl-pos-pos-es-pba-35730",
        "bank_id": "pos-es-pba-35730",
        "label_class": "1",
        "label_role": "positive",
        "suggested_taxonomy": "castro",
        "suggested_decision": "inspect_low_rank_known_positive",
        "boundary_action": "If visible, draw croa/muralla/recinto polygon; otherwise mark needs_followup.",
        "review_status": "pending",
        "review_notes": "",
        "final_taxonomy": "",
        "final_decision": "",
        "pretriage_order": "",
        "pretriage_group": "low_rank_positive",
        "pretriage_decision": "visibility_or_centroid_review",
        "pretriage_confidence": "low_pretriage_confidence",
        "training_use_after_review": "positive_candidate_after_boundary_review",
        "do_not_use_as": "new_discovery_claim_without_review",
        "visual_reading": "Known positive remains low in fusion; inspect centering, visibility, vegetation and morphology proxy.",
        "name": "Chao do Castro",
        "municipality": "Ourol",
        "parish": "Miñotos (San Pedro)",
        "country": "ES",
        "fusion_probability": "0.29660582",
        "fusion_rank": "880",
        "max_safety_rank": "1225",
        "archetype_only_rank": "1100",
        "specialist_probability": "0.24157695",
        "specialist_rank": "917",
        "specialist_mean_rank": "909",
        "rank_delta_fusion_to_max": "-345",
        "negative_type": "",
        "morphology_proxy": "generic_castro_hint",
        "visual_sheet": "",
        "review_reason": "Weak positive ranked low on validation; inspect label noise, morphology and imagery quality."
      }
    },
    {
      "type": "Feature",
      "geometry": {
        "type": "Point",
        "coordinates": [
          -7.55843068307333,
          43.14166617788986
        ]
      },
      "properties": {
        "review_id": "err-review-0159",
        "sample_review_key": "wl-pos-pos-es-pba-35866",
        "duplicate_count": "1",
        "duplicate_queues": "val_low_rank_weak_positives",
        "review_priority": "P2",
        "queue": "val_low_rank_weak_positives",
        "priority_order": "40",
        "review_lane": "low_positive_review",
        "dataset": "val",
        "final_split": "val",
        "sample_id": "wl-pos-pos-es-pba-35866",
        "bank_id": "pos-es-pba-35866",
        "label_class": "1",
        "label_role": "positive",
        "suggested_taxonomy": "castro",
        "suggested_decision": "inspect_low_rank_known_positive",
        "boundary_action": "If visible, draw croa/muralla/recinto polygon; otherwise mark needs_followup.",
        "review_status": "pending",
        "review_notes": "",
        "final_taxonomy": "",
        "final_decision": "",
        "pretriage_order": "",
        "pretriage_group": "low_rank_positive",
        "pretriage_decision": "visibility_or_centroid_review",
        "pretriage_confidence": "low_pretriage_confidence",
        "training_use_after_review": "positive_candidate_after_boundary_review",
        "do_not_use_as": "new_discovery_claim_without_review",
        "visual_reading": "Known positive remains low in fusion; inspect centering, visibility, vegetation and morphology proxy.",
        "name": "Os Castros/Tras Os Castros",
        "municipality": "Outeiro de Rei",
        "parish": "Castelo de Rei (San Salvador)",
        "country": "ES",
        "fusion_probability": "0.29772966",
        "fusion_rank": "876",
        "max_safety_rank": "1221",
        "archetype_only_rank": "1587",
        "specialist_probability": "0.16363305",
        "specialist_rank": "1154",
        "specialist_mean_rank": "1017",
        "rank_delta_fusion_to_max": "-345",
        "negative_type": "",
        "morphology_proxy": "generic_castro_hint",
        "visual_sheet": "",
        "review_reason": "Weak positive ranked low on validation; inspect label noise, morphology and imagery quality."
      }
    },
    {
      "type": "Feature",
      "geometry": {
        "type": "Point",
        "coordinates": [
          -8.37314680950039,
          43.34327889223413
        ]
      },
      "properties": {
        "review_id": "err-review-0160",
        "sample_review_key": "wl-pos-pos-es-pba-15426",
        "duplicate_count": "1",
        "duplicate_queues": "val_low_rank_weak_positives",
        "review_priority": "P2",
        "queue": "val_low_rank_weak_positives",
        "priority_order": "43",
        "review_lane": "low_positive_review",
        "dataset": "val",
        "final_split": "val",
        "sample_id": "wl-pos-pos-es-pba-15426",
        "bank_id": "pos-es-pba-15426",
        "label_class": "1",
        "label_role": "positive",
        "suggested_taxonomy": "castro",
        "suggested_decision": "inspect_low_rank_known_positive",
        "boundary_action": "If visible, draw croa/muralla/recinto polygon; otherwise mark needs_followup.",
        "review_status": "pending",
        "review_notes": "",
        "final_taxonomy": "",
        "final_decision": "",
        "pretriage_order": "",
        "pretriage_group": "low_rank_positive",
        "pretriage_decision": "visibility_or_centroid_review",
        "pretriage_confidence": "low_pretriage_confidence",
        "training_use_after_review": "positive_candidate_after_boundary_review",
        "do_not_use_as": "new_discovery_claim_without_review",
        "visual_reading": "Known positive remains low in fusion; inspect centering, visibility, vegetation and morphology proxy.",
        "name": "Castro de Santa Cristina/Castro de Perillo",
        "municipality": "Oleiros",
        "parish": "Perillo (Santa Locaia)",
        "country": "ES",
        "fusion_probability": "0.30296752",
        "fusion_rank": "863",
        "max_safety_rank": "1209",
        "archetype_only_rank": "1120",
        "specialist_probability": "0.11118346",
        "specialist_rank": "1356",
        "specialist_mean_rank": "1091",
        "rank_delta_fusion_to_max": "-346",
        "negative_type": "",
        "morphology_proxy": "generic_castro_hint",
        "visual_sheet": "",
        "review_reason": "Weak positive ranked low on validation; inspect label noise, morphology and imagery quality."
      }
    },
    {
      "type": "Feature",
      "geometry": {
        "type": "Point",
        "coordinates": [
          -7.7831353652966575,
          42.62972719004807
        ]
      },
      "properties": {
        "review_id": "err-review-0161",
        "sample_review_key": "wl-pos-pos-es-pba-29400",
        "duplicate_count": "1",
        "duplicate_queues": "val_low_rank_weak_positives",
        "review_priority": "P2",
        "queue": "val_low_rank_weak_positives",
        "priority_order": "44",
        "review_lane": "low_positive_review",
        "dataset": "val",
        "final_split": "val",
        "sample_id": "wl-pos-pos-es-pba-29400",
        "bank_id": "pos-es-pba-29400",
        "label_class": "1",
        "label_role": "positive",
        "suggested_taxonomy": "castro",
        "suggested_decision": "inspect_low_rank_known_positive",
        "boundary_action": "If visible, draw croa/muralla/recinto polygon; otherwise mark needs_followup.",
        "review_status": "pending",
        "review_notes": "",
        "final_taxonomy": "",
        "final_decision": "",
        "pretriage_order": "",
        "pretriage_group": "low_rank_positive",
        "pretriage_decision": "visibility_or_centroid_review",
        "pretriage_confidence": "low_pretriage_confidence",
        "training_use_after_review": "positive_candidate_after_boundary_review",
        "do_not_use_as": "new_discovery_claim_without_review",
        "visual_reading": "Known positive remains low in fusion; inspect centering, visibility, vegetation and morphology proxy.",
        "name": "Castro de Fornas de Abaixo",
        "municipality": "Chantada",
        "parish": "Fornas (San Cristovo)",
        "country": "ES",
        "fusion_probability": "0.30347730",
        "fusion_rank": "862",
        "max_safety_rank": "1206",
        "archetype_only_rank": "1786",
        "specialist_probability": "0.15695109",
        "specialist_rank": "1178",
        "specialist_mean_rank": "1018",
        "rank_delta_fusion_to_max": "-344",
        "negative_type": "",
        "morphology_proxy": "generic_castro_hint",
        "visual_sheet": "",
        "review_reason": "Weak positive ranked low on validation; inspect label noise, morphology and imagery quality."
      }
    },
    {
      "type": "Feature",
      "geometry": {
        "type": "Point",
        "coordinates": [
          -8.420101521238182,
          43.01045645925417
        ]
      },
      "properties": {
        "review_id": "err-review-0162",
        "sample_review_key": "wl-pos-pos-es-pba-15716",
        "duplicate_count": "1",
        "duplicate_queues": "val_low_rank_weak_positives",
        "review_priority": "P2",
        "queue": "val_low_rank_weak_positives",
        "priority_order": "48",
        "review_lane": "low_positive_review",
        "dataset": "val",
        "final_split": "val",
        "sample_id": "wl-pos-pos-es-pba-15716",
        "bank_id": "pos-es-pba-15716",
        "label_class": "1",
        "label_role": "positive",
        "suggested_taxonomy": "castro",
        "suggested_decision": "inspect_low_rank_known_positive",
        "boundary_action": "If visible, draw croa/muralla/recinto polygon; otherwise mark needs_followup.",
        "review_status": "pending",
        "review_notes": "",
        "final_taxonomy": "",
        "final_decision": "",
        "pretriage_order": "",
        "pretriage_group": "low_rank_positive",
        "pretriage_decision": "visibility_or_centroid_review",
        "pretriage_confidence": "low_pretriage_confidence",
        "training_use_after_review": "positive_candidate_after_boundary_review",
        "do_not_use_as": "new_discovery_claim_without_review",
        "visual_reading": "Known positive remains low in fusion; inspect centering, visibility, vegetation and morphology proxy.",
        "name": "O Castro/A Santiña/O Castro de Deixebre",
        "municipality": "Oroso",
        "parish": "Deixebre (Santa María)",
        "country": "ES",
        "fusion_probability": "0.31310376",
        "fusion_rank": "820",
        "max_safety_rank": "1166",
        "archetype_only_rank": "1755",
        "specialist_probability": "0.13096398",
        "specialist_rank": "1269",
        "specialist_mean_rank": "1045",
        "rank_delta_fusion_to_max": "-346",
        "negative_type": "",
        "morphology_proxy": "generic_castro_hint",
        "visual_sheet": "",
        "review_reason": "Weak positive ranked low on validation; inspect label noise, morphology and imagery quality."
      }
    },
    {
      "type": "Feature",
      "geometry": {
        "type": "Point",
        "coordinates": [
          -8.72197639325666,
          42.71967125636917
        ]
      },
      "properties": {
        "review_id": "err-review-0163",
        "sample_review_key": "wl-pos-pos-es-pba-9469",
        "duplicate_count": "1",
        "duplicate_queues": "val_low_rank_weak_positives",
        "review_priority": "P2",
        "queue": "val_low_rank_weak_positives",
        "priority_order": "49",
        "review_lane": "low_positive_review",
        "dataset": "val",
        "final_split": "val",
        "sample_id": "wl-pos-pos-es-pba-9469",
        "bank_id": "pos-es-pba-9469",
        "label_class": "1",
        "label_role": "positive",
        "suggested_taxonomy": "castro",
        "suggested_decision": "inspect_low_rank_known_positive",
        "boundary_action": "If visible, draw croa/muralla/recinto polygon; otherwise mark needs_followup.",
        "review_status": "pending",
        "review_notes": "",
        "final_taxonomy": "",
        "final_decision": "",
        "pretriage_order": "",
        "pretriage_group": "low_rank_positive",
        "pretriage_decision": "visibility_or_centroid_review",
        "pretriage_confidence": "low_pretriage_confidence",
        "training_use_after_review": "positive_candidate_after_boundary_review",
        "do_not_use_as": "new_discovery_claim_without_review",
        "visual_reading": "Known positive remains low in fusion; inspect centering, visibility, vegetation and morphology proxy.",
        "name": "Pombal cadrado en Castro",
        "municipality": "Dodro",
        "parish": "San Xoán de Laíño (San Xoán)",
        "country": "ES",
        "fusion_probability": "0.32147001",
        "fusion_rank": "799",
        "max_safety_rank": "1135",
        "archetype_only_rank": "1190",
        "specialist_probability": "0.46221615",
        "specialist_rank": "521",
        "specialist_mean_rank": "625",
        "rank_delta_fusion_to_max": "-336",
        "negative_type": "",
        "morphology_proxy": "generic_castro_hint",
        "visual_sheet": "",
        "review_reason": "Weak positive ranked low on validation; inspect label noise, morphology and imagery quality."
      }
    }
  ]
}
