{
  "type": "FeatureCollection",
  "features": [
    {
      "type": "Feature",
      "geometry": {
        "type": "Point",
        "coordinates": [
          -8.288881663066935,
          43.51388427158965
        ]
      },
      "properties": {
        "review_id": "err-review-0143",
        "sample_review_key": "wl-neg-neg-es-pba-9853",
        "duplicate_count": "1",
        "duplicate_queues": "holdout_top_false_positives",
        "review_priority": "P1",
        "queue": "holdout_top_false_positives",
        "priority_order": "19",
        "review_lane": "weak_negative_review",
        "dataset": "holdouts",
        "final_split": "test_trasancos",
        "sample_id": "wl-neg-neg-es-pba-9853",
        "bank_id": "neg-es-pba-9853",
        "label_class": "0",
        "label_role": "hard_negative",
        "suggested_taxonomy": "petroglifo",
        "suggested_decision": "inspect_weak_negative_no_absence_claim",
        "boundary_action": "Confirm non-castro archaeological class; keep separate from generic negatives.",
        "review_status": "pending",
        "final_taxonomy": "",
        "final_decision": "",
        "name": "Petróglifo do coto de San Xurxo",
        "municipality": "Ferrol",
        "parish": "San Xurxo da Mariña (San Xurxo)",
        "country": "ES",
        "fusion_probability": "0.35525190",
        "fusion_rank": "73",
        "max_safety_rank": "88",
        "archetype_only_rank": "92",
        "specialist_probability": "0.29364221",
        "specialist_rank": "91",
        "specialist_mean_rank": "81",
        "rank_delta_fusion_to_max": "-15",
        "negative_type": "rock_art_surface",
        "morphology_proxy": "",
        "visual_sheet": "reports/figures/weak_label_error_review_v1/holdout-top-false-positives.png",
        "review_reason": "Known hard negative ranked high by the main fusion model; inspect as false-positive pattern.",
        "review_notes": ""
      }
    },
    {
      "type": "Feature",
      "geometry": {
        "type": "Point",
        "coordinates": [
          -7.649716659791161,
          43.73979523101907
        ]
      },
      "properties": {
        "review_id": "err-review-0203",
        "sample_review_key": "wl-neg-neg-es-pba-43202",
        "duplicate_count": "1",
        "duplicate_queues": "val_top_weak_negatives",
        "review_priority": "P2",
        "queue": "val_top_weak_negatives",
        "priority_order": "1",
        "review_lane": "weak_negative_review",
        "dataset": "val",
        "final_split": "val",
        "sample_id": "wl-neg-neg-es-pba-43202",
        "bank_id": "neg-es-pba-43202",
        "label_class": "0",
        "label_role": "hard_negative",
        "suggested_taxonomy": "fortificacion_historica",
        "suggested_decision": "inspect_weak_negative_no_absence_claim",
        "boundary_action": "Confirm non-castro archaeological class; keep separate from generic negatives.",
        "review_status": "pending",
        "final_taxonomy": "",
        "final_decision": "",
        "name": "O Castelo",
        "municipality": "O Vicedo",
        "parish": "San Román de Vale (San Román)",
        "country": "ES",
        "fusion_probability": "0.95035334",
        "fusion_rank": "43",
        "max_safety_rank": "90",
        "archetype_only_rank": "110",
        "specialist_probability": "0.99091364",
        "specialist_rank": "49",
        "specialist_mean_rank": "39",
        "rank_delta_fusion_to_max": "-47",
        "negative_type": "historic_fortification",
        "morphology_proxy": "",
        "visual_sheet": "reports/figures/weak_label_error_review_v1/val-top-weak-negatives.png",
        "review_reason": "Weak-label negative ranked high on validation; inspect before treating it as true absence.",
        "review_notes": ""
      }
    },
    {
      "type": "Feature",
      "geometry": {
        "type": "Point",
        "coordinates": [
          -7.744165519059862,
          42.66039310678573
        ]
      },
      "properties": {
        "review_id": "err-review-0204",
        "sample_review_key": "wl-neg-neg-es-pba-29293",
        "duplicate_count": "1",
        "duplicate_queues": "val_top_weak_negatives",
        "review_priority": "P2",
        "queue": "val_top_weak_negatives",
        "priority_order": "4",
        "review_lane": "weak_negative_review",
        "dataset": "val",
        "final_split": "val",
        "sample_id": "wl-neg-neg-es-pba-29293",
        "bank_id": "neg-es-pba-29293",
        "label_class": "0",
        "label_role": "hard_negative",
        "suggested_taxonomy": "fortificacion_historica",
        "suggested_decision": "inspect_weak_negative_no_absence_claim",
        "boundary_action": "Confirm non-castro archaeological class; keep separate from generic negatives.",
        "review_status": "pending",
        "final_taxonomy": "",
        "final_decision": "",
        "name": "O Castelo",
        "municipality": "Chantada",
        "parish": "Pedrafita (Santa Baia)",
        "country": "ES",
        "fusion_probability": "0.92009952",
        "fusion_rank": "64",
        "max_safety_rank": "131",
        "archetype_only_rank": "236",
        "specialist_probability": "0.99697517",
        "specialist_rank": "33",
        "specialist_mean_rank": "53",
        "rank_delta_fusion_to_max": "-67",
        "negative_type": "historic_fortification",
        "morphology_proxy": "",
        "visual_sheet": "reports/figures/weak_label_error_review_v1/val-top-weak-negatives.png",
        "review_reason": "Weak-label negative ranked high on validation; inspect before treating it as true absence.",
        "review_notes": ""
      }
    },
    {
      "type": "Feature",
      "geometry": {
        "type": "Point",
        "coordinates": [
          -8.81471825153696,
          42.47067040256831
        ]
      },
      "properties": {
        "review_id": "err-review-0205",
        "sample_review_key": "wl-neg-neg-es-pba-61897",
        "duplicate_count": "1",
        "duplicate_queues": "val_top_weak_negatives",
        "review_priority": "P2",
        "queue": "val_top_weak_negatives",
        "priority_order": "5",
        "review_lane": "weak_negative_review",
        "dataset": "val",
        "final_split": "val",
        "sample_id": "wl-neg-neg-es-pba-61897",
        "bank_id": "neg-es-pba-61897",
        "label_class": "0",
        "label_role": "hard_negative",
        "suggested_taxonomy": "petroglifo",
        "suggested_decision": "inspect_weak_negative_no_absence_claim",
        "boundary_action": "Confirm non-castro archaeological class; keep separate from generic negatives.",
        "review_status": "pending",
        "final_taxonomy": "",
        "final_decision": "",
        "name": "Petróglifo do Monte Castelo",
        "municipality": "Cambados",
        "parish": "Castrelo (Santa Cruz)",
        "country": "ES",
        "fusion_probability": "0.86993465",
        "fusion_rank": "98",
        "max_safety_rank": "156",
        "archetype_only_rank": "125",
        "specialist_probability": "0.90418206",
        "specialist_rank": "176",
        "specialist_mean_rank": "128",
        "rank_delta_fusion_to_max": "-58",
        "negative_type": "rock_art_surface",
        "morphology_proxy": "",
        "visual_sheet": "reports/figures/weak_label_error_review_v1/val-top-weak-negatives.png",
        "review_reason": "Weak-label negative ranked high on validation; inspect before treating it as true absence.",
        "review_notes": ""
      }
    },
    {
      "type": "Feature",
      "geometry": {
        "type": "Point",
        "coordinates": [
          -6.875323294454912,
          42.85556027213712
        ]
      },
      "properties": {
        "review_id": "err-review-0206",
        "sample_review_key": "wl-neg-neg-es-pba-29823",
        "duplicate_count": "1",
        "duplicate_queues": "val_top_weak_negatives",
        "review_priority": "P2",
        "queue": "val_top_weak_negatives",
        "priority_order": "12",
        "review_lane": "weak_negative_review",
        "dataset": "val",
        "final_split": "val",
        "sample_id": "wl-neg-neg-es-pba-29823",
        "bank_id": "neg-es-pba-29823",
        "label_class": "0",
        "label_role": "hard_negative",
        "suggested_taxonomy": "petroglifo",
        "suggested_decision": "inspect_weak_negative_no_absence_claim",
        "boundary_action": "Confirm non-castro archaeological class; keep separate from generic negatives.",
        "review_status": "pending",
        "final_taxonomy": "",
        "final_decision": "",
        "name": "Petróglifo do Piornedo",
        "municipality": "Cervantes",
        "parish": "Donís (San Fiz)",
        "country": "ES",
        "fusion_probability": "0.78691695",
        "fusion_rank": "161",
        "max_safety_rank": "271",
        "archetype_only_rank": "321",
        "specialist_probability": "0.98700966",
        "specialist_rank": "60",
        "specialist_mean_rank": "129",
        "rank_delta_fusion_to_max": "-110",
        "negative_type": "rock_art_surface",
        "morphology_proxy": "",
        "visual_sheet": "reports/figures/weak_label_error_review_v1/val-top-weak-negatives.png",
        "review_reason": "Weak-label negative ranked high on validation; inspect before treating it as true absence.",
        "review_notes": ""
      }
    },
    {
      "type": "Feature",
      "geometry": {
        "type": "Point",
        "coordinates": [
          -8.781004818344071,
          42.524376037427814
        ]
      },
      "properties": {
        "review_id": "err-review-0207",
        "sample_review_key": "wl-neg-neg-es-pba-61896",
        "duplicate_count": "1",
        "duplicate_queues": "val_top_weak_negatives",
        "review_priority": "P2",
        "queue": "val_top_weak_negatives",
        "priority_order": "13",
        "review_lane": "weak_negative_review",
        "dataset": "val",
        "final_split": "val",
        "sample_id": "wl-neg-neg-es-pba-61896",
        "bank_id": "neg-es-pba-61896",
        "label_class": "0",
        "label_role": "hard_negative",
        "suggested_taxonomy": "petroglifo",
        "suggested_decision": "inspect_weak_negative_no_absence_claim",
        "boundary_action": "Confirm non-castro archaeological class; keep separate from generic negatives.",
        "review_status": "pending",
        "final_taxonomy": "",
        "final_decision": "",
        "name": "Petróglifo do Con das Sete Pías",
        "municipality": "Cambados",
        "parish": "Oubiña (San Vicenzo)",
        "country": "ES",
        "fusion_probability": "0.78433788",
        "fusion_rank": "163",
        "max_safety_rank": "107",
        "archetype_only_rank": "86",
        "specialist_probability": "0.96567665",
        "specialist_rank": "108",
        "specialist_mean_rank": "137",
        "rank_delta_fusion_to_max": "56",
        "negative_type": "rock_art_surface",
        "morphology_proxy": "",
        "visual_sheet": "",
        "review_reason": "Weak-label negative ranked high on validation; inspect before treating it as true absence.",
        "review_notes": ""
      }
    },
    {
      "type": "Feature",
      "geometry": {
        "type": "Point",
        "coordinates": [
          -8.566589202207755,
          42.7397757840612
        ]
      },
      "properties": {
        "review_id": "err-review-0208",
        "sample_review_key": "wl-neg-neg-es-pba-64194",
        "duplicate_count": "1",
        "duplicate_queues": "val_top_weak_negatives",
        "review_priority": "P2",
        "queue": "val_top_weak_negatives",
        "priority_order": "21",
        "review_lane": "weak_negative_review",
        "dataset": "val",
        "final_split": "val",
        "sample_id": "wl-neg-neg-es-pba-64194",
        "bank_id": "neg-es-pba-64194",
        "label_class": "0",
        "label_role": "hard_negative",
        "suggested_taxonomy": "petroglifo",
        "suggested_decision": "inspect_weak_negative_no_absence_claim",
        "boundary_action": "Confirm non-castro archaeological class; keep separate from generic negatives.",
        "review_status": "pending",
        "final_taxonomy": "",
        "final_decision": "",
        "name": "Petróglifos da Quenlla dos Castiñeiros",
        "municipality": "A Estrada",
        "parish": "San Miguel de Barcala (San Miguel)",
        "country": "ES",
        "fusion_probability": "0.75138984",
        "fusion_rank": "185",
        "max_safety_rank": "302",
        "archetype_only_rank": "417",
        "specialist_probability": "0.92074188",
        "specialist_rank": "159",
        "specialist_mean_rank": "167",
        "rank_delta_fusion_to_max": "-117",
        "negative_type": "rock_art_surface",
        "morphology_proxy": "",
        "visual_sheet": "",
        "review_reason": "Weak-label negative ranked high on validation; inspect before treating it as true absence.",
        "review_notes": ""
      }
    },
    {
      "type": "Feature",
      "geometry": {
        "type": "Point",
        "coordinates": [
          -7.585296375774332,
          43.57672543262465
        ]
      },
      "properties": {
        "review_id": "err-review-0209",
        "sample_review_key": "wl-neg-neg-es-pba-35700",
        "duplicate_count": "1",
        "duplicate_queues": "val_top_weak_negatives",
        "review_priority": "P2",
        "queue": "val_top_weak_negatives",
        "priority_order": "22",
        "review_lane": "weak_negative_review",
        "dataset": "val",
        "final_split": "val",
        "sample_id": "wl-neg-neg-es-pba-35700",
        "bank_id": "neg-es-pba-35700",
        "label_class": "0",
        "label_role": "hard_negative",
        "suggested_taxonomy": "fortificacion_historica",
        "suggested_decision": "inspect_weak_negative_no_absence_claim",
        "boundary_action": "Confirm non-castro archaeological class; keep separate from generic negatives.",
        "review_status": "pending",
        "final_taxonomy": "",
        "final_decision": "",
        "name": "Castelo",
        "municipality": "Ourol",
        "parish": "Miñotos (San Pedro)",
        "country": "ES",
        "fusion_probability": "0.73981654",
        "fusion_rank": "190",
        "max_safety_rank": "170",
        "archetype_only_rank": "135",
        "specialist_probability": "0.93743203",
        "specialist_rank": "137",
        "specialist_mean_rank": "165",
        "rank_delta_fusion_to_max": "20",
        "negative_type": "historic_fortification",
        "morphology_proxy": "",
        "visual_sheet": "",
        "review_reason": "Weak-label negative ranked high on validation; inspect before treating it as true absence.",
        "review_notes": ""
      }
    },
    {
      "type": "Feature",
      "geometry": {
        "type": "Point",
        "coordinates": [
          -8.757292803906585,
          42.73678192839669
        ]
      },
      "properties": {
        "review_id": "err-review-0210",
        "sample_review_key": "wl-neg-neg-es-pba-9465",
        "duplicate_count": "1",
        "duplicate_queues": "val_top_weak_negatives",
        "review_priority": "P2",
        "queue": "val_top_weak_negatives",
        "priority_order": "30",
        "review_lane": "weak_negative_review",
        "dataset": "val",
        "final_split": "val",
        "sample_id": "wl-neg-neg-es-pba-9465",
        "bank_id": "neg-es-pba-9465",
        "label_class": "0",
        "label_role": "hard_negative",
        "suggested_taxonomy": "petroglifo",
        "suggested_decision": "inspect_weak_negative_no_absence_claim",
        "boundary_action": "Confirm non-castro archaeological class; keep separate from generic negatives.",
        "review_status": "pending",
        "final_taxonomy": "",
        "final_decision": "",
        "name": "Petróglifo de Lomba das Pozas 2",
        "municipality": "Dodro",
        "parish": "San Xoán de Laíño (San Xoán)",
        "country": "ES",
        "fusion_probability": "0.70920107",
        "fusion_rank": "217",
        "max_safety_rank": "347",
        "archetype_only_rank": "635",
        "specialist_probability": "0.67407656",
        "specialist_rank": "326",
        "specialist_mean_rank": "263",
        "rank_delta_fusion_to_max": "-130",
        "negative_type": "rock_art_surface",
        "morphology_proxy": "",
        "visual_sheet": "",
        "review_reason": "Weak-label negative ranked high on validation; inspect before treating it as true absence.",
        "review_notes": ""
      }
    },
    {
      "type": "Feature",
      "geometry": {
        "type": "Point",
        "coordinates": [
          -8.27812291767691,
          42.26108218098405
        ]
      },
      "properties": {
        "review_id": "err-review-0211",
        "sample_review_key": "wl-neg-neg-es-pba-63098",
        "duplicate_count": "1",
        "duplicate_queues": "val_top_weak_negatives",
        "review_priority": "P2",
        "queue": "val_top_weak_negatives",
        "priority_order": "32",
        "review_lane": "weak_negative_review",
        "dataset": "val",
        "final_split": "val",
        "sample_id": "wl-neg-neg-es-pba-63098",
        "bank_id": "neg-es-pba-63098",
        "label_class": "0",
        "label_role": "hard_negative",
        "suggested_taxonomy": "petroglifo",
        "suggested_decision": "inspect_weak_negative_no_absence_claim",
        "boundary_action": "Confirm non-castro archaeological class; keep separate from generic negatives.",
        "review_status": "pending",
        "final_taxonomy": "",
        "final_decision": "",
        "name": "Petróglifo do Outeiro das Cruces",
        "municipality": "A Cañiza",
        "parish": "Petán (San Xián)",
        "country": "ES",
        "fusion_probability": "0.70001865",
        "fusion_rank": "221",
        "max_safety_rank": "355",
        "archetype_only_rank": "345",
        "specialist_probability": "0.89747782",
        "specialist_rank": "185",
        "specialist_mean_rank": "194",
        "rank_delta_fusion_to_max": "-134",
        "negative_type": "rock_art_surface",
        "morphology_proxy": "",
        "visual_sheet": "",
        "review_reason": "Weak-label negative ranked high on validation; inspect before treating it as true absence.",
        "review_notes": ""
      }
    },
    {
      "type": "Feature",
      "geometry": {
        "type": "Point",
        "coordinates": [
          -8.207254928279895,
          42.24221909970552
        ]
      },
      "properties": {
        "review_id": "err-review-0212",
        "sample_review_key": "wl-neg-neg-es-pba-65072",
        "duplicate_count": "1",
        "duplicate_queues": "val_top_weak_negatives",
        "review_priority": "P2",
        "queue": "val_top_weak_negatives",
        "priority_order": "43",
        "review_lane": "weak_negative_review",
        "dataset": "val",
        "final_split": "val",
        "sample_id": "wl-neg-neg-es-pba-65072",
        "bank_id": "neg-es-pba-65072",
        "label_class": "0",
        "label_role": "hard_negative",
        "suggested_taxonomy": "petroglifo",
        "suggested_decision": "inspect_weak_negative_no_absence_claim",
        "boundary_action": "Confirm non-castro archaeological class; keep separate from generic negatives.",
        "review_status": "pending",
        "final_taxonomy": "",
        "final_decision": "",
        "name": "Petróglifo de Chan de Moeiras",
        "municipality": "Crecente",
        "parish": "Filgueira (San Pedro)",
        "country": "ES",
        "fusion_probability": "0.67071212",
        "fusion_rank": "245",
        "max_safety_rank": "294",
        "archetype_only_rank": "237",
        "specialist_probability": "0.79132685",
        "specialist_rank": "251",
        "specialist_mean_rank": "242",
        "rank_delta_fusion_to_max": "-49",
        "negative_type": "rock_art_surface",
        "morphology_proxy": "",
        "visual_sheet": "",
        "review_reason": "Weak-label negative ranked high on validation; inspect before treating it as true absence.",
        "review_notes": ""
      }
    },
    {
      "type": "Feature",
      "geometry": {
        "type": "Point",
        "coordinates": [
          -7.135345166845082,
          43.17117388616058
        ]
      },
      "properties": {
        "review_id": "err-review-0213",
        "sample_review_key": "wl-neg-neg-es-pba-31073",
        "duplicate_count": "1",
        "duplicate_queues": "val_top_weak_negatives",
        "review_priority": "P2",
        "queue": "val_top_weak_negatives",
        "priority_order": "50",
        "review_lane": "weak_negative_review",
        "dataset": "val",
        "final_split": "val",
        "sample_id": "wl-neg-neg-es-pba-31073",
        "bank_id": "neg-es-pba-31073",
        "label_class": "0",
        "label_role": "hard_negative",
        "suggested_taxonomy": "fortificacion_historica",
        "suggested_decision": "inspect_weak_negative_no_absence_claim",
        "boundary_action": "Confirm non-castro archaeological class; keep separate from generic negatives.",
        "review_status": "pending",
        "final_taxonomy": "",
        "final_decision": "",
        "name": "O Castelo/Castelo de Castañoso",
        "municipality": "A Fonsagrada",
        "parish": "Maderne (San Pedro)",
        "country": "ES",
        "fusion_probability": "0.65819049",
        "fusion_rank": "258",
        "max_safety_rank": "9",
        "archetype_only_rank": "9",
        "specialist_probability": "0.99782375",
        "specialist_rank": "28",
        "specialist_mean_rank": "175",
        "rank_delta_fusion_to_max": "249",
        "negative_type": "historic_fortification",
        "morphology_proxy": "",
        "visual_sheet": "",
        "review_reason": "Weak-label negative ranked high on validation; inspect before treating it as true absence.",
        "review_notes": ""
      }
    }
  ]
}
