{
  "type": "FeatureCollection",
  "features": [
    {
      "type": "Feature",
      "geometry": {
        "type": "Point",
        "coordinates": [
          -8.132051265443264,
          43.4784901008791
        ]
      },
      "properties": {
        "review_id": "err-review-0001",
        "sample_review_key": "wl-neg-neg-es-pba-8682",
        "duplicate_count": "1",
        "duplicate_queues": "holdout_top_false_positives",
        "review_priority": "P0",
        "queue": "holdout_top_false_positives",
        "priority_order": "1",
        "review_lane": "mamoa_false_positive_review",
        "dataset": "holdouts",
        "final_split": "test_trasancos",
        "sample_id": "wl-neg-neg-es-pba-8682",
        "bank_id": "neg-es-pba-8682",
        "label_class": "0",
        "label_role": "hard_negative",
        "suggested_taxonomy": "mamoa",
        "suggested_decision": "confirm_non_castro_archaeological_hard_negative",
        "boundary_action": "Confirm mound/non-castro; do not treat as generic absence.",
        "review_status": "pending",
        "review_notes": "",
        "final_taxonomy": "",
        "final_decision": "",
        "pretriage_order": "10",
        "pretriage_group": "mamoa_archaeological_hard_negative",
        "pretriage_decision": "confirm_mamoa_specific_hard_negative",
        "pretriage_confidence": "high_taxonomy_medium_confusion",
        "training_use_after_review": "archaeological_hard_negative_not_generic_absence",
        "do_not_use_as": "generic_absence",
        "visual_reading": "Contact sheets show castro-like circular/anular relief distractors; confirm taxonomy and keep as specific archaeological hard negatives.",
        "name": "Mámoa do Monte Marraxón IV-1",
        "municipality": "Fene",
        "parish": "Sillobre (Santa Mariña)",
        "country": "ES",
        "fusion_probability": "0.63027339",
        "fusion_rank": "34",
        "max_safety_rank": "37",
        "archetype_only_rank": "34",
        "specialist_probability": "0.59351267",
        "specialist_rank": "47",
        "specialist_mean_rank": "40",
        "rank_delta_fusion_to_max": "-3",
        "negative_type": "megalithic_mound",
        "morphology_proxy": "",
        "visual_sheet": "reports/figures/weak_label_error_review_v1/holdout-top-false-positives.png",
        "review_reason": "Known hard negative ranked high by the main fusion model; inspect as false-positive pattern."
      }
    },
    {
      "type": "Feature",
      "geometry": {
        "type": "Point",
        "coordinates": [
          -8.175129668390355,
          43.450897497780126
        ]
      },
      "properties": {
        "review_id": "err-review-0002",
        "sample_review_key": "wl-neg-neg-es-pba-8715",
        "duplicate_count": "1",
        "duplicate_queues": "holdout_top_false_positives",
        "review_priority": "P0",
        "queue": "holdout_top_false_positives",
        "priority_order": "2",
        "review_lane": "mamoa_false_positive_review",
        "dataset": "holdouts",
        "final_split": "test_trasancos",
        "sample_id": "wl-neg-neg-es-pba-8715",
        "bank_id": "neg-es-pba-8715",
        "label_class": "0",
        "label_role": "hard_negative",
        "suggested_taxonomy": "mamoa",
        "suggested_decision": "confirm_non_castro_archaeological_hard_negative",
        "boundary_action": "Confirm mound/non-castro; do not treat as generic absence.",
        "review_status": "pending",
        "review_notes": "",
        "final_taxonomy": "",
        "final_decision": "",
        "pretriage_order": "8",
        "pretriage_group": "mamoa_strong_model_confuser",
        "pretriage_decision": "confirm_mamoa_specific_hard_negative",
        "pretriage_confidence": "high_taxonomy_high_confusion",
        "training_use_after_review": "archaeological_hard_negative_not_generic_absence",
        "do_not_use_as": "generic_absence",
        "visual_reading": "Contact sheets show castro-like circular/anular relief distractors; confirm taxonomy and keep as specific archaeological hard negatives.",
        "name": "Mámoa do Rego da Moa",
        "municipality": "Fene",
        "parish": "Barallobre (Santiago)",
        "country": "ES",
        "fusion_probability": "0.61573051",
        "fusion_rank": "35",
        "max_safety_rank": "24",
        "archetype_only_rank": "12",
        "specialist_probability": "0.95558477",
        "specialist_rank": "18",
        "specialist_mean_rank": "27",
        "rank_delta_fusion_to_max": "11",
        "negative_type": "megalithic_mound",
        "morphology_proxy": "",
        "visual_sheet": "reports/figures/weak_label_error_review_v1/holdout-top-false-positives.png",
        "review_reason": "Known hard negative ranked high by the main fusion model; inspect as false-positive pattern."
      }
    },
    {
      "type": "Feature",
      "geometry": {
        "type": "Point",
        "coordinates": [
          -8.20129105753339,
          43.572014263769375
        ]
      },
      "properties": {
        "review_id": "err-review-0003",
        "sample_review_key": "wl-neg-neg-es-pba-24849",
        "duplicate_count": "1",
        "duplicate_queues": "holdout_top_false_positives",
        "review_priority": "P0",
        "queue": "holdout_top_false_positives",
        "priority_order": "3",
        "review_lane": "mamoa_false_positive_review",
        "dataset": "holdouts",
        "final_split": "test_trasancos",
        "sample_id": "wl-neg-neg-es-pba-24849",
        "bank_id": "neg-es-pba-24849",
        "label_class": "0",
        "label_role": "hard_negative",
        "suggested_taxonomy": "mamoa",
        "suggested_decision": "confirm_non_castro_archaeological_hard_negative",
        "boundary_action": "Confirm mound/non-castro; do not treat as generic absence.",
        "review_status": "pending",
        "review_notes": "",
        "final_taxonomy": "",
        "final_decision": "",
        "pretriage_order": "15",
        "pretriage_group": "mamoa_archaeological_hard_negative",
        "pretriage_decision": "confirm_mamoa_specific_hard_negative",
        "pretriage_confidence": "high_taxonomy_medium_confusion",
        "training_use_after_review": "archaeological_hard_negative_not_generic_absence",
        "do_not_use_as": "generic_absence",
        "visual_reading": "Contact sheets show castro-like circular/anular relief distractors; confirm taxonomy and keep as specific archaeological hard negatives.",
        "name": "Mámoa de Rioboo 1/Mámoa de Canteiros 1",
        "municipality": "Valdoviño",
        "parish": "Meirás (San Vicente)",
        "country": "ES",
        "fusion_probability": "0.57929205",
        "fusion_rank": "37",
        "max_safety_rank": "41",
        "archetype_only_rank": "112",
        "specialist_probability": "0.51304754",
        "specialist_rank": "59",
        "specialist_mean_rank": "49",
        "rank_delta_fusion_to_max": "-4",
        "negative_type": "megalithic_mound",
        "morphology_proxy": "",
        "visual_sheet": "reports/figures/weak_label_error_review_v1/holdout-top-false-positives.png",
        "review_reason": "Known hard negative ranked high by the main fusion model; inspect as false-positive pattern."
      }
    },
    {
      "type": "Feature",
      "geometry": {
        "type": "Point",
        "coordinates": [
          -8.123356750541028,
          43.56133110666142
        ]
      },
      "properties": {
        "review_id": "err-review-0004",
        "sample_review_key": "wl-neg-neg-es-pba-14259",
        "duplicate_count": "1",
        "duplicate_queues": "holdout_top_false_positives",
        "review_priority": "P0",
        "queue": "holdout_top_false_positives",
        "priority_order": "4",
        "review_lane": "mamoa_false_positive_review",
        "dataset": "holdouts",
        "final_split": "test_trasancos",
        "sample_id": "wl-neg-neg-es-pba-14259",
        "bank_id": "neg-es-pba-14259",
        "label_class": "0",
        "label_role": "hard_negative",
        "suggested_taxonomy": "mamoa",
        "suggested_decision": "confirm_non_castro_archaeological_hard_negative",
        "boundary_action": "Confirm mound/non-castro; do not treat as generic absence.",
        "review_status": "pending",
        "review_notes": "",
        "final_taxonomy": "",
        "final_decision": "",
        "pretriage_order": "13",
        "pretriage_group": "mamoa_archaeological_hard_negative",
        "pretriage_decision": "confirm_mamoa_specific_hard_negative",
        "pretriage_confidence": "high_taxonomy_medium_confusion",
        "training_use_after_review": "archaeological_hard_negative_not_generic_absence",
        "do_not_use_as": "generic_absence",
        "visual_reading": "Contact sheets show castro-like circular/anular relief distractors; confirm taxonomy and keep as specific archaeological hard negatives.",
        "name": "Mámoa do Monte dos Niños 05",
        "municipality": "Narón",
        "parish": "Sedes (Santo Estevo)",
        "country": "ES",
        "fusion_probability": "0.57631836",
        "fusion_rank": "38",
        "max_safety_rank": "42",
        "archetype_only_rank": "58",
        "specialist_probability": "0.53494045",
        "specialist_rank": "55",
        "specialist_mean_rank": "48",
        "rank_delta_fusion_to_max": "-4",
        "negative_type": "megalithic_mound",
        "morphology_proxy": "",
        "visual_sheet": "reports/figures/weak_label_error_review_v1/holdout-top-false-positives.png",
        "review_reason": "Known hard negative ranked high by the main fusion model; inspect as false-positive pattern."
      }
    },
    {
      "type": "Feature",
      "geometry": {
        "type": "Point",
        "coordinates": [
          -8.2207321781512,
          43.5237064246763
        ]
      },
      "properties": {
        "review_id": "err-review-0005",
        "sample_review_key": "wl-neg-neg-es-pba-14223",
        "duplicate_count": "1",
        "duplicate_queues": "holdout_top_false_positives",
        "review_priority": "P0",
        "queue": "holdout_top_false_positives",
        "priority_order": "5",
        "review_lane": "mamoa_false_positive_review",
        "dataset": "holdouts",
        "final_split": "test_trasancos",
        "sample_id": "wl-neg-neg-es-pba-14223",
        "bank_id": "neg-es-pba-14223",
        "label_class": "0",
        "label_role": "hard_negative",
        "suggested_taxonomy": "mamoa",
        "suggested_decision": "confirm_non_castro_archaeological_hard_negative",
        "boundary_action": "Confirm mound/non-castro; do not treat as generic absence.",
        "review_status": "pending",
        "review_notes": "",
        "final_taxonomy": "",
        "final_decision": "",
        "pretriage_order": "20",
        "pretriage_group": "mamoa_archaeological_hard_negative",
        "pretriage_decision": "confirm_mamoa_specific_hard_negative",
        "pretriage_confidence": "high_taxonomy_medium_confusion",
        "training_use_after_review": "archaeological_hard_negative_not_generic_absence",
        "do_not_use_as": "generic_absence",
        "visual_reading": "Contact sheets show castro-like circular/anular relief distractors; confirm taxonomy and keep as specific archaeological hard negatives.",
        "name": "Mámoa de Muíño do Vento",
        "municipality": "Narón",
        "parish": "Trasancos (San Mateo)",
        "country": "ES",
        "fusion_probability": "0.55826249",
        "fusion_rank": "44",
        "max_safety_rank": "48",
        "archetype_only_rank": "84",
        "specialist_probability": "0.44488268",
        "specialist_rank": "66",
        "specialist_mean_rank": "55",
        "rank_delta_fusion_to_max": "-4",
        "negative_type": "megalithic_mound",
        "morphology_proxy": "",
        "visual_sheet": "reports/figures/weak_label_error_review_v1/holdout-top-false-positives.png",
        "review_reason": "Known hard negative ranked high by the main fusion model; inspect as false-positive pattern."
      }
    },
    {
      "type": "Feature",
      "geometry": {
        "type": "Point",
        "coordinates": [
          -8.045691218805501,
          43.56779596584658
        ]
      },
      "properties": {
        "review_id": "err-review-0006",
        "sample_review_key": "wl-neg-neg-es-pba-20406",
        "duplicate_count": "1",
        "duplicate_queues": "holdout_top_false_positives",
        "review_priority": "P0",
        "queue": "holdout_top_false_positives",
        "priority_order": "6",
        "review_lane": "mamoa_false_positive_review",
        "dataset": "holdouts",
        "final_split": "test_trasancos",
        "sample_id": "wl-neg-neg-es-pba-20406",
        "bank_id": "neg-es-pba-20406",
        "label_class": "0",
        "label_role": "hard_negative",
        "suggested_taxonomy": "mamoa",
        "suggested_decision": "confirm_non_castro_archaeological_hard_negative",
        "boundary_action": "Confirm mound/non-castro; do not treat as generic absence.",
        "review_status": "pending",
        "review_notes": "",
        "final_taxonomy": "",
        "final_decision": "",
        "pretriage_order": "14",
        "pretriage_group": "mamoa_archaeological_hard_negative",
        "pretriage_decision": "confirm_mamoa_specific_hard_negative",
        "pretriage_confidence": "high_taxonomy_medium_confusion",
        "training_use_after_review": "archaeological_hard_negative_not_generic_absence",
        "do_not_use_as": "generic_absence",
        "visual_reading": "Contact sheets show castro-like circular/anular relief distractors; confirm taxonomy and keep as specific archaeological hard negatives.",
        "name": "Mámoa de Bardaos",
        "municipality": "San Sadurniño",
        "parish": "Bardaos (Santa María)",
        "country": "ES",
        "fusion_probability": "0.47516969",
        "fusion_rank": "53",
        "max_safety_rank": "63",
        "archetype_only_rank": "53",
        "specialist_probability": "0.51674851",
        "specialist_rank": "58",
        "specialist_mean_rank": "56",
        "rank_delta_fusion_to_max": "-10",
        "negative_type": "megalithic_mound",
        "morphology_proxy": "",
        "visual_sheet": "reports/figures/weak_label_error_review_v1/holdout-top-false-positives.png",
        "review_reason": "Known hard negative ranked high by the main fusion model; inspect as false-positive pattern."
      }
    },
    {
      "type": "Feature",
      "geometry": {
        "type": "Point",
        "coordinates": [
          -8.128269502838254,
          43.57801699616052
        ]
      },
      "properties": {
        "review_id": "err-review-0007",
        "sample_review_key": "wl-neg-neg-es-pba-24332",
        "duplicate_count": "1",
        "duplicate_queues": "holdout_top_false_positives",
        "review_priority": "P0",
        "queue": "holdout_top_false_positives",
        "priority_order": "7",
        "review_lane": "mamoa_false_positive_review",
        "dataset": "holdouts",
        "final_split": "test_trasancos",
        "sample_id": "wl-neg-neg-es-pba-24332",
        "bank_id": "neg-es-pba-24332",
        "label_class": "0",
        "label_role": "hard_negative",
        "suggested_taxonomy": "mamoa",
        "suggested_decision": "confirm_non_castro_archaeological_hard_negative",
        "boundary_action": "Confirm mound/non-castro; do not treat as generic absence.",
        "review_status": "pending",
        "review_notes": "",
        "final_taxonomy": "",
        "final_decision": "",
        "pretriage_order": "12",
        "pretriage_group": "mamoa_archaeological_hard_negative",
        "pretriage_decision": "confirm_mamoa_specific_hard_negative",
        "pretriage_confidence": "high_taxonomy_medium_confusion",
        "training_use_after_review": "archaeological_hard_negative_not_generic_absence",
        "do_not_use_as": "generic_absence",
        "visual_reading": "Contact sheets show castro-like circular/anular relief distractors; confirm taxonomy and keep as specific archaeological hard negatives.",
        "name": "Mámoa do Monte de Pena Moura 3",
        "municipality": "Valdoviño",
        "parish": "Valdoviño (Santaia)",
        "country": "ES",
        "fusion_probability": "0.45368295",
        "fusion_rank": "55",
        "max_safety_rank": "66",
        "archetype_only_rank": "51",
        "specialist_probability": "0.56808626",
        "specialist_rank": "52",
        "specialist_mean_rank": "53",
        "rank_delta_fusion_to_max": "-11",
        "negative_type": "megalithic_mound",
        "morphology_proxy": "",
        "visual_sheet": "reports/figures/weak_label_error_review_v1/holdout-top-false-positives.png",
        "review_reason": "Known hard negative ranked high by the main fusion model; inspect as false-positive pattern."
      }
    },
    {
      "type": "Feature",
      "geometry": {
        "type": "Point",
        "coordinates": [
          -8.096261067263583,
          43.625262213712574
        ]
      },
      "properties": {
        "review_id": "err-review-0008",
        "sample_review_key": "wl-neg-neg-es-pba-24843",
        "duplicate_count": "1",
        "duplicate_queues": "holdout_top_false_positives",
        "review_priority": "P0",
        "queue": "holdout_top_false_positives",
        "priority_order": "8",
        "review_lane": "mamoa_false_positive_review",
        "dataset": "holdouts",
        "final_split": "test_trasancos",
        "sample_id": "wl-neg-neg-es-pba-24843",
        "bank_id": "neg-es-pba-24843",
        "label_class": "0",
        "label_role": "hard_negative",
        "suggested_taxonomy": "mamoa",
        "suggested_decision": "confirm_non_castro_archaeological_hard_negative",
        "boundary_action": "Confirm mound/non-castro; do not treat as generic absence.",
        "review_status": "pending",
        "review_notes": "",
        "final_taxonomy": "",
        "final_decision": "",
        "pretriage_order": "11",
        "pretriage_group": "mamoa_archaeological_hard_negative",
        "pretriage_decision": "confirm_mamoa_specific_hard_negative",
        "pretriage_confidence": "high_taxonomy_medium_confusion",
        "training_use_after_review": "archaeological_hard_negative_not_generic_absence",
        "do_not_use_as": "generic_absence",
        "visual_reading": "Contact sheets show castro-like circular/anular relief distractors; confirm taxonomy and keep as specific archaeological hard negatives.",
        "name": "Mámoa de Coto da Fraga 2",
        "municipality": "Valdoviño",
        "parish": "Pantín (Santiago)",
        "country": "ES",
        "fusion_probability": "0.44129649",
        "fusion_rank": "56",
        "max_safety_rank": "51",
        "archetype_only_rank": "26",
        "specialist_probability": "0.57147575",
        "specialist_rank": "51",
        "specialist_mean_rank": "54",
        "rank_delta_fusion_to_max": "5",
        "negative_type": "megalithic_mound",
        "morphology_proxy": "",
        "visual_sheet": "reports/figures/weak_label_error_review_v1/holdout-top-false-positives.png",
        "review_reason": "Known hard negative ranked high by the main fusion model; inspect as false-positive pattern."
      }
    },
    {
      "type": "Feature",
      "geometry": {
        "type": "Point",
        "coordinates": [
          -8.050266230012467,
          43.6232429879672
        ]
      },
      "properties": {
        "review_id": "err-review-0009",
        "sample_review_key": "wl-neg-neg-es-pba-24846",
        "duplicate_count": "1",
        "duplicate_queues": "holdout_top_false_positives",
        "review_priority": "P0",
        "queue": "holdout_top_false_positives",
        "priority_order": "9",
        "review_lane": "mamoa_false_positive_review",
        "dataset": "holdouts",
        "final_split": "test_trasancos",
        "sample_id": "wl-neg-neg-es-pba-24846",
        "bank_id": "neg-es-pba-24846",
        "label_class": "0",
        "label_role": "hard_negative",
        "suggested_taxonomy": "mamoa",
        "suggested_decision": "confirm_non_castro_archaeological_hard_negative",
        "boundary_action": "Confirm mound/non-castro; do not treat as generic absence.",
        "review_status": "pending",
        "review_notes": "",
        "final_taxonomy": "",
        "final_decision": "",
        "pretriage_order": "9",
        "pretriage_group": "mamoa_strong_model_confuser",
        "pretriage_decision": "confirm_mamoa_specific_hard_negative",
        "pretriage_confidence": "high_taxonomy_high_confusion",
        "training_use_after_review": "archaeological_hard_negative_not_generic_absence",
        "do_not_use_as": "generic_absence",
        "visual_reading": "Contact sheets show castro-like circular/anular relief distractors; confirm taxonomy and keep as specific archaeological hard negatives.",
        "name": "Mámoa de Pena Moura",
        "municipality": "Valdoviño",
        "parish": "Vilarrube (San Martiño)",
        "country": "ES",
        "fusion_probability": "0.42819688",
        "fusion_rank": "58",
        "max_safety_rank": "38",
        "archetype_only_rank": "21",
        "specialist_probability": "0.82864178",
        "specialist_rank": "34",
        "specialist_mean_rank": "38",
        "rank_delta_fusion_to_max": "20",
        "negative_type": "megalithic_mound",
        "morphology_proxy": "",
        "visual_sheet": "reports/figures/weak_label_error_review_v1/holdout-top-false-positives.png",
        "review_reason": "Known hard negative ranked high by the main fusion model; inspect as false-positive pattern."
      }
    },
    {
      "type": "Feature",
      "geometry": {
        "type": "Point",
        "coordinates": [
          -8.296676405945123,
          43.484912722428156
        ]
      },
      "properties": {
        "review_id": "err-review-0010",
        "sample_review_key": "wl-neg-neg-es-pba-10071",
        "duplicate_count": "1",
        "duplicate_queues": "holdout_top_false_positives",
        "review_priority": "P0",
        "queue": "holdout_top_false_positives",
        "priority_order": "10",
        "review_lane": "mamoa_false_positive_review",
        "dataset": "holdouts",
        "final_split": "test_trasancos",
        "sample_id": "wl-neg-neg-es-pba-10071",
        "bank_id": "neg-es-pba-10071",
        "label_class": "0",
        "label_role": "hard_negative",
        "suggested_taxonomy": "mamoa",
        "suggested_decision": "confirm_non_castro_archaeological_hard_negative",
        "boundary_action": "Confirm mound/non-castro; do not treat as generic absence.",
        "review_status": "pending",
        "review_notes": "",
        "final_taxonomy": "",
        "final_decision": "",
        "pretriage_order": "16",
        "pretriage_group": "mamoa_archaeological_hard_negative",
        "pretriage_decision": "confirm_mamoa_specific_hard_negative",
        "pretriage_confidence": "high_taxonomy_medium_confusion",
        "training_use_after_review": "archaeological_hard_negative_not_generic_absence",
        "do_not_use_as": "generic_absence",
        "visual_reading": "Contact sheets show castro-like circular/anular relief distractors; confirm taxonomy and keep as specific archaeological hard negatives.",
        "name": "Mámoa dos Montes de Brión III-8",
        "municipality": "Ferrol",
        "parish": "Doniños (San Román)",
        "country": "ES",
        "fusion_probability": "0.40880619",
        "fusion_rank": "60",
        "max_safety_rank": "67",
        "archetype_only_rank": "40",
        "specialist_probability": "0.49869196",
        "specialist_rank": "60",
        "specialist_mean_rank": "58",
        "rank_delta_fusion_to_max": "-7",
        "negative_type": "megalithic_mound",
        "morphology_proxy": "",
        "visual_sheet": "reports/figures/weak_label_error_review_v1/holdout-top-false-positives.png",
        "review_reason": "Known hard negative ranked high by the main fusion model; inspect as false-positive pattern."
      }
    },
    {
      "type": "Feature",
      "geometry": {
        "type": "Point",
        "coordinates": [
          -8.271862778359397,
          43.47905394680505
        ]
      },
      "properties": {
        "review_id": "err-review-0011",
        "sample_review_key": "wl-neg-neg-es-pba-10131",
        "duplicate_count": "1",
        "duplicate_queues": "holdout_top_false_positives",
        "review_priority": "P0",
        "queue": "holdout_top_false_positives",
        "priority_order": "11",
        "review_lane": "mamoa_false_positive_review",
        "dataset": "holdouts",
        "final_split": "test_trasancos",
        "sample_id": "wl-neg-neg-es-pba-10131",
        "bank_id": "neg-es-pba-10131",
        "label_class": "0",
        "label_role": "hard_negative",
        "suggested_taxonomy": "mamoa",
        "suggested_decision": "confirm_non_castro_archaeological_hard_negative",
        "boundary_action": "Confirm mound/non-castro; do not treat as generic absence.",
        "review_status": "pending",
        "review_notes": "",
        "final_taxonomy": "",
        "final_decision": "",
        "pretriage_order": "18",
        "pretriage_group": "mamoa_archaeological_hard_negative",
        "pretriage_decision": "confirm_mamoa_specific_hard_negative",
        "pretriage_confidence": "high_taxonomy_medium_confusion",
        "training_use_after_review": "archaeological_hard_negative_not_generic_absence",
        "do_not_use_as": "generic_absence",
        "visual_reading": "Contact sheets show castro-like circular/anular relief distractors; confirm taxonomy and keep as specific archaeological hard negatives.",
        "name": "Mámoa dos Montes de Brión VI-1",
        "municipality": "Ferrol",
        "parish": "Brión (Santa María)",
        "country": "ES",
        "fusion_probability": "0.38900115",
        "fusion_rank": "63",
        "max_safety_rank": "76",
        "archetype_only_rank": "57",
        "specialist_probability": "0.46133309",
        "specialist_rank": "64",
        "specialist_mean_rank": "61",
        "rank_delta_fusion_to_max": "-13",
        "negative_type": "megalithic_mound",
        "morphology_proxy": "",
        "visual_sheet": "reports/figures/weak_label_error_review_v1/holdout-top-false-positives.png",
        "review_reason": "Known hard negative ranked high by the main fusion model; inspect as false-positive pattern."
      }
    },
    {
      "type": "Feature",
      "geometry": {
        "type": "Point",
        "coordinates": [
          -8.270074776662353,
          43.50536423132985
        ]
      },
      "properties": {
        "review_id": "err-review-0012",
        "sample_review_key": "wl-neg-neg-es-pba-9981",
        "duplicate_count": "1",
        "duplicate_queues": "holdout_top_false_positives",
        "review_priority": "P0",
        "queue": "holdout_top_false_positives",
        "priority_order": "12",
        "review_lane": "mamoa_false_positive_review",
        "dataset": "holdouts",
        "final_split": "test_trasancos",
        "sample_id": "wl-neg-neg-es-pba-9981",
        "bank_id": "neg-es-pba-9981",
        "label_class": "0",
        "label_role": "hard_negative",
        "suggested_taxonomy": "mamoa",
        "suggested_decision": "confirm_non_castro_archaeological_hard_negative",
        "boundary_action": "Confirm mound/non-castro; do not treat as generic absence.",
        "review_status": "pending",
        "review_notes": "",
        "final_taxonomy": "",
        "final_decision": "",
        "pretriage_order": "22",
        "pretriage_group": "mamoa_archaeological_hard_negative",
        "pretriage_decision": "confirm_mamoa_specific_hard_negative",
        "pretriage_confidence": "high_taxonomy_medium_confusion",
        "training_use_after_review": "archaeological_hard_negative_not_generic_absence",
        "do_not_use_as": "generic_absence",
        "visual_reading": "Contact sheets show castro-like circular/anular relief distractors; confirm taxonomy and keep as specific archaeological hard negatives.",
        "name": "Mámoa de Mougá 6",
        "municipality": "Ferrol",
        "parish": "Doniños (San Román)",
        "country": "ES",
        "fusion_probability": "0.38321919",
        "fusion_rank": "64",
        "max_safety_rank": "59",
        "archetype_only_rank": "36",
        "specialist_probability": "0.39108186",
        "specialist_rank": "75",
        "specialist_mean_rank": "71",
        "rank_delta_fusion_to_max": "5",
        "negative_type": "megalithic_mound",
        "morphology_proxy": "",
        "visual_sheet": "reports/figures/weak_label_error_review_v1/holdout-top-false-positives.png",
        "review_reason": "Known hard negative ranked high by the main fusion model; inspect as false-positive pattern."
      }
    },
    {
      "type": "Feature",
      "geometry": {
        "type": "Point",
        "coordinates": [
          -8.285559472887922,
          43.4827670044632
        ]
      },
      "properties": {
        "review_id": "err-review-0013",
        "sample_review_key": "wl-neg-neg-es-pba-10014",
        "duplicate_count": "1",
        "duplicate_queues": "holdout_top_false_positives",
        "review_priority": "P0",
        "queue": "holdout_top_false_positives",
        "priority_order": "13",
        "review_lane": "mamoa_false_positive_review",
        "dataset": "holdouts",
        "final_split": "test_trasancos",
        "sample_id": "wl-neg-neg-es-pba-10014",
        "bank_id": "neg-es-pba-10014",
        "label_class": "0",
        "label_role": "hard_negative",
        "suggested_taxonomy": "mamoa",
        "suggested_decision": "confirm_non_castro_archaeological_hard_negative",
        "boundary_action": "Confirm mound/non-castro; do not treat as generic absence.",
        "review_status": "pending",
        "review_notes": "",
        "final_taxonomy": "",
        "final_decision": "",
        "pretriage_order": "23",
        "pretriage_group": "mamoa_archaeological_hard_negative",
        "pretriage_decision": "confirm_mamoa_specific_hard_negative",
        "pretriage_confidence": "high_taxonomy_medium_confusion",
        "training_use_after_review": "archaeological_hard_negative_not_generic_absence",
        "do_not_use_as": "generic_absence",
        "visual_reading": "Contact sheets show castro-like circular/anular relief distractors; confirm taxonomy and keep as specific archaeological hard negatives.",
        "name": "Mámoa dos Montes de Brión I-7",
        "municipality": "Ferrol",
        "parish": "Brión (Santa María)",
        "country": "ES",
        "fusion_probability": "0.37839992",
        "fusion_rank": "66",
        "max_safety_rank": "79",
        "archetype_only_rank": "65",
        "specialist_probability": "0.34653576",
        "specialist_rank": "82",
        "specialist_mean_rank": "75",
        "rank_delta_fusion_to_max": "-13",
        "negative_type": "megalithic_mound",
        "morphology_proxy": "",
        "visual_sheet": "reports/figures/weak_label_error_review_v1/holdout-top-false-positives.png",
        "review_reason": "Known hard negative ranked high by the main fusion model; inspect as false-positive pattern."
      }
    },
    {
      "type": "Feature",
      "geometry": {
        "type": "Point",
        "coordinates": [
          -8.197523939371287,
          43.52116200826383
        ]
      },
      "properties": {
        "review_id": "err-review-0014",
        "sample_review_key": "wl-neg-neg-es-pba-9974",
        "duplicate_count": "1",
        "duplicate_queues": "holdout_top_false_positives",
        "review_priority": "P0",
        "queue": "holdout_top_false_positives",
        "priority_order": "14",
        "review_lane": "mamoa_false_positive_review",
        "dataset": "holdouts",
        "final_split": "test_trasancos",
        "sample_id": "wl-neg-neg-es-pba-9974",
        "bank_id": "neg-es-pba-9974",
        "label_class": "0",
        "label_role": "hard_negative",
        "suggested_taxonomy": "mamoa",
        "suggested_decision": "confirm_non_castro_archaeological_hard_negative",
        "boundary_action": "Confirm mound/non-castro; do not treat as generic absence.",
        "review_status": "pending",
        "review_notes": "",
        "final_taxonomy": "",
        "final_decision": "",
        "pretriage_order": "28",
        "pretriage_group": "mamoa_archaeological_hard_negative",
        "pretriage_decision": "confirm_mamoa_specific_hard_negative",
        "pretriage_confidence": "high_taxonomy_medium_confusion",
        "training_use_after_review": "archaeological_hard_negative_not_generic_absence",
        "do_not_use_as": "generic_absence",
        "visual_reading": "Contact sheets show castro-like circular/anular relief distractors; confirm taxonomy and keep as specific archaeological hard negatives.",
        "name": "Mámoa de Leixa 2",
        "municipality": "Ferrol",
        "parish": "Leixa (San Pedro)",
        "country": "ES",
        "fusion_probability": "0.37433017",
        "fusion_rank": "67",
        "max_safety_rank": "81",
        "archetype_only_rank": "144",
        "specialist_probability": "0.16740709",
        "specialist_rank": "115",
        "specialist_mean_rank": "93",
        "rank_delta_fusion_to_max": "-14",
        "negative_type": "megalithic_mound",
        "morphology_proxy": "",
        "visual_sheet": "reports/figures/weak_label_error_review_v1/holdout-top-false-positives.png",
        "review_reason": "Known hard negative ranked high by the main fusion model; inspect as false-positive pattern."
      }
    },
    {
      "type": "Feature",
      "geometry": {
        "type": "Point",
        "coordinates": [
          -8.198459950939915,
          43.52249373946746
        ]
      },
      "properties": {
        "review_id": "err-review-0015",
        "sample_review_key": "wl-neg-neg-es-pba-14222",
        "duplicate_count": "1",
        "duplicate_queues": "holdout_top_false_positives",
        "review_priority": "P0",
        "queue": "holdout_top_false_positives",
        "priority_order": "15",
        "review_lane": "mamoa_false_positive_review",
        "dataset": "holdouts",
        "final_split": "test_trasancos",
        "sample_id": "wl-neg-neg-es-pba-14222",
        "bank_id": "neg-es-pba-14222",
        "label_class": "0",
        "label_role": "hard_negative",
        "suggested_taxonomy": "mamoa",
        "suggested_decision": "confirm_non_castro_archaeological_hard_negative",
        "boundary_action": "Confirm mound/non-castro; do not treat as generic absence.",
        "review_status": "pending",
        "review_notes": "",
        "final_taxonomy": "",
        "final_decision": "",
        "pretriage_order": "29",
        "pretriage_group": "mamoa_archaeological_hard_negative",
        "pretriage_decision": "confirm_mamoa_specific_hard_negative",
        "pretriage_confidence": "high_taxonomy_medium_confusion",
        "training_use_after_review": "archaeological_hard_negative_not_generic_absence",
        "do_not_use_as": "generic_absence",
        "visual_reading": "Contact sheets show castro-like circular/anular relief distractors; confirm taxonomy and keep as specific archaeological hard negatives.",
        "name": "Mámoa de Leixa 3/Mámoa de Trasancos",
        "municipality": "Narón",
        "parish": "Trasancos (San Mateo)",
        "country": "ES",
        "fusion_probability": "0.37254851",
        "fusion_rank": "68",
        "max_safety_rank": "82",
        "archetype_only_rank": "96",
        "specialist_probability": "0.13321068",
        "specialist_rank": "133",
        "specialist_mean_rank": "98",
        "rank_delta_fusion_to_max": "-14",
        "negative_type": "megalithic_mound",
        "morphology_proxy": "",
        "visual_sheet": "reports/figures/weak_label_error_review_v1/holdout-top-false-positives.png",
        "review_reason": "Known hard negative ranked high by the main fusion model; inspect as false-positive pattern."
      }
    },
    {
      "type": "Feature",
      "geometry": {
        "type": "Point",
        "coordinates": [
          -8.033552435280814,
          43.564559061061054
        ]
      },
      "properties": {
        "review_id": "err-review-0016",
        "sample_review_key": "wl-neg-neg-es-pba-20435",
        "duplicate_count": "1",
        "duplicate_queues": "holdout_top_false_positives",
        "review_priority": "P0",
        "queue": "holdout_top_false_positives",
        "priority_order": "16",
        "review_lane": "mamoa_false_positive_review",
        "dataset": "holdouts",
        "final_split": "test_trasancos",
        "sample_id": "wl-neg-neg-es-pba-20435",
        "bank_id": "neg-es-pba-20435",
        "label_class": "0",
        "label_role": "hard_negative",
        "suggested_taxonomy": "mamoa",
        "suggested_decision": "confirm_non_castro_archaeological_hard_negative",
        "boundary_action": "Confirm mound/non-castro; do not treat as generic absence.",
        "review_status": "pending",
        "review_notes": "",
        "final_taxonomy": "",
        "final_decision": "",
        "pretriage_order": "26",
        "pretriage_group": "mamoa_archaeological_hard_negative",
        "pretriage_decision": "confirm_mamoa_specific_hard_negative",
        "pretriage_confidence": "high_taxonomy_medium_confusion",
        "training_use_after_review": "archaeological_hard_negative_not_generic_absence",
        "do_not_use_as": "generic_absence",
        "visual_reading": "Contact sheets show castro-like circular/anular relief distractors; confirm taxonomy and keep as specific archaeological hard negatives.",
        "name": "Mámoa de Pena Escrita",
        "municipality": "San Sadurniño",
        "parish": "Lamas (San Xiao)",
        "country": "ES",
        "fusion_probability": "0.36044579",
        "fusion_rank": "69",
        "max_safety_rank": "84",
        "archetype_only_rank": "151",
        "specialist_probability": "0.20837475",
        "specialist_rank": "109",
        "specialist_mean_rank": "91",
        "rank_delta_fusion_to_max": "-15",
        "negative_type": "megalithic_mound",
        "morphology_proxy": "",
        "visual_sheet": "reports/figures/weak_label_error_review_v1/holdout-top-false-positives.png",
        "review_reason": "Known hard negative ranked high by the main fusion model; inspect as false-positive pattern."
      }
    },
    {
      "type": "Feature",
      "geometry": {
        "type": "Point",
        "coordinates": [
          -8.289157188370986,
          43.48425883479058
        ]
      },
      "properties": {
        "review_id": "err-review-0017",
        "sample_review_key": "wl-neg-neg-es-pba-9983",
        "duplicate_count": "1",
        "duplicate_queues": "holdout_top_false_positives",
        "review_priority": "P0",
        "queue": "holdout_top_false_positives",
        "priority_order": "17",
        "review_lane": "mamoa_false_positive_review",
        "dataset": "holdouts",
        "final_split": "test_trasancos",
        "sample_id": "wl-neg-neg-es-pba-9983",
        "bank_id": "neg-es-pba-9983",
        "label_class": "0",
        "label_role": "hard_negative",
        "suggested_taxonomy": "mamoa",
        "suggested_decision": "confirm_non_castro_archaeological_hard_negative",
        "boundary_action": "Confirm mound/non-castro; do not treat as generic absence.",
        "review_status": "pending",
        "review_notes": "",
        "final_taxonomy": "",
        "final_decision": "",
        "pretriage_order": "24",
        "pretriage_group": "mamoa_archaeological_hard_negative",
        "pretriage_decision": "confirm_mamoa_specific_hard_negative",
        "pretriage_confidence": "high_taxonomy_medium_confusion",
        "training_use_after_review": "archaeological_hard_negative_not_generic_absence",
        "do_not_use_as": "generic_absence",
        "visual_reading": "Contact sheets show castro-like circular/anular relief distractors; confirm taxonomy and keep as specific archaeological hard negatives.",
        "name": "Mámoa dos Montes de Brión I-1",
        "municipality": "Ferrol",
        "parish": "Doniños (San Román)",
        "country": "ES",
        "fusion_probability": "0.36018193",
        "fusion_rank": "70",
        "max_safety_rank": "39",
        "archetype_only_rank": "23",
        "specialist_probability": "0.33566896",
        "specialist_rank": "84",
        "specialist_mean_rank": "80",
        "rank_delta_fusion_to_max": "31",
        "negative_type": "megalithic_mound",
        "morphology_proxy": "",
        "visual_sheet": "reports/figures/weak_label_error_review_v1/holdout-top-false-positives.png",
        "review_reason": "Known hard negative ranked high by the main fusion model; inspect as false-positive pattern."
      }
    },
    {
      "type": "Feature",
      "geometry": {
        "type": "Point",
        "coordinates": [
          -8.291693642023777,
          43.477408326571705
        ]
      },
      "properties": {
        "review_id": "err-review-0018",
        "sample_review_key": "wl-neg-neg-es-pba-10102",
        "duplicate_count": "1",
        "duplicate_queues": "holdout_top_false_positives",
        "review_priority": "P0",
        "queue": "holdout_top_false_positives",
        "priority_order": "18",
        "review_lane": "mamoa_false_positive_review",
        "dataset": "holdouts",
        "final_split": "test_trasancos",
        "sample_id": "wl-neg-neg-es-pba-10102",
        "bank_id": "neg-es-pba-10102",
        "label_class": "0",
        "label_role": "hard_negative",
        "suggested_taxonomy": "mamoa",
        "suggested_decision": "confirm_non_castro_archaeological_hard_negative",
        "boundary_action": "Confirm mound/non-castro; do not treat as generic absence.",
        "review_status": "pending",
        "review_notes": "",
        "final_taxonomy": "",
        "final_decision": "",
        "pretriage_order": "17",
        "pretriage_group": "mamoa_archaeological_hard_negative",
        "pretriage_decision": "confirm_mamoa_specific_hard_negative",
        "pretriage_confidence": "high_taxonomy_medium_confusion",
        "training_use_after_review": "archaeological_hard_negative_not_generic_absence",
        "do_not_use_as": "generic_absence",
        "visual_reading": "Contact sheets show castro-like circular/anular relief distractors; confirm taxonomy and keep as specific archaeological hard negatives.",
        "name": "Mámoa dos Montes de Brión IV-7",
        "municipality": "Ferrol",
        "parish": "Brión (Santa María)",
        "country": "ES",
        "fusion_probability": "0.35708707",
        "fusion_rank": "71",
        "max_safety_rank": "85",
        "archetype_only_rank": "81",
        "specialist_probability": "0.47058642",
        "specialist_rank": "63",
        "specialist_mean_rank": "63",
        "rank_delta_fusion_to_max": "-14",
        "negative_type": "megalithic_mound",
        "morphology_proxy": "",
        "visual_sheet": "reports/figures/weak_label_error_review_v1/holdout-top-false-positives.png",
        "review_reason": "Known hard negative ranked high by the main fusion model; inspect as false-positive pattern."
      }
    },
    {
      "type": "Feature",
      "geometry": {
        "type": "Point",
        "coordinates": [
          -8.096451014104767,
          43.60704957345368
        ]
      },
      "properties": {
        "review_id": "err-review-0019",
        "sample_review_key": "wl-neg-neg-es-pba-24845",
        "duplicate_count": "1",
        "duplicate_queues": "holdout_top_false_positives",
        "review_priority": "P0",
        "queue": "holdout_top_false_positives",
        "priority_order": "20",
        "review_lane": "mamoa_false_positive_review",
        "dataset": "holdouts",
        "final_split": "test_trasancos",
        "sample_id": "wl-neg-neg-es-pba-24845",
        "bank_id": "neg-es-pba-24845",
        "label_class": "0",
        "label_role": "hard_negative",
        "suggested_taxonomy": "mamoa",
        "suggested_decision": "confirm_non_castro_archaeological_hard_negative",
        "boundary_action": "Confirm mound/non-castro; do not treat as generic absence.",
        "review_status": "pending",
        "review_notes": "",
        "final_taxonomy": "",
        "final_decision": "",
        "pretriage_order": "21",
        "pretriage_group": "mamoa_archaeological_hard_negative",
        "pretriage_decision": "confirm_mamoa_specific_hard_negative",
        "pretriage_confidence": "high_taxonomy_medium_confusion",
        "training_use_after_review": "archaeological_hard_negative_not_generic_absence",
        "do_not_use_as": "generic_absence",
        "visual_reading": "Contact sheets show castro-like circular/anular relief distractors; confirm taxonomy and keep as specific archaeological hard negatives.",
        "name": "Mámoa de Loira",
        "municipality": "Valdoviño",
        "parish": "Loira (San Pedro)",
        "country": "ES",
        "fusion_probability": "0.35506574",
        "fusion_rank": "74",
        "max_safety_rank": "89",
        "archetype_only_rank": "71",
        "specialist_probability": "0.41277697",
        "specialist_rank": "71",
        "specialist_mean_rank": "72",
        "rank_delta_fusion_to_max": "-15",
        "negative_type": "megalithic_mound",
        "morphology_proxy": "",
        "visual_sheet": "reports/figures/weak_label_error_review_v1/holdout-top-false-positives.png",
        "review_reason": "Known hard negative ranked high by the main fusion model; inspect as false-positive pattern."
      }
    },
    {
      "type": "Feature",
      "geometry": {
        "type": "Point",
        "coordinates": [
          -8.198684457741432,
          43.52031757782413
        ]
      },
      "properties": {
        "review_id": "err-review-0020",
        "sample_review_key": "wl-neg-neg-es-pba-9947",
        "duplicate_count": "1",
        "duplicate_queues": "holdout_top_false_positives",
        "review_priority": "P0",
        "queue": "holdout_top_false_positives",
        "priority_order": "21",
        "review_lane": "mamoa_false_positive_review",
        "dataset": "holdouts",
        "final_split": "test_trasancos",
        "sample_id": "wl-neg-neg-es-pba-9947",
        "bank_id": "neg-es-pba-9947",
        "label_class": "0",
        "label_role": "hard_negative",
        "suggested_taxonomy": "mamoa",
        "suggested_decision": "confirm_non_castro_archaeological_hard_negative",
        "boundary_action": "Confirm mound/non-castro; do not treat as generic absence.",
        "review_status": "pending",
        "review_notes": "",
        "final_taxonomy": "",
        "final_decision": "",
        "pretriage_order": "30",
        "pretriage_group": "mamoa_archaeological_hard_negative",
        "pretriage_decision": "confirm_mamoa_specific_hard_negative",
        "pretriage_confidence": "high_taxonomy_medium_confusion",
        "training_use_after_review": "archaeological_hard_negative_not_generic_absence",
        "do_not_use_as": "generic_absence",
        "visual_reading": "Contact sheets show castro-like circular/anular relief distractors; confirm taxonomy and keep as specific archaeological hard negatives.",
        "name": "Mámoa de Leixa 1",
        "municipality": "Ferrol",
        "parish": "Leixa (San Pedro)",
        "country": "ES",
        "fusion_probability": "0.32482753",
        "fusion_rank": "77",
        "max_safety_rank": "97",
        "archetype_only_rank": "171",
        "specialist_probability": "0.11844492",
        "specialist_rank": "142",
        "specialist_mean_rank": "111",
        "rank_delta_fusion_to_max": "-20",
        "negative_type": "megalithic_mound",
        "morphology_proxy": "",
        "visual_sheet": "reports/figures/weak_label_error_review_v1/holdout-top-false-positives.png",
        "review_reason": "Known hard negative ranked high by the main fusion model; inspect as false-positive pattern."
      }
    },
    {
      "type": "Feature",
      "geometry": {
        "type": "Point",
        "coordinates": [
          -8.199558404399172,
          43.572796295406846
        ]
      },
      "properties": {
        "review_id": "err-review-0021",
        "sample_review_key": "wl-neg-neg-es-pba-24850",
        "duplicate_count": "1",
        "duplicate_queues": "holdout_top_false_positives",
        "review_priority": "P0",
        "queue": "holdout_top_false_positives",
        "priority_order": "22",
        "review_lane": "mamoa_false_positive_review",
        "dataset": "holdouts",
        "final_split": "test_trasancos",
        "sample_id": "wl-neg-neg-es-pba-24850",
        "bank_id": "neg-es-pba-24850",
        "label_class": "0",
        "label_role": "hard_negative",
        "suggested_taxonomy": "mamoa",
        "suggested_decision": "confirm_non_castro_archaeological_hard_negative",
        "boundary_action": "Confirm mound/non-castro; do not treat as generic absence.",
        "review_status": "pending",
        "review_notes": "",
        "final_taxonomy": "",
        "final_decision": "",
        "pretriage_order": "27",
        "pretriage_group": "mamoa_archaeological_hard_negative",
        "pretriage_decision": "confirm_mamoa_specific_hard_negative",
        "pretriage_confidence": "high_taxonomy_medium_confusion",
        "training_use_after_review": "archaeological_hard_negative_not_generic_absence",
        "do_not_use_as": "generic_absence",
        "visual_reading": "Contact sheets show castro-like circular/anular relief distractors; confirm taxonomy and keep as specific archaeological hard negatives.",
        "name": "Mámoa de Rioboo 2/Mámoa de Canteiros 2/M moas do Val",
        "municipality": "Valdoviño",
        "parish": "Meirás (San Vicente)",
        "country": "ES",
        "fusion_probability": "0.32378712",
        "fusion_rank": "78",
        "max_safety_rank": "98",
        "archetype_only_rank": "202",
        "specialist_probability": "0.20227197",
        "specialist_rank": "110",
        "specialist_mean_rank": "96",
        "rank_delta_fusion_to_max": "-20",
        "negative_type": "megalithic_mound",
        "morphology_proxy": "",
        "visual_sheet": "reports/figures/weak_label_error_review_v1/holdout-top-false-positives.png",
        "review_reason": "Known hard negative ranked high by the main fusion model; inspect as false-positive pattern."
      }
    },
    {
      "type": "Feature",
      "geometry": {
        "type": "Point",
        "coordinates": [
          -8.28682938315165,
          43.480979979060415
        ]
      },
      "properties": {
        "review_id": "err-review-0022",
        "sample_review_key": "wl-neg-neg-es-pba-10008",
        "duplicate_count": "1",
        "duplicate_queues": "holdout_top_false_positives",
        "review_priority": "P0",
        "queue": "holdout_top_false_positives",
        "priority_order": "23",
        "review_lane": "mamoa_false_positive_review",
        "dataset": "holdouts",
        "final_split": "test_trasancos",
        "sample_id": "wl-neg-neg-es-pba-10008",
        "bank_id": "neg-es-pba-10008",
        "label_class": "0",
        "label_role": "hard_negative",
        "suggested_taxonomy": "mamoa",
        "suggested_decision": "confirm_non_castro_archaeological_hard_negative",
        "boundary_action": "Confirm mound/non-castro; do not treat as generic absence.",
        "review_status": "pending",
        "review_notes": "",
        "final_taxonomy": "",
        "final_decision": "",
        "pretriage_order": "19",
        "pretriage_group": "mamoa_archaeological_hard_negative",
        "pretriage_decision": "confirm_mamoa_specific_hard_negative",
        "pretriage_confidence": "high_taxonomy_medium_confusion",
        "training_use_after_review": "archaeological_hard_negative_not_generic_absence",
        "do_not_use_as": "generic_absence",
        "visual_reading": "Contact sheets show castro-like circular/anular relief distractors; confirm taxonomy and keep as specific archaeological hard negatives.",
        "name": "Mámoa dos Montes de Brión I-10",
        "municipality": "Ferrol",
        "parish": "Brión (Santa María)",
        "country": "ES",
        "fusion_probability": "0.32286611",
        "fusion_rank": "79",
        "max_safety_rank": "87",
        "archetype_only_rank": "60",
        "specialist_probability": "0.45650043",
        "specialist_rank": "65",
        "specialist_mean_rank": "70",
        "rank_delta_fusion_to_max": "-8",
        "negative_type": "megalithic_mound",
        "morphology_proxy": "",
        "visual_sheet": "reports/figures/weak_label_error_review_v1/holdout-top-false-positives.png",
        "review_reason": "Known hard negative ranked high by the main fusion model; inspect as false-positive pattern."
      }
    },
    {
      "type": "Feature",
      "geometry": {
        "type": "Point",
        "coordinates": [
          -8.20522866984784,
          43.546610330164974
        ]
      },
      "properties": {
        "review_id": "err-review-0023",
        "sample_review_key": "wl-neg-neg-es-pba-14299",
        "duplicate_count": "1",
        "duplicate_queues": "holdout_top_false_positives",
        "review_priority": "P0",
        "queue": "holdout_top_false_positives",
        "priority_order": "24",
        "review_lane": "mamoa_false_positive_review",
        "dataset": "holdouts",
        "final_split": "test_o_val",
        "sample_id": "wl-neg-neg-es-pba-14299",
        "bank_id": "neg-es-pba-14299",
        "label_class": "0",
        "label_role": "hard_negative",
        "suggested_taxonomy": "mamoa",
        "suggested_decision": "confirm_non_castro_archaeological_hard_negative",
        "boundary_action": "Confirm mound/non-castro; do not treat as generic absence.",
        "review_status": "pending",
        "review_notes": "",
        "final_taxonomy": "",
        "final_decision": "",
        "pretriage_order": "2",
        "pretriage_group": "o_val_local_first",
        "pretriage_decision": "confirm_local_mamoa_non_castro_hard_negative",
        "pretriage_confidence": "high_taxonomy_medium_confusion",
        "training_use_after_review": "archaeological_hard_negative_not_generic_absence",
        "do_not_use_as": "generic_absence",
        "visual_reading": "Contact sheets show castro-like circular/anular relief distractors; confirm taxonomy and keep as specific archaeological hard negatives.",
        "name": "Mámoa do Val/Mámoa de Santa Margarida",
        "municipality": "Narón",
        "parish": "O Val (Santa María A Maior)",
        "country": "ES",
        "fusion_probability": "0.32277415",
        "fusion_rank": "80",
        "max_safety_rank": "99",
        "archetype_only_rank": "83",
        "specialist_probability": "0.25713143",
        "specialist_rank": "95",
        "specialist_mean_rank": "90",
        "rank_delta_fusion_to_max": "-19",
        "negative_type": "megalithic_mound",
        "morphology_proxy": "",
        "visual_sheet": "reports/figures/weak_label_error_review_v1/holdout-top-false-positives.png",
        "review_reason": "Known hard negative ranked high by the main fusion model; inspect as false-positive pattern."
      }
    },
    {
      "type": "Feature",
      "geometry": {
        "type": "Point",
        "coordinates": [
          -8.28604813778096,
          43.48276680801758
        ]
      },
      "properties": {
        "review_id": "err-review-0024",
        "sample_review_key": "wl-neg-neg-es-pba-10013",
        "duplicate_count": "1",
        "duplicate_queues": "holdout_top_false_positives",
        "review_priority": "P0",
        "queue": "holdout_top_false_positives",
        "priority_order": "25",
        "review_lane": "mamoa_false_positive_review",
        "dataset": "holdouts",
        "final_split": "test_trasancos",
        "sample_id": "wl-neg-neg-es-pba-10013",
        "bank_id": "neg-es-pba-10013",
        "label_class": "0",
        "label_role": "hard_negative",
        "suggested_taxonomy": "mamoa",
        "suggested_decision": "confirm_non_castro_archaeological_hard_negative",
        "boundary_action": "Confirm mound/non-castro; do not treat as generic absence.",
        "review_status": "pending",
        "review_notes": "",
        "final_taxonomy": "",
        "final_decision": "",
        "pretriage_order": "25",
        "pretriage_group": "mamoa_archaeological_hard_negative",
        "pretriage_decision": "confirm_mamoa_specific_hard_negative",
        "pretriage_confidence": "high_taxonomy_medium_confusion",
        "training_use_after_review": "archaeological_hard_negative_not_generic_absence",
        "do_not_use_as": "generic_absence",
        "visual_reading": "Contact sheets show castro-like circular/anular relief distractors; confirm taxonomy and keep as specific archaeological hard negatives.",
        "name": "Mámoa dos Montes de Brión I-6",
        "municipality": "Ferrol",
        "parish": "Brión (Santa María)",
        "country": "ES",
        "fusion_probability": "0.30532703",
        "fusion_rank": "81",
        "max_safety_rank": "100",
        "archetype_only_rank": "73",
        "specialist_probability": "0.28156299",
        "specialist_rank": "92",
        "specialist_mean_rank": "89",
        "rank_delta_fusion_to_max": "-19",
        "negative_type": "megalithic_mound",
        "morphology_proxy": "",
        "visual_sheet": "reports/figures/weak_label_error_review_v1/holdout-top-false-positives.png",
        "review_reason": "Known hard negative ranked high by the main fusion model; inspect as false-positive pattern."
      }
    },
    {
      "type": "Feature",
      "geometry": {
        "type": "Point",
        "coordinates": [
          -8.22594601477777,
          43.57701844556937
        ]
      },
      "properties": {
        "review_id": "err-review-0025",
        "sample_review_key": "wl-pos-pos-es-pba-14588",
        "duplicate_count": "2",
        "duplicate_queues": "holdout_low_rank_positives;holdout_morphology_rescues",
        "review_priority": "P0",
        "queue": "holdout_low_rank_positives",
        "priority_order": "1",
        "review_lane": "mamoa_specialist_positive_review",
        "dataset": "holdouts",
        "final_split": "test_o_val",
        "sample_id": "wl-pos-pos-es-pba-14588",
        "bank_id": "pos-es-pba-14588",
        "label_class": "1",
        "label_role": "positive",
        "suggested_taxonomy": "castro",
        "suggested_decision": "inspect_as_positive_rescue",
        "boundary_action": "If visible, draw croa/muralla/recinto polygon; otherwise mark needs_followup.",
        "review_status": "pending",
        "review_notes": "",
        "final_taxonomy": "",
        "final_decision": "",
        "pretriage_order": "1",
        "pretriage_group": "o_val_local_first",
        "pretriage_decision": "local_positive_boundary_review",
        "pretriage_confidence": "high_model_signal_boundary_needed",
        "training_use_after_review": "positive_candidate_after_boundary_review",
        "do_not_use_as": "new_discovery_claim_without_review",
        "visual_reading": "Specialist score is strong against mamoa distractors; inspect visible boundary and source context before accepting.",
        "name": "Castro de Pena Lopesa",
        "municipality": "Narón",
        "parish": "O Val (Santa María A Maior)",
        "country": "ES",
        "fusion_probability": "0.06230073",
        "fusion_rank": "199",
        "max_safety_rank": "72",
        "archetype_only_rank": "47",
        "specialist_probability": "1.00000000",
        "specialist_rank": "2",
        "specialist_mean_rank": "51",
        "rank_delta_fusion_to_max": "127",
        "negative_type": "",
        "morphology_proxy": "hilltop_hint",
        "visual_sheet": "reports/figures/weak_label_error_review_v1/holdout-low-rank-positives.png",
        "review_reason": "Known positive ranked low by the main fusion model; inspect as false-negative morphology."
      }
    },
    {
      "type": "Feature",
      "geometry": {
        "type": "Point",
        "coordinates": [
          -8.147683735016127,
          43.62230830936563
        ]
      },
      "properties": {
        "review_id": "err-review-0026",
        "sample_review_key": "wl-pos-pos-es-pba-24674",
        "duplicate_count": "2",
        "duplicate_queues": "holdout_low_rank_positives;holdout_morphology_rescues",
        "review_priority": "P0",
        "queue": "holdout_low_rank_positives",
        "priority_order": "11",
        "review_lane": "mamoa_specialist_positive_review",
        "dataset": "holdouts",
        "final_split": "test_trasancos",
        "sample_id": "wl-pos-pos-es-pba-24674",
        "bank_id": "pos-es-pba-24674",
        "label_class": "1",
        "label_role": "positive",
        "suggested_taxonomy": "castro",
        "suggested_decision": "inspect_as_positive_rescue",
        "boundary_action": "If visible, draw croa/muralla/recinto polygon; otherwise mark needs_followup.",
        "review_status": "pending",
        "review_notes": "",
        "final_taxonomy": "",
        "final_decision": "",
        "pretriage_order": "6",
        "pretriage_group": "positive_rescue",
        "pretriage_decision": "positive_boundary_review",
        "pretriage_confidence": "medium_model_signal_boundary_needed",
        "training_use_after_review": "positive_candidate_after_boundary_review",
        "do_not_use_as": "new_discovery_claim_without_review",
        "visual_reading": "Contact sheets show coastal/promontory morphology; inspect boundary instead of penalizing non-round shape.",
        "name": "Castro da Punta do Vico",
        "municipality": "Valdoviño",
        "parish": "Valdoviño (Santaia)",
        "country": "ES",
        "fusion_probability": "0.26762530",
        "fusion_rank": "93",
        "max_safety_rank": "25",
        "archetype_only_rank": "13",
        "specialist_probability": "0.99996177",
        "specialist_rank": "6",
        "specialist_mean_rank": "37",
        "rank_delta_fusion_to_max": "68",
        "negative_type": "",
        "morphology_proxy": "coastal_promontory_hint",
        "visual_sheet": "reports/figures/weak_label_error_review_v1/holdout-low-rank-positives.png",
        "review_reason": "Known positive ranked low by the main fusion model; inspect as false-negative morphology."
      }
    },
    {
      "type": "Feature",
      "geometry": {
        "type": "Point",
        "coordinates": [
          -8.110405528230721,
          43.64384397902806
        ]
      },
      "properties": {
        "review_id": "err-review-0027",
        "sample_review_key": "wl-pos-pos-es-pba-24678",
        "duplicate_count": "1",
        "duplicate_queues": "holdout_low_rank_positives",
        "review_priority": "P0",
        "queue": "holdout_low_rank_positives",
        "priority_order": "21",
        "review_lane": "mamoa_specialist_positive_review",
        "dataset": "holdouts",
        "final_split": "test_trasancos",
        "sample_id": "wl-pos-pos-es-pba-24678",
        "bank_id": "pos-es-pba-24678",
        "label_class": "1",
        "label_role": "positive",
        "suggested_taxonomy": "castro",
        "suggested_decision": "inspect_as_positive_rescue",
        "boundary_action": "If visible, draw croa/muralla/recinto polygon; otherwise mark needs_followup.",
        "review_status": "pending",
        "review_notes": "",
        "final_taxonomy": "",
        "final_decision": "",
        "pretriage_order": "7",
        "pretriage_group": "positive_rescue",
        "pretriage_decision": "positive_boundary_review",
        "pretriage_confidence": "medium_model_signal_boundary_needed",
        "training_use_after_review": "positive_candidate_after_boundary_review",
        "do_not_use_as": "new_discovery_claim_without_review",
        "visual_reading": "Specialist score is strong against mamoa distractors; inspect visible boundary and source context before accepting.",
        "name": "Castro de Coto Redondo",
        "municipality": "Valdoviño",
        "parish": "Pantín (Santiago)",
        "country": "ES",
        "fusion_probability": "0.47510947",
        "fusion_rank": "54",
        "max_safety_rank": "64",
        "archetype_only_rank": "111",
        "specialist_probability": "0.99790934",
        "specialist_rank": "8",
        "specialist_mean_rank": "31",
        "rank_delta_fusion_to_max": "-10",
        "negative_type": "",
        "morphology_proxy": "hilltop_hint",
        "visual_sheet": "reports/figures/weak_label_error_review_v1/holdout-low-rank-positives.png",
        "review_reason": "Known positive ranked low by the main fusion model; inspect as false-negative morphology."
      }
    },
    {
      "type": "Feature",
      "geometry": {
        "type": "Point",
        "coordinates": [
          -8.22594601477777,
          43.57701844556937
        ]
      },
      "properties": {
        "review_id": "err-review-0028",
        "sample_review_key": "wl-pos-pos-es-pba-14588",
        "duplicate_count": "2",
        "duplicate_queues": "holdout_low_rank_positives;holdout_morphology_rescues",
        "review_priority": "P0",
        "queue": "holdout_morphology_rescues",
        "priority_order": "1",
        "review_lane": "mamoa_specialist_positive_review",
        "dataset": "holdouts",
        "final_split": "test_o_val",
        "sample_id": "wl-pos-pos-es-pba-14588",
        "bank_id": "pos-es-pba-14588",
        "label_class": "1",
        "label_role": "positive",
        "suggested_taxonomy": "castro",
        "suggested_decision": "inspect_as_positive_rescue",
        "boundary_action": "If visible, draw croa/muralla/recinto polygon; otherwise mark needs_followup.",
        "review_status": "pending",
        "review_notes": "",
        "final_taxonomy": "",
        "final_decision": "",
        "pretriage_order": "1",
        "pretriage_group": "o_val_local_first",
        "pretriage_decision": "local_positive_boundary_review",
        "pretriage_confidence": "high_model_signal_boundary_needed",
        "training_use_after_review": "positive_candidate_after_boundary_review",
        "do_not_use_as": "new_discovery_claim_without_review",
        "visual_reading": "Specialist score is strong against mamoa distractors; inspect visible boundary and source context before accepting.",
        "name": "Castro de Pena Lopesa",
        "municipality": "Narón",
        "parish": "O Val (Santa María A Maior)",
        "country": "ES",
        "fusion_probability": "0.06230073",
        "fusion_rank": "199",
        "max_safety_rank": "72",
        "archetype_only_rank": "47",
        "specialist_probability": "1.00000000",
        "specialist_rank": "2",
        "specialist_mean_rank": "51",
        "rank_delta_fusion_to_max": "127",
        "negative_type": "",
        "morphology_proxy": "hilltop_hint",
        "visual_sheet": "reports/figures/weak_label_error_review_v1/holdout-morphology-rescues.png",
        "review_reason": "Known positive moved upward by max_safety; inspect morphology archetype missed by the main model."
      }
    },
    {
      "type": "Feature",
      "geometry": {
        "type": "Point",
        "coordinates": [
          -8.147683735016127,
          43.62230830936563
        ]
      },
      "properties": {
        "review_id": "err-review-0029",
        "sample_review_key": "wl-pos-pos-es-pba-24674",
        "duplicate_count": "2",
        "duplicate_queues": "holdout_low_rank_positives;holdout_morphology_rescues",
        "review_priority": "P0",
        "queue": "holdout_morphology_rescues",
        "priority_order": "5",
        "review_lane": "mamoa_specialist_positive_review",
        "dataset": "holdouts",
        "final_split": "test_trasancos",
        "sample_id": "wl-pos-pos-es-pba-24674",
        "bank_id": "pos-es-pba-24674",
        "label_class": "1",
        "label_role": "positive",
        "suggested_taxonomy": "castro",
        "suggested_decision": "inspect_as_positive_rescue",
        "boundary_action": "If visible, draw croa/muralla/recinto polygon; otherwise mark needs_followup.",
        "review_status": "pending",
        "review_notes": "",
        "final_taxonomy": "",
        "final_decision": "",
        "pretriage_order": "6",
        "pretriage_group": "positive_rescue",
        "pretriage_decision": "positive_boundary_review",
        "pretriage_confidence": "medium_model_signal_boundary_needed",
        "training_use_after_review": "positive_candidate_after_boundary_review",
        "do_not_use_as": "new_discovery_claim_without_review",
        "visual_reading": "Contact sheets show coastal/promontory morphology; inspect boundary instead of penalizing non-round shape.",
        "name": "Castro da Punta do Vico",
        "municipality": "Valdoviño",
        "parish": "Valdoviño (Santaia)",
        "country": "ES",
        "fusion_probability": "0.26762530",
        "fusion_rank": "93",
        "max_safety_rank": "25",
        "archetype_only_rank": "13",
        "specialist_probability": "0.99996177",
        "specialist_rank": "6",
        "specialist_mean_rank": "37",
        "rank_delta_fusion_to_max": "68",
        "negative_type": "",
        "morphology_proxy": "coastal_promontory_hint",
        "visual_sheet": "reports/figures/weak_label_error_review_v1/holdout-morphology-rescues.png",
        "review_reason": "Known positive moved upward by max_safety; inspect morphology archetype missed by the main model."
      }
    },
    {
      "type": "Feature",
      "geometry": {
        "type": "Point",
        "coordinates": [
          -8.148872875517807,
          43.618480398789906
        ]
      },
      "properties": {
        "review_id": "err-review-0030",
        "sample_review_key": "wl-pos-pos-es-pba-24709",
        "duplicate_count": "1",
        "duplicate_queues": "holdout_morphology_rescues",
        "review_priority": "P0",
        "queue": "holdout_morphology_rescues",
        "priority_order": "11",
        "review_lane": "mamoa_specialist_positive_review",
        "dataset": "holdouts",
        "final_split": "test_trasancos",
        "sample_id": "wl-pos-pos-es-pba-24709",
        "bank_id": "pos-es-pba-24709",
        "label_class": "1",
        "label_role": "positive",
        "suggested_taxonomy": "castro",
        "suggested_decision": "inspect_as_positive_rescue",
        "boundary_action": "If visible, draw croa/muralla/recinto polygon; otherwise mark needs_followup.",
        "review_status": "pending",
        "review_notes": "",
        "final_taxonomy": "",
        "final_decision": "",
        "pretriage_order": "4",
        "pretriage_group": "positive_rescue",
        "pretriage_decision": "positive_boundary_review",
        "pretriage_confidence": "high_model_signal_boundary_needed",
        "training_use_after_review": "positive_candidate_after_boundary_review",
        "do_not_use_as": "new_discovery_claim_without_review",
        "visual_reading": "Contact sheets show coastal/promontory morphology; inspect boundary instead of penalizing non-round shape.",
        "name": "Castro de Punta Frouxeira",
        "municipality": "Valdoviño",
        "parish": "Valdoviño (Santaia)",
        "country": "ES",
        "fusion_probability": "0.93602800",
        "fusion_rank": "7",
        "max_safety_rank": "4",
        "archetype_only_rank": "4",
        "specialist_probability": "0.99999962",
        "specialist_rank": "3",
        "specialist_mean_rank": "6",
        "rank_delta_fusion_to_max": "3",
        "negative_type": "",
        "morphology_proxy": "coastal_promontory_hint",
        "visual_sheet": "reports/figures/weak_label_error_review_v1/holdout-morphology-rescues.png",
        "review_reason": "Known positive moved upward by max_safety; inspect morphology archetype missed by the main model."
      }
    },
    {
      "type": "Feature",
      "geometry": {
        "type": "Point",
        "coordinates": [
          -8.198712287595123,
          43.60215405961929
        ]
      },
      "properties": {
        "review_id": "err-review-0031",
        "sample_review_key": "wl-pos-pos-es-pba-24710",
        "duplicate_count": "1",
        "duplicate_queues": "holdout_morphology_rescues",
        "review_priority": "P0",
        "queue": "holdout_morphology_rescues",
        "priority_order": "12",
        "review_lane": "mamoa_specialist_positive_review",
        "dataset": "holdouts",
        "final_split": "test_trasancos",
        "sample_id": "wl-pos-pos-es-pba-24710",
        "bank_id": "pos-es-pba-24710",
        "label_class": "1",
        "label_role": "positive",
        "suggested_taxonomy": "castro",
        "suggested_decision": "inspect_as_positive_rescue",
        "boundary_action": "If visible, draw croa/muralla/recinto polygon; otherwise mark needs_followup.",
        "review_status": "pending",
        "review_notes": "",
        "final_taxonomy": "",
        "final_decision": "",
        "pretriage_order": "3",
        "pretriage_group": "positive_rescue",
        "pretriage_decision": "positive_boundary_review",
        "pretriage_confidence": "high_model_signal_boundary_needed",
        "training_use_after_review": "positive_candidate_after_boundary_review",
        "do_not_use_as": "new_discovery_claim_without_review",
        "visual_reading": "Contact sheets show coastal/promontory morphology; inspect boundary instead of penalizing non-round shape.",
        "name": "Castro de Punta Taraza",
        "municipality": "Valdoviño",
        "parish": "Meirás (San Vicente)",
        "country": "ES",
        "fusion_probability": "0.96686012",
        "fusion_rank": "4",
        "max_safety_rank": "3",
        "archetype_only_rank": "3",
        "specialist_probability": "1.00000000",
        "specialist_rank": "1",
        "specialist_mean_rank": "4",
        "rank_delta_fusion_to_max": "1",
        "negative_type": "",
        "morphology_proxy": "coastal_promontory_hint",
        "visual_sheet": "reports/figures/weak_label_error_review_v1/holdout-morphology-rescues.png",
        "review_reason": "Known positive moved upward by max_safety; inspect morphology archetype missed by the main model."
      }
    },
    {
      "type": "Feature",
      "geometry": {
        "type": "Point",
        "coordinates": [
          -8.282642845995516,
          43.559082757693524
        ]
      },
      "properties": {
        "review_id": "err-review-0032",
        "sample_review_key": "wl-pos-pos-es-pba-10262",
        "duplicate_count": "1",
        "duplicate_queues": "holdout_morphology_rescues",
        "review_priority": "P0",
        "queue": "holdout_morphology_rescues",
        "priority_order": "13",
        "review_lane": "mamoa_specialist_positive_review",
        "dataset": "holdouts",
        "final_split": "test_trasancos",
        "sample_id": "wl-pos-pos-es-pba-10262",
        "bank_id": "pos-es-pba-10262",
        "label_class": "1",
        "label_role": "positive",
        "suggested_taxonomy": "castro",
        "suggested_decision": "inspect_as_positive_rescue",
        "boundary_action": "If visible, draw croa/muralla/recinto polygon; otherwise mark needs_followup.",
        "review_status": "pending",
        "review_notes": "",
        "final_taxonomy": "",
        "final_decision": "",
        "pretriage_order": "5",
        "pretriage_group": "positive_rescue",
        "pretriage_decision": "positive_boundary_review",
        "pretriage_confidence": "medium_model_signal_boundary_needed",
        "training_use_after_review": "positive_candidate_after_boundary_review",
        "do_not_use_as": "new_discovery_claim_without_review",
        "visual_reading": "Specialist score is strong against mamoa distractors; inspect visible boundary and source context before accepting.",
        "name": "Necrópole de Santa Comba/Castro de Santa Comba",
        "municipality": "Ferrol",
        "parish": "Covas (San Martiño)",
        "country": "ES",
        "fusion_probability": "0.97212417",
        "fusion_rank": "3",
        "max_safety_rank": "2",
        "archetype_only_rank": "2",
        "specialist_probability": "0.99999575",
        "specialist_rank": "4",
        "specialist_mean_rank": "2",
        "rank_delta_fusion_to_max": "1",
        "negative_type": "",
        "morphology_proxy": "generic_castro_hint",
        "visual_sheet": "reports/figures/weak_label_error_review_v1/holdout-morphology-rescues.png",
        "review_reason": "Known positive moved upward by max_safety; inspect morphology archetype missed by the main model."
      }
    }
  ]
}
