{
"type": "FeatureCollection",
"name": "p0_decision_seed",
"crs": { "type": "name", "properties": { "name": "urn:ogc:def:crs:OGC:1.3:CRS84" } },
"features": [
{ "type": "Feature", "properties": { "decision_seed_id": "p0-seed-001", "dossier_order": "01", "sample_review_key": "wl-pos-pos-es-pba-14588", "sample_id": "wl-pos-pos-es-pba-14588", "autonomous_seed_status": "proposed_not_final", "accepted_label_status": "not_accepted", "can_enter_training_now": "no", "autonomous_decision": "positive_boundary_review_required", "training_gate": "needs_reviewed_polygon_before_strong_training", "proposed_training_use": "positive_candidate_after_boundary_review", "geometry_action": "draw_or_refine_visible_castro_boundary", "seed_geometry_role": "review_search_area_not_label", "review_risk": "local_holdout_boundary_risk", "next_qgis_action": "inspect_RGB_DEM_slope_LRM_then_draw_boundary_or_mark_needs_followup", "pretriage_group": "o_val_local_first", "pretriage_decision": "local_positive_boundary_review", "pretriage_confidence": "high_model_signal_boundary_needed", "suggested_taxonomy": "castro", "label_class": "1", "name": "Castro de Pena Lopesa", "municipality": "Narón", "parish": "O Val (Santa María A Maior)", "country": "ES", "longitude": "-8.22594601477777", "latitude": "43.57701844556937", "fusion_probability": "0.06230073", "fusion_rank": "199", "max_safety_rank": "72", "specialist_probability": "1.00000000", "specialist_rank": "2", "specialist_mean_rank": "51", "negative_type": "", "morphology_proxy": "hilltop_hint", "visual_card": "reports/figures/weak_label_p0_pretriage_v1/p0-01-castro-de-pena-lopesa.png", "review_buffer_m": "120", "source_queues": "holdout_low_rank_positives;holdout_morphology_rescues", "source_lanes": "mamoa_specialist_positive_review", "source_review_ids": "err-review-0025;err-review-0028", "rationale": "Known positive or specialist rescue; use the buffer only as a review search area. Do not convert this seed into an accepted positive polygon without boundary review." }, "geometry": { "type": "Point", "coordinates": [ -8.225946014777771, 43.577018445569372 ] } },
{ "type": "Feature", "properties": { "decision_seed_id": "p0-seed-002", "dossier_order": "02", "sample_review_key": "wl-neg-neg-es-pba-14299", "sample_id": "wl-neg-neg-es-pba-14299", "autonomous_seed_status": "proposed_not_final", "accepted_label_status": "not_accepted", "can_enter_training_now": "no", "autonomous_decision": "confirm_specific_archaeological_hard_negative", "training_gate": "eligible_only_after_taxonomy_confirmation", "proposed_training_use": "mamoa_specific_hard_negative_not_generic_absence", "geometry_action": "confirm_mound_non_castro_and_keep_separate_from_absence", "seed_geometry_role": "mamoa_review_buffer_not_absence_area", "review_risk": "archaeological_distractor_not_absence", "next_qgis_action": "confirm_mamoa_taxonomy_or_mark_non_decidible", "pretriage_group": "o_val_local_first", "pretriage_decision": "confirm_local_mamoa_non_castro_hard_negative", "pretriage_confidence": "high_taxonomy_medium_confusion", "suggested_taxonomy": "mamoa", "label_class": "0", "name": "Mámoa do Val/Mámoa de Santa Margarida", "municipality": "Narón", "parish": "O Val (Santa María A Maior)", "country": "ES", "longitude": "-8.20522866984784", "latitude": "43.546610330164974", "fusion_probability": "0.32277415", "fusion_rank": "80", "max_safety_rank": "99", "specialist_probability": "0.25713143", "specialist_rank": "95", "specialist_mean_rank": "90", "negative_type": "megalithic_mound", "morphology_proxy": "", "visual_card": "reports/figures/weak_label_p0_pretriage_v1/p0-02-mamoa-do-val-mamoa-de-santa-margarida.png", "review_buffer_m": "120", "source_queues": "holdout_top_false_positives", "source_lanes": "mamoa_false_positive_review", "source_review_ids": "err-review-0023", "rationale": "Catalogued mamoa/distractor pattern; useful for castro-vs-mamoa separation only after review. Do not use as generic background absence." }, "geometry": { "type": "Point", "coordinates": [ -8.205228669847839, 43.546610330164974 ] } },
{ "type": "Feature", "properties": { "decision_seed_id": "p0-seed-003", "dossier_order": "03", "sample_review_key": "wl-pos-pos-es-pba-24710", "sample_id": "wl-pos-pos-es-pba-24710", "autonomous_seed_status": "proposed_not_final", "accepted_label_status": "not_accepted", "can_enter_training_now": "no", "autonomous_decision": "positive_boundary_review_required", "training_gate": "needs_reviewed_polygon_before_strong_training", "proposed_training_use": "positive_candidate_after_boundary_review", "geometry_action": "draw_or_refine_visible_castro_boundary", "seed_geometry_role": "review_search_area_not_label", "review_risk": "variable_morphology_promontory_boundary_risk", "next_qgis_action": "inspect_RGB_DEM_slope_LRM_then_draw_boundary_or_mark_needs_followup", "pretriage_group": "positive_rescue", "pretriage_decision": "positive_boundary_review", "pretriage_confidence": "high_model_signal_boundary_needed", "suggested_taxonomy": "castro", "label_class": "1", "name": "Castro de Punta Taraza", "municipality": "Valdoviño", "parish": "Meirás (San Vicente)", "country": "ES", "longitude": "-8.198712287595123", "latitude": "43.60215405961929", "fusion_probability": "0.96686012", "fusion_rank": "4", "max_safety_rank": "3", "specialist_probability": "1.00000000", "specialist_rank": "1", "specialist_mean_rank": "4", "negative_type": "", "morphology_proxy": "coastal_promontory_hint", "visual_card": "reports/figures/weak_label_p0_pretriage_v1/p0-03-castro-de-punta-taraza.png", "review_buffer_m": "120", "source_queues": "holdout_morphology_rescues", "source_lanes": "mamoa_specialist_positive_review", "source_review_ids": "err-review-0031", "rationale": "Known positive or specialist rescue; use the buffer only as a review search area. Do not convert this seed into an accepted positive polygon without boundary review." }, "geometry": { "type": "Point", "coordinates": [ -8.198712287595123, 43.602154059619288 ] } },
{ "type": "Feature", "properties": { "decision_seed_id": "p0-seed-004", "dossier_order": "04", "sample_review_key": "wl-pos-pos-es-pba-24709", "sample_id": "wl-pos-pos-es-pba-24709", "autonomous_seed_status": "proposed_not_final", "accepted_label_status": "not_accepted", "can_enter_training_now": "no", "autonomous_decision": "positive_boundary_review_required", "training_gate": "needs_reviewed_polygon_before_strong_training", "proposed_training_use": "positive_candidate_after_boundary_review", "geometry_action": "draw_or_refine_visible_castro_boundary", "seed_geometry_role": "review_search_area_not_label", "review_risk": "variable_morphology_promontory_boundary_risk", "next_qgis_action": "inspect_RGB_DEM_slope_LRM_then_draw_boundary_or_mark_needs_followup", "pretriage_group": "positive_rescue", "pretriage_decision": "positive_boundary_review", "pretriage_confidence": "high_model_signal_boundary_needed", "suggested_taxonomy": "castro", "label_class": "1", "name": "Castro de Punta Frouxeira", "municipality": "Valdoviño", "parish": "Valdoviño (Santaia)", "country": "ES", "longitude": "-8.148872875517807", "latitude": "43.618480398789906", "fusion_probability": "0.93602800", "fusion_rank": "7", "max_safety_rank": "4", "specialist_probability": "0.99999962", "specialist_rank": "3", "specialist_mean_rank": "6", "negative_type": "", "morphology_proxy": "coastal_promontory_hint", "visual_card": "reports/figures/weak_label_p0_pretriage_v1/p0-04-castro-de-punta-frouxeira.png", "review_buffer_m": "120", "source_queues": "holdout_morphology_rescues", "source_lanes": "mamoa_specialist_positive_review", "source_review_ids": "err-review-0030", "rationale": "Known positive or specialist rescue; use the buffer only as a review search area. Do not convert this seed into an accepted positive polygon without boundary review." }, "geometry": { "type": "Point", "coordinates": [ -8.148872875517807, 43.618480398789906 ] } },
{ "type": "Feature", "properties": { "decision_seed_id": "p0-seed-005", "dossier_order": "05", "sample_review_key": "wl-pos-pos-es-pba-10262", "sample_id": "wl-pos-pos-es-pba-10262", "autonomous_seed_status": "proposed_not_final", "accepted_label_status": "not_accepted", "can_enter_training_now": "no", "autonomous_decision": "positive_boundary_review_required", "training_gate": "needs_reviewed_polygon_before_strong_training", "proposed_training_use": "positive_candidate_after_boundary_review", "geometry_action": "draw_or_refine_visible_castro_boundary", "seed_geometry_role": "review_search_area_not_label", "review_risk": "positive_boundary_uncertainty", "next_qgis_action": "inspect_RGB_DEM_slope_LRM_then_draw_boundary_or_mark_needs_followup", "pretriage_group": "positive_rescue", "pretriage_decision": "positive_boundary_review", "pretriage_confidence": "medium_model_signal_boundary_needed", "suggested_taxonomy": "castro", "label_class": "1", "name": "Necrópole de Santa Comba/Castro de Santa Comba", "municipality": "Ferrol", "parish": "Covas (San Martiño)", "country": "ES", "longitude": "-8.282642845995516", "latitude": "43.559082757693524", "fusion_probability": "0.97212417", "fusion_rank": "3", "max_safety_rank": "2", "specialist_probability": "0.99999575", "specialist_rank": "4", "specialist_mean_rank": "2", "negative_type": "", "morphology_proxy": "generic_castro_hint", "visual_card": "reports/figures/weak_label_p0_pretriage_v1/p0-05-necropole-de-santa-comba-castro-de-santa-comba.png", "review_buffer_m": "120", "source_queues": "holdout_morphology_rescues", "source_lanes": "mamoa_specialist_positive_review", "source_review_ids": "err-review-0032", "rationale": "Known positive or specialist rescue; use the buffer only as a review search area. Do not convert this seed into an accepted positive polygon without boundary review." }, "geometry": { "type": "Point", "coordinates": [ -8.282642845995516, 43.559082757693524 ] } },
{ "type": "Feature", "properties": { "decision_seed_id": "p0-seed-006", "dossier_order": "06", "sample_review_key": "wl-pos-pos-es-pba-24674", "sample_id": "wl-pos-pos-es-pba-24674", "autonomous_seed_status": "proposed_not_final", "accepted_label_status": "not_accepted", "can_enter_training_now": "no", "autonomous_decision": "positive_boundary_review_required", "training_gate": "needs_reviewed_polygon_before_strong_training", "proposed_training_use": "positive_candidate_after_boundary_review", "geometry_action": "draw_or_refine_visible_castro_boundary", "seed_geometry_role": "review_search_area_not_label", "review_risk": "variable_morphology_promontory_boundary_risk", "next_qgis_action": "inspect_RGB_DEM_slope_LRM_then_draw_boundary_or_mark_needs_followup", "pretriage_group": "positive_rescue", "pretriage_decision": "positive_boundary_review", "pretriage_confidence": "medium_model_signal_boundary_needed", "suggested_taxonomy": "castro", "label_class": "1", "name": "Castro da Punta do Vico", "municipality": "Valdoviño", "parish": "Valdoviño (Santaia)", "country": "ES", "longitude": "-8.147683735016127", "latitude": "43.62230830936563", "fusion_probability": "0.26762530", "fusion_rank": "93", "max_safety_rank": "25", "specialist_probability": "0.99996177", "specialist_rank": "6", "specialist_mean_rank": "37", "negative_type": "", "morphology_proxy": "coastal_promontory_hint", "visual_card": "reports/figures/weak_label_p0_pretriage_v1/p0-06-castro-da-punta-do-vico.png", "review_buffer_m": "120", "source_queues": "holdout_low_rank_positives;holdout_morphology_rescues", "source_lanes": "mamoa_specialist_positive_review", "source_review_ids": "err-review-0026;err-review-0029", "rationale": "Known positive or specialist rescue; use the buffer only as a review search area. Do not convert this seed into an accepted positive polygon without boundary review." }, "geometry": { "type": "Point", "coordinates": [ -8.147683735016127, 43.622308309365629 ] } },
{ "type": "Feature", "properties": { "decision_seed_id": "p0-seed-007", "dossier_order": "07", "sample_review_key": "wl-pos-pos-es-pba-24678", "sample_id": "wl-pos-pos-es-pba-24678", "autonomous_seed_status": "proposed_not_final", "accepted_label_status": "not_accepted", "can_enter_training_now": "no", "autonomous_decision": "positive_boundary_review_required", "training_gate": "needs_reviewed_polygon_before_strong_training", "proposed_training_use": "positive_candidate_after_boundary_review", "geometry_action": "draw_or_refine_visible_castro_boundary", "seed_geometry_role": "review_search_area_not_label", "review_risk": "positive_boundary_uncertainty", "next_qgis_action": "inspect_RGB_DEM_slope_LRM_then_draw_boundary_or_mark_needs_followup", "pretriage_group": "positive_rescue", "pretriage_decision": "positive_boundary_review", "pretriage_confidence": "medium_model_signal_boundary_needed", "suggested_taxonomy": "castro", "label_class": "1", "name": "Castro de Coto Redondo", "municipality": "Valdoviño", "parish": "Pantín (Santiago)", "country": "ES", "longitude": "-8.110405528230721", "latitude": "43.64384397902806", "fusion_probability": "0.47510947", "fusion_rank": "54", "max_safety_rank": "64", "specialist_probability": "0.99790934", "specialist_rank": "8", "specialist_mean_rank": "31", "negative_type": "", "morphology_proxy": "hilltop_hint", "visual_card": "reports/figures/weak_label_p0_pretriage_v1/p0-07-castro-de-coto-redondo.png", "review_buffer_m": "120", "source_queues": "holdout_low_rank_positives", "source_lanes": "mamoa_specialist_positive_review", "source_review_ids": "err-review-0027", "rationale": "Known positive or specialist rescue; use the buffer only as a review search area. Do not convert this seed into an accepted positive polygon without boundary review." }, "geometry": { "type": "Point", "coordinates": [ -8.110405528230721, 43.643843979028063 ] } },
{ "type": "Feature", "properties": { "decision_seed_id": "p0-seed-008", "dossier_order": "08", "sample_review_key": "wl-neg-neg-es-pba-8715", "sample_id": "wl-neg-neg-es-pba-8715", "autonomous_seed_status": "proposed_not_final", "accepted_label_status": "not_accepted", "can_enter_training_now": "no", "autonomous_decision": "confirm_specific_archaeological_hard_negative", "training_gate": "eligible_only_after_taxonomy_confirmation", "proposed_training_use": "mamoa_specific_hard_negative_not_generic_absence", "geometry_action": "confirm_mound_non_castro_and_keep_separate_from_absence", "seed_geometry_role": "mamoa_review_buffer_not_absence_area", "review_risk": "archaeological_distractor_not_absence", "next_qgis_action": "confirm_mamoa_taxonomy_or_mark_non_decidible", "pretriage_group": "mamoa_strong_model_confuser", "pretriage_decision": "confirm_mamoa_specific_hard_negative", "pretriage_confidence": "high_taxonomy_high_confusion", "suggested_taxonomy": "mamoa", "label_class": "0", "name": "Mámoa do Rego da Moa", "municipality": "Fene", "parish": "Barallobre (Santiago)", "country": "ES", "longitude": "-8.175129668390355", "latitude": "43.450897497780126", "fusion_probability": "0.61573051", "fusion_rank": "35", "max_safety_rank": "24", "specialist_probability": "0.95558477", "specialist_rank": "18", "specialist_mean_rank": "27", "negative_type": "megalithic_mound", "morphology_proxy": "", "visual_card": "reports/figures/weak_label_p0_pretriage_v1/p0-08-mamoa-do-rego-da-moa.png", "review_buffer_m": "120", "source_queues": "holdout_top_false_positives", "source_lanes": "mamoa_false_positive_review", "source_review_ids": "err-review-0002", "rationale": "Catalogued mamoa/distractor pattern; useful for castro-vs-mamoa separation only after review. Do not use as generic background absence." }, "geometry": { "type": "Point", "coordinates": [ -8.175129668390355, 43.450897497780126 ] } },
{ "type": "Feature", "properties": { "decision_seed_id": "p0-seed-009", "dossier_order": "09", "sample_review_key": "wl-neg-neg-es-pba-24846", "sample_id": "wl-neg-neg-es-pba-24846", "autonomous_seed_status": "proposed_not_final", "accepted_label_status": "not_accepted", "can_enter_training_now": "no", "autonomous_decision": "confirm_specific_archaeological_hard_negative", "training_gate": "eligible_only_after_taxonomy_confirmation", "proposed_training_use": "mamoa_specific_hard_negative_not_generic_absence", "geometry_action": "confirm_mound_non_castro_and_keep_separate_from_absence", "seed_geometry_role": "mamoa_review_buffer_not_absence_area", "review_risk": "archaeological_distractor_not_absence", "next_qgis_action": "confirm_mamoa_taxonomy_or_mark_non_decidible", "pretriage_group": "mamoa_strong_model_confuser", "pretriage_decision": "confirm_mamoa_specific_hard_negative", "pretriage_confidence": "high_taxonomy_high_confusion", "suggested_taxonomy": "mamoa", "label_class": "0", "name": "Mámoa de Pena Moura", "municipality": "Valdoviño", "parish": "Vilarrube (San Martiño)", "country": "ES", "longitude": "-8.050266230012467", "latitude": "43.6232429879672", "fusion_probability": "0.42819688", "fusion_rank": "58", "max_safety_rank": "38", "specialist_probability": "0.82864178", "specialist_rank": "34", "specialist_mean_rank": "38", "negative_type": "megalithic_mound", "morphology_proxy": "", "visual_card": "reports/figures/weak_label_p0_pretriage_v1/p0-09-mamoa-de-pena-moura.png", "review_buffer_m": "120", "source_queues": "holdout_top_false_positives", "source_lanes": "mamoa_false_positive_review", "source_review_ids": "err-review-0009", "rationale": "Catalogued mamoa/distractor pattern; useful for castro-vs-mamoa separation only after review. Do not use as generic background absence." }, "geometry": { "type": "Point", "coordinates": [ -8.050266230012467, 43.623242987967203 ] } },
{ "type": "Feature", "properties": { "decision_seed_id": "p0-seed-010", "dossier_order": "10", "sample_review_key": "wl-neg-neg-es-pba-8682", "sample_id": "wl-neg-neg-es-pba-8682", "autonomous_seed_status": "proposed_not_final", "accepted_label_status": "not_accepted", "can_enter_training_now": "no", "autonomous_decision": "confirm_specific_archaeological_hard_negative", "training_gate": "eligible_only_after_taxonomy_confirmation", "proposed_training_use": "mamoa_specific_hard_negative_not_generic_absence", "geometry_action": "confirm_mound_non_castro_and_keep_separate_from_absence", "seed_geometry_role": "mamoa_review_buffer_not_absence_area", "review_risk": "archaeological_distractor_not_absence", "next_qgis_action": "confirm_mamoa_taxonomy_or_mark_non_decidible", "pretriage_group": "mamoa_archaeological_hard_negative", "pretriage_decision": "confirm_mamoa_specific_hard_negative", "pretriage_confidence": "high_taxonomy_medium_confusion", "suggested_taxonomy": "mamoa", "label_class": "0", "name": "Mámoa do Monte Marraxón IV-1", "municipality": "Fene", "parish": "Sillobre (Santa Mariña)", "country": "ES", "longitude": "-8.132051265443264", "latitude": "43.4784901008791", "fusion_probability": "0.63027339", "fusion_rank": "34", "max_safety_rank": "37", "specialist_probability": "0.59351267", "specialist_rank": "47", "specialist_mean_rank": "40", "negative_type": "megalithic_mound", "morphology_proxy": "", "visual_card": "reports/figures/weak_label_p0_pretriage_v1/p0-10-mamoa-do-monte-marraxon-iv-1.png", "review_buffer_m": "120", "source_queues": "holdout_top_false_positives", "source_lanes": "mamoa_false_positive_review", "source_review_ids": "err-review-0001", "rationale": "Catalogued mamoa/distractor pattern; useful for castro-vs-mamoa separation only after review. Do not use as generic background absence." }, "geometry": { "type": "Point", "coordinates": [ -8.132051265443264, 43.4784901008791 ] } },
{ "type": "Feature", "properties": { "decision_seed_id": "p0-seed-011", "dossier_order": "11", "sample_review_key": "wl-neg-neg-es-pba-24843", "sample_id": "wl-neg-neg-es-pba-24843", "autonomous_seed_status": "proposed_not_final", "accepted_label_status": "not_accepted", "can_enter_training_now": "no", "autonomous_decision": "confirm_specific_archaeological_hard_negative", "training_gate": "eligible_only_after_taxonomy_confirmation", "proposed_training_use": "mamoa_specific_hard_negative_not_generic_absence", "geometry_action": "confirm_mound_non_castro_and_keep_separate_from_absence", "seed_geometry_role": "mamoa_review_buffer_not_absence_area", "review_risk": "archaeological_distractor_not_absence", "next_qgis_action": "confirm_mamoa_taxonomy_or_mark_non_decidible", "pretriage_group": "mamoa_archaeological_hard_negative", "pretriage_decision": "confirm_mamoa_specific_hard_negative", "pretriage_confidence": "high_taxonomy_medium_confusion", "suggested_taxonomy": "mamoa", "label_class": "0", "name": "Mámoa de Coto da Fraga 2", "municipality": "Valdoviño", "parish": "Pantín (Santiago)", "country": "ES", "longitude": "-8.096261067263583", "latitude": "43.625262213712574", "fusion_probability": "0.44129649", "fusion_rank": "56", "max_safety_rank": "51", "specialist_probability": "0.57147575", "specialist_rank": "51", "specialist_mean_rank": "54", "negative_type": "megalithic_mound", "morphology_proxy": "", "visual_card": "reports/figures/weak_label_p0_pretriage_v1/p0-11-mamoa-de-coto-da-fraga-2.png", "review_buffer_m": "120", "source_queues": "holdout_top_false_positives", "source_lanes": "mamoa_false_positive_review", "source_review_ids": "err-review-0008", "rationale": "Catalogued mamoa/distractor pattern; useful for castro-vs-mamoa separation only after review. Do not use as generic background absence." }, "geometry": { "type": "Point", "coordinates": [ -8.096261067263583, 43.625262213712574 ] } },
{ "type": "Feature", "properties": { "decision_seed_id": "p0-seed-012", "dossier_order": "12", "sample_review_key": "wl-neg-neg-es-pba-24332", "sample_id": "wl-neg-neg-es-pba-24332", "autonomous_seed_status": "proposed_not_final", "accepted_label_status": "not_accepted", "can_enter_training_now": "no", "autonomous_decision": "confirm_specific_archaeological_hard_negative", "training_gate": "eligible_only_after_taxonomy_confirmation", "proposed_training_use": "mamoa_specific_hard_negative_not_generic_absence", "geometry_action": "confirm_mound_non_castro_and_keep_separate_from_absence", "seed_geometry_role": "mamoa_review_buffer_not_absence_area", "review_risk": "archaeological_distractor_not_absence", "next_qgis_action": "confirm_mamoa_taxonomy_or_mark_non_decidible", "pretriage_group": "mamoa_archaeological_hard_negative", "pretriage_decision": "confirm_mamoa_specific_hard_negative", "pretriage_confidence": "high_taxonomy_medium_confusion", "suggested_taxonomy": "mamoa", "label_class": "0", "name": "Mámoa do Monte de Pena Moura 3", "municipality": "Valdoviño", "parish": "Valdoviño (Santaia)", "country": "ES", "longitude": "-8.128269502838254", "latitude": "43.57801699616052", "fusion_probability": "0.45368295", "fusion_rank": "55", "max_safety_rank": "66", "specialist_probability": "0.56808626", "specialist_rank": "52", "specialist_mean_rank": "53", "negative_type": "megalithic_mound", "morphology_proxy": "", "visual_card": "reports/figures/weak_label_p0_pretriage_v1/p0-12-mamoa-do-monte-de-pena-moura-3.png", "review_buffer_m": "120", "source_queues": "holdout_top_false_positives", "source_lanes": "mamoa_false_positive_review", "source_review_ids": "err-review-0007", "rationale": "Catalogued mamoa/distractor pattern; useful for castro-vs-mamoa separation only after review. Do not use as generic background absence." }, "geometry": { "type": "Point", "coordinates": [ -8.128269502838254, 43.578016996160521 ] } },
{ "type": "Feature", "properties": { "decision_seed_id": "p0-seed-013", "dossier_order": "13", "sample_review_key": "wl-neg-neg-es-pba-14259", "sample_id": "wl-neg-neg-es-pba-14259", "autonomous_seed_status": "proposed_not_final", "accepted_label_status": "not_accepted", "can_enter_training_now": "no", "autonomous_decision": "confirm_specific_archaeological_hard_negative", "training_gate": "eligible_only_after_taxonomy_confirmation", "proposed_training_use": "mamoa_specific_hard_negative_not_generic_absence", "geometry_action": "confirm_mound_non_castro_and_keep_separate_from_absence", "seed_geometry_role": "mamoa_review_buffer_not_absence_area", "review_risk": "archaeological_distractor_not_absence", "next_qgis_action": "confirm_mamoa_taxonomy_or_mark_non_decidible", "pretriage_group": "mamoa_archaeological_hard_negative", "pretriage_decision": "confirm_mamoa_specific_hard_negative", "pretriage_confidence": "high_taxonomy_medium_confusion", "suggested_taxonomy": "mamoa", "label_class": "0", "name": "Mámoa do Monte dos Niños 05", "municipality": "Narón", "parish": "Sedes (Santo Estevo)", "country": "ES", "longitude": "-8.123356750541028", "latitude": "43.56133110666142", "fusion_probability": "0.57631836", "fusion_rank": "38", "max_safety_rank": "42", "specialist_probability": "0.53494045", "specialist_rank": "55", "specialist_mean_rank": "48", "negative_type": "megalithic_mound", "morphology_proxy": "", "visual_card": "reports/figures/weak_label_p0_pretriage_v1/p0-13-mamoa-do-monte-dos-ninos-05.png", "review_buffer_m": "120", "source_queues": "holdout_top_false_positives", "source_lanes": "mamoa_false_positive_review", "source_review_ids": "err-review-0004", "rationale": "Catalogued mamoa/distractor pattern; useful for castro-vs-mamoa separation only after review. Do not use as generic background absence." }, "geometry": { "type": "Point", "coordinates": [ -8.123356750541028, 43.56133110666142 ] } },
{ "type": "Feature", "properties": { "decision_seed_id": "p0-seed-014", "dossier_order": "14", "sample_review_key": "wl-neg-neg-es-pba-20406", "sample_id": "wl-neg-neg-es-pba-20406", "autonomous_seed_status": "proposed_not_final", "accepted_label_status": "not_accepted", "can_enter_training_now": "no", "autonomous_decision": "confirm_specific_archaeological_hard_negative", "training_gate": "eligible_only_after_taxonomy_confirmation", "proposed_training_use": "mamoa_specific_hard_negative_not_generic_absence", "geometry_action": "confirm_mound_non_castro_and_keep_separate_from_absence", "seed_geometry_role": "mamoa_review_buffer_not_absence_area", "review_risk": "archaeological_distractor_not_absence", "next_qgis_action": "confirm_mamoa_taxonomy_or_mark_non_decidible", "pretriage_group": "mamoa_archaeological_hard_negative", "pretriage_decision": "confirm_mamoa_specific_hard_negative", "pretriage_confidence": "high_taxonomy_medium_confusion", "suggested_taxonomy": "mamoa", "label_class": "0", "name": "Mámoa de Bardaos", "municipality": "San Sadurniño", "parish": "Bardaos (Santa María)", "country": "ES", "longitude": "-8.045691218805501", "latitude": "43.56779596584658", "fusion_probability": "0.47516969", "fusion_rank": "53", "max_safety_rank": "63", "specialist_probability": "0.51674851", "specialist_rank": "58", "specialist_mean_rank": "56", "negative_type": "megalithic_mound", "morphology_proxy": "", "visual_card": "reports/figures/weak_label_p0_pretriage_v1/p0-14-mamoa-de-bardaos.png", "review_buffer_m": "120", "source_queues": "holdout_top_false_positives", "source_lanes": "mamoa_false_positive_review", "source_review_ids": "err-review-0006", "rationale": "Catalogued mamoa/distractor pattern; useful for castro-vs-mamoa separation only after review. Do not use as generic background absence." }, "geometry": { "type": "Point", "coordinates": [ -8.045691218805501, 43.567795965846578 ] } },
{ "type": "Feature", "properties": { "decision_seed_id": "p0-seed-015", "dossier_order": "15", "sample_review_key": "wl-neg-neg-es-pba-24849", "sample_id": "wl-neg-neg-es-pba-24849", "autonomous_seed_status": "proposed_not_final", "accepted_label_status": "not_accepted", "can_enter_training_now": "no", "autonomous_decision": "confirm_specific_archaeological_hard_negative", "training_gate": "eligible_only_after_taxonomy_confirmation", "proposed_training_use": "mamoa_specific_hard_negative_not_generic_absence", "geometry_action": "confirm_mound_non_castro_and_keep_separate_from_absence", "seed_geometry_role": "mamoa_review_buffer_not_absence_area", "review_risk": "archaeological_distractor_not_absence", "next_qgis_action": "confirm_mamoa_taxonomy_or_mark_non_decidible", "pretriage_group": "mamoa_archaeological_hard_negative", "pretriage_decision": "confirm_mamoa_specific_hard_negative", "pretriage_confidence": "high_taxonomy_medium_confusion", "suggested_taxonomy": "mamoa", "label_class": "0", "name": "Mámoa de Rioboo 1/Mámoa de Canteiros 1", "municipality": "Valdoviño", "parish": "Meirás (San Vicente)", "country": "ES", "longitude": "-8.20129105753339", "latitude": "43.572014263769375", "fusion_probability": "0.57929205", "fusion_rank": "37", "max_safety_rank": "41", "specialist_probability": "0.51304754", "specialist_rank": "59", "specialist_mean_rank": "49", "negative_type": "megalithic_mound", "morphology_proxy": "", "visual_card": "reports/figures/weak_label_p0_pretriage_v1/p0-15-mamoa-de-rioboo-1-mamoa-de-canteiros-1.png", "review_buffer_m": "120", "source_queues": "holdout_top_false_positives", "source_lanes": "mamoa_false_positive_review", "source_review_ids": "err-review-0003", "rationale": "Catalogued mamoa/distractor pattern; useful for castro-vs-mamoa separation only after review. Do not use as generic background absence." }, "geometry": { "type": "Point", "coordinates": [ -8.201291057533391, 43.572014263769375 ] } },
{ "type": "Feature", "properties": { "decision_seed_id": "p0-seed-016", "dossier_order": "16", "sample_review_key": "wl-neg-neg-es-pba-10071", "sample_id": "wl-neg-neg-es-pba-10071", "autonomous_seed_status": "proposed_not_final", "accepted_label_status": "not_accepted", "can_enter_training_now": "no", "autonomous_decision": "confirm_specific_archaeological_hard_negative", "training_gate": "eligible_only_after_taxonomy_confirmation", "proposed_training_use": "mamoa_specific_hard_negative_not_generic_absence", "geometry_action": "confirm_mound_non_castro_and_keep_separate_from_absence", "seed_geometry_role": "mamoa_review_buffer_not_absence_area", "review_risk": "archaeological_distractor_not_absence", "next_qgis_action": "confirm_mamoa_taxonomy_or_mark_non_decidible", "pretriage_group": "mamoa_archaeological_hard_negative", "pretriage_decision": "confirm_mamoa_specific_hard_negative", "pretriage_confidence": "high_taxonomy_medium_confusion", "suggested_taxonomy": "mamoa", "label_class": "0", "name": "Mámoa dos Montes de Brión III-8", "municipality": "Ferrol", "parish": "Doniños (San Román)", "country": "ES", "longitude": "-8.296676405945123", "latitude": "43.484912722428156", "fusion_probability": "0.40880619", "fusion_rank": "60", "max_safety_rank": "67", "specialist_probability": "0.49869196", "specialist_rank": "60", "specialist_mean_rank": "58", "negative_type": "megalithic_mound", "morphology_proxy": "", "visual_card": "reports/figures/weak_label_p0_pretriage_v1/p0-16-mamoa-dos-montes-de-brion-iii-8.png", "review_buffer_m": "120", "source_queues": "holdout_top_false_positives", "source_lanes": "mamoa_false_positive_review", "source_review_ids": "err-review-0010", "rationale": "Catalogued mamoa/distractor pattern; useful for castro-vs-mamoa separation only after review. Do not use as generic background absence." }, "geometry": { "type": "Point", "coordinates": [ -8.296676405945123, 43.484912722428156 ] } },
{ "type": "Feature", "properties": { "decision_seed_id": "p0-seed-017", "dossier_order": "17", "sample_review_key": "wl-neg-neg-es-pba-10102", "sample_id": "wl-neg-neg-es-pba-10102", "autonomous_seed_status": "proposed_not_final", "accepted_label_status": "not_accepted", "can_enter_training_now": "no", "autonomous_decision": "confirm_specific_archaeological_hard_negative", "training_gate": "eligible_only_after_taxonomy_confirmation", "proposed_training_use": "mamoa_specific_hard_negative_not_generic_absence", "geometry_action": "confirm_mound_non_castro_and_keep_separate_from_absence", "seed_geometry_role": "mamoa_review_buffer_not_absence_area", "review_risk": "archaeological_distractor_not_absence", "next_qgis_action": "confirm_mamoa_taxonomy_or_mark_non_decidible", "pretriage_group": "mamoa_archaeological_hard_negative", "pretriage_decision": "confirm_mamoa_specific_hard_negative", "pretriage_confidence": "high_taxonomy_medium_confusion", "suggested_taxonomy": "mamoa", "label_class": "0", "name": "Mámoa dos Montes de Brión IV-7", "municipality": "Ferrol", "parish": "Brión (Santa María)", "country": "ES", "longitude": "-8.291693642023777", "latitude": "43.477408326571705", "fusion_probability": "0.35708707", "fusion_rank": "71", "max_safety_rank": "85", "specialist_probability": "0.47058642", "specialist_rank": "63", "specialist_mean_rank": "63", "negative_type": "megalithic_mound", "morphology_proxy": "", "visual_card": "reports/figures/weak_label_p0_pretriage_v1/p0-17-mamoa-dos-montes-de-brion-iv-7.png", "review_buffer_m": "120", "source_queues": "holdout_top_false_positives", "source_lanes": "mamoa_false_positive_review", "source_review_ids": "err-review-0018", "rationale": "Catalogued mamoa/distractor pattern; useful for castro-vs-mamoa separation only after review. Do not use as generic background absence." }, "geometry": { "type": "Point", "coordinates": [ -8.291693642023777, 43.477408326571705 ] } },
{ "type": "Feature", "properties": { "decision_seed_id": "p0-seed-018", "dossier_order": "18", "sample_review_key": "wl-neg-neg-es-pba-10131", "sample_id": "wl-neg-neg-es-pba-10131", "autonomous_seed_status": "proposed_not_final", "accepted_label_status": "not_accepted", "can_enter_training_now": "no", "autonomous_decision": "confirm_specific_archaeological_hard_negative", "training_gate": "eligible_only_after_taxonomy_confirmation", "proposed_training_use": "mamoa_specific_hard_negative_not_generic_absence", "geometry_action": "confirm_mound_non_castro_and_keep_separate_from_absence", "seed_geometry_role": "mamoa_review_buffer_not_absence_area", "review_risk": "archaeological_distractor_not_absence", "next_qgis_action": "confirm_mamoa_taxonomy_or_mark_non_decidible", "pretriage_group": "mamoa_archaeological_hard_negative", "pretriage_decision": "confirm_mamoa_specific_hard_negative", "pretriage_confidence": "high_taxonomy_medium_confusion", "suggested_taxonomy": "mamoa", "label_class": "0", "name": "Mámoa dos Montes de Brión VI-1", "municipality": "Ferrol", "parish": "Brión (Santa María)", "country": "ES", "longitude": "-8.271862778359397", "latitude": "43.47905394680505", "fusion_probability": "0.38900115", "fusion_rank": "63", "max_safety_rank": "76", "specialist_probability": "0.46133309", "specialist_rank": "64", "specialist_mean_rank": "61", "negative_type": "megalithic_mound", "morphology_proxy": "", "visual_card": "reports/figures/weak_label_p0_pretriage_v1/p0-18-mamoa-dos-montes-de-brion-vi-1.png", "review_buffer_m": "120", "source_queues": "holdout_top_false_positives", "source_lanes": "mamoa_false_positive_review", "source_review_ids": "err-review-0011", "rationale": "Catalogued mamoa/distractor pattern; useful for castro-vs-mamoa separation only after review. Do not use as generic background absence." }, "geometry": { "type": "Point", "coordinates": [ -8.271862778359397, 43.479053946805053 ] } },
{ "type": "Feature", "properties": { "decision_seed_id": "p0-seed-019", "dossier_order": "19", "sample_review_key": "wl-neg-neg-es-pba-10008", "sample_id": "wl-neg-neg-es-pba-10008", "autonomous_seed_status": "proposed_not_final", "accepted_label_status": "not_accepted", "can_enter_training_now": "no", "autonomous_decision": "confirm_specific_archaeological_hard_negative", "training_gate": "eligible_only_after_taxonomy_confirmation", "proposed_training_use": "mamoa_specific_hard_negative_not_generic_absence", "geometry_action": "confirm_mound_non_castro_and_keep_separate_from_absence", "seed_geometry_role": "mamoa_review_buffer_not_absence_area", "review_risk": "archaeological_distractor_not_absence", "next_qgis_action": "confirm_mamoa_taxonomy_or_mark_non_decidible", "pretriage_group": "mamoa_archaeological_hard_negative", "pretriage_decision": "confirm_mamoa_specific_hard_negative", "pretriage_confidence": "high_taxonomy_medium_confusion", "suggested_taxonomy": "mamoa", "label_class": "0", "name": "Mámoa dos Montes de Brión I-10", "municipality": "Ferrol", "parish": "Brión (Santa María)", "country": "ES", "longitude": "-8.28682938315165", "latitude": "43.480979979060415", "fusion_probability": "0.32286611", "fusion_rank": "79", "max_safety_rank": "87", "specialist_probability": "0.45650043", "specialist_rank": "65", "specialist_mean_rank": "70", "negative_type": "megalithic_mound", "morphology_proxy": "", "visual_card": "reports/figures/weak_label_p0_pretriage_v1/p0-19-mamoa-dos-montes-de-brion-i-10.png", "review_buffer_m": "120", "source_queues": "holdout_top_false_positives", "source_lanes": "mamoa_false_positive_review", "source_review_ids": "err-review-0022", "rationale": "Catalogued mamoa/distractor pattern; useful for castro-vs-mamoa separation only after review. Do not use as generic background absence." }, "geometry": { "type": "Point", "coordinates": [ -8.28682938315165, 43.480979979060415 ] } },
{ "type": "Feature", "properties": { "decision_seed_id": "p0-seed-020", "dossier_order": "20", "sample_review_key": "wl-neg-neg-es-pba-14223", "sample_id": "wl-neg-neg-es-pba-14223", "autonomous_seed_status": "proposed_not_final", "accepted_label_status": "not_accepted", "can_enter_training_now": "no", "autonomous_decision": "confirm_specific_archaeological_hard_negative", "training_gate": "eligible_only_after_taxonomy_confirmation", "proposed_training_use": "mamoa_specific_hard_negative_not_generic_absence", "geometry_action": "confirm_mound_non_castro_and_keep_separate_from_absence", "seed_geometry_role": "mamoa_review_buffer_not_absence_area", "review_risk": "archaeological_distractor_not_absence", "next_qgis_action": "confirm_mamoa_taxonomy_or_mark_non_decidible", "pretriage_group": "mamoa_archaeological_hard_negative", "pretriage_decision": "confirm_mamoa_specific_hard_negative", "pretriage_confidence": "high_taxonomy_medium_confusion", "suggested_taxonomy": "mamoa", "label_class": "0", "name": "Mámoa de Muíño do Vento", "municipality": "Narón", "parish": "Trasancos (San Mateo)", "country": "ES", "longitude": "-8.2207321781512", "latitude": "43.5237064246763", "fusion_probability": "0.55826249", "fusion_rank": "44", "max_safety_rank": "48", "specialist_probability": "0.44488268", "specialist_rank": "66", "specialist_mean_rank": "55", "negative_type": "megalithic_mound", "morphology_proxy": "", "visual_card": "reports/figures/weak_label_p0_pretriage_v1/p0-20-mamoa-de-muino-do-vento.png", "review_buffer_m": "120", "source_queues": "holdout_top_false_positives", "source_lanes": "mamoa_false_positive_review", "source_review_ids": "err-review-0005", "rationale": "Catalogued mamoa/distractor pattern; useful for castro-vs-mamoa separation only after review. Do not use as generic background absence." }, "geometry": { "type": "Point", "coordinates": [ -8.2207321781512, 43.523706424676298 ] } },
{ "type": "Feature", "properties": { "decision_seed_id": "p0-seed-021", "dossier_order": "21", "sample_review_key": "wl-neg-neg-es-pba-24845", "sample_id": "wl-neg-neg-es-pba-24845", "autonomous_seed_status": "proposed_not_final", "accepted_label_status": "not_accepted", "can_enter_training_now": "no", "autonomous_decision": "confirm_specific_archaeological_hard_negative", "training_gate": "eligible_only_after_taxonomy_confirmation", "proposed_training_use": "mamoa_specific_hard_negative_not_generic_absence", "geometry_action": "confirm_mound_non_castro_and_keep_separate_from_absence", "seed_geometry_role": "mamoa_review_buffer_not_absence_area", "review_risk": "archaeological_distractor_not_absence", "next_qgis_action": "confirm_mamoa_taxonomy_or_mark_non_decidible", "pretriage_group": "mamoa_archaeological_hard_negative", "pretriage_decision": "confirm_mamoa_specific_hard_negative", "pretriage_confidence": "high_taxonomy_medium_confusion", "suggested_taxonomy": "mamoa", "label_class": "0", "name": "Mámoa de Loira", "municipality": "Valdoviño", "parish": "Loira (San Pedro)", "country": "ES", "longitude": "-8.096451014104767", "latitude": "43.60704957345368", "fusion_probability": "0.35506574", "fusion_rank": "74", "max_safety_rank": "89", "specialist_probability": "0.41277697", "specialist_rank": "71", "specialist_mean_rank": "72", "negative_type": "megalithic_mound", "morphology_proxy": "", "visual_card": "reports/figures/weak_label_p0_pretriage_v1/p0-21-mamoa-de-loira.png", "review_buffer_m": "120", "source_queues": "holdout_top_false_positives", "source_lanes": "mamoa_false_positive_review", "source_review_ids": "err-review-0019", "rationale": "Catalogued mamoa/distractor pattern; useful for castro-vs-mamoa separation only after review. Do not use as generic background absence." }, "geometry": { "type": "Point", "coordinates": [ -8.096451014104767, 43.607049573453679 ] } },
{ "type": "Feature", "properties": { "decision_seed_id": "p0-seed-022", "dossier_order": "22", "sample_review_key": "wl-neg-neg-es-pba-9981", "sample_id": "wl-neg-neg-es-pba-9981", "autonomous_seed_status": "proposed_not_final", "accepted_label_status": "not_accepted", "can_enter_training_now": "no", "autonomous_decision": "confirm_specific_archaeological_hard_negative", "training_gate": "eligible_only_after_taxonomy_confirmation", "proposed_training_use": "mamoa_specific_hard_negative_not_generic_absence", "geometry_action": "confirm_mound_non_castro_and_keep_separate_from_absence", "seed_geometry_role": "mamoa_review_buffer_not_absence_area", "review_risk": "archaeological_distractor_not_absence", "next_qgis_action": "confirm_mamoa_taxonomy_or_mark_non_decidible", "pretriage_group": "mamoa_archaeological_hard_negative", "pretriage_decision": "confirm_mamoa_specific_hard_negative", "pretriage_confidence": "high_taxonomy_medium_confusion", "suggested_taxonomy": "mamoa", "label_class": "0", "name": "Mámoa de Mougá 6", "municipality": "Ferrol", "parish": "Doniños (San Román)", "country": "ES", "longitude": "-8.270074776662353", "latitude": "43.50536423132985", "fusion_probability": "0.38321919", "fusion_rank": "64", "max_safety_rank": "59", "specialist_probability": "0.39108186", "specialist_rank": "75", "specialist_mean_rank": "71", "negative_type": "megalithic_mound", "morphology_proxy": "", "visual_card": "reports/figures/weak_label_p0_pretriage_v1/p0-22-mamoa-de-mouga-6.png", "review_buffer_m": "120", "source_queues": "holdout_top_false_positives", "source_lanes": "mamoa_false_positive_review", "source_review_ids": "err-review-0012", "rationale": "Catalogued mamoa/distractor pattern; useful for castro-vs-mamoa separation only after review. Do not use as generic background absence." }, "geometry": { "type": "Point", "coordinates": [ -8.270074776662353, 43.50536423132985 ] } },
{ "type": "Feature", "properties": { "decision_seed_id": "p0-seed-023", "dossier_order": "23", "sample_review_key": "wl-neg-neg-es-pba-10014", "sample_id": "wl-neg-neg-es-pba-10014", "autonomous_seed_status": "proposed_not_final", "accepted_label_status": "not_accepted", "can_enter_training_now": "no", "autonomous_decision": "confirm_specific_archaeological_hard_negative", "training_gate": "eligible_only_after_taxonomy_confirmation", "proposed_training_use": "mamoa_specific_hard_negative_not_generic_absence", "geometry_action": "confirm_mound_non_castro_and_keep_separate_from_absence", "seed_geometry_role": "mamoa_review_buffer_not_absence_area", "review_risk": "archaeological_distractor_not_absence", "next_qgis_action": "confirm_mamoa_taxonomy_or_mark_non_decidible", "pretriage_group": "mamoa_archaeological_hard_negative", "pretriage_decision": "confirm_mamoa_specific_hard_negative", "pretriage_confidence": "high_taxonomy_medium_confusion", "suggested_taxonomy": "mamoa", "label_class": "0", "name": "Mámoa dos Montes de Brión I-7", "municipality": "Ferrol", "parish": "Brión (Santa María)", "country": "ES", "longitude": "-8.285559472887922", "latitude": "43.4827670044632", "fusion_probability": "0.37839992", "fusion_rank": "66", "max_safety_rank": "79", "specialist_probability": "0.34653576", "specialist_rank": "82", "specialist_mean_rank": "75", "negative_type": "megalithic_mound", "morphology_proxy": "", "visual_card": "reports/figures/weak_label_p0_pretriage_v1/p0-23-mamoa-dos-montes-de-brion-i-7.png", "review_buffer_m": "120", "source_queues": "holdout_top_false_positives", "source_lanes": "mamoa_false_positive_review", "source_review_ids": "err-review-0013", "rationale": "Catalogued mamoa/distractor pattern; useful for castro-vs-mamoa separation only after review. Do not use as generic background absence." }, "geometry": { "type": "Point", "coordinates": [ -8.285559472887922, 43.482767004463199 ] } },
{ "type": "Feature", "properties": { "decision_seed_id": "p0-seed-024", "dossier_order": "24", "sample_review_key": "wl-neg-neg-es-pba-9983", "sample_id": "wl-neg-neg-es-pba-9983", "autonomous_seed_status": "proposed_not_final", "accepted_label_status": "not_accepted", "can_enter_training_now": "no", "autonomous_decision": "confirm_specific_archaeological_hard_negative", "training_gate": "eligible_only_after_taxonomy_confirmation", "proposed_training_use": "mamoa_specific_hard_negative_not_generic_absence", "geometry_action": "confirm_mound_non_castro_and_keep_separate_from_absence", "seed_geometry_role": "mamoa_review_buffer_not_absence_area", "review_risk": "archaeological_distractor_not_absence", "next_qgis_action": "confirm_mamoa_taxonomy_or_mark_non_decidible", "pretriage_group": "mamoa_archaeological_hard_negative", "pretriage_decision": "confirm_mamoa_specific_hard_negative", "pretriage_confidence": "high_taxonomy_medium_confusion", "suggested_taxonomy": "mamoa", "label_class": "0", "name": "Mámoa dos Montes de Brión I-1", "municipality": "Ferrol", "parish": "Doniños (San Román)", "country": "ES", "longitude": "-8.289157188370986", "latitude": "43.48425883479058", "fusion_probability": "0.36018193", "fusion_rank": "70", "max_safety_rank": "39", "specialist_probability": "0.33566896", "specialist_rank": "84", "specialist_mean_rank": "80", "negative_type": "megalithic_mound", "morphology_proxy": "", "visual_card": "reports/figures/weak_label_p0_pretriage_v1/p0-24-mamoa-dos-montes-de-brion-i-1.png", "review_buffer_m": "120", "source_queues": "holdout_top_false_positives", "source_lanes": "mamoa_false_positive_review", "source_review_ids": "err-review-0017", "rationale": "Catalogued mamoa/distractor pattern; useful for castro-vs-mamoa separation only after review. Do not use as generic background absence." }, "geometry": { "type": "Point", "coordinates": [ -8.289157188370986, 43.48425883479058 ] } },
{ "type": "Feature", "properties": { "decision_seed_id": "p0-seed-025", "dossier_order": "25", "sample_review_key": "wl-neg-neg-es-pba-10013", "sample_id": "wl-neg-neg-es-pba-10013", "autonomous_seed_status": "proposed_not_final", "accepted_label_status": "not_accepted", "can_enter_training_now": "no", "autonomous_decision": "confirm_specific_archaeological_hard_negative", "training_gate": "eligible_only_after_taxonomy_confirmation", "proposed_training_use": "mamoa_specific_hard_negative_not_generic_absence", "geometry_action": "confirm_mound_non_castro_and_keep_separate_from_absence", "seed_geometry_role": "mamoa_review_buffer_not_absence_area", "review_risk": "archaeological_distractor_not_absence", "next_qgis_action": "confirm_mamoa_taxonomy_or_mark_non_decidible", "pretriage_group": "mamoa_archaeological_hard_negative", "pretriage_decision": "confirm_mamoa_specific_hard_negative", "pretriage_confidence": "high_taxonomy_medium_confusion", "suggested_taxonomy": "mamoa", "label_class": "0", "name": "Mámoa dos Montes de Brión I-6", "municipality": "Ferrol", "parish": "Brión (Santa María)", "country": "ES", "longitude": "-8.28604813778096", "latitude": "43.48276680801758", "fusion_probability": "0.30532703", "fusion_rank": "81", "max_safety_rank": "100", "specialist_probability": "0.28156299", "specialist_rank": "92", "specialist_mean_rank": "89", "negative_type": "megalithic_mound", "morphology_proxy": "", "visual_card": "reports/figures/weak_label_p0_pretriage_v1/p0-25-mamoa-dos-montes-de-brion-i-6.png", "review_buffer_m": "120", "source_queues": "holdout_top_false_positives", "source_lanes": "mamoa_false_positive_review", "source_review_ids": "err-review-0024", "rationale": "Catalogued mamoa/distractor pattern; useful for castro-vs-mamoa separation only after review. Do not use as generic background absence." }, "geometry": { "type": "Point", "coordinates": [ -8.286048137780959, 43.48276680801758 ] } },
{ "type": "Feature", "properties": { "decision_seed_id": "p0-seed-026", "dossier_order": "26", "sample_review_key": "wl-neg-neg-es-pba-20435", "sample_id": "wl-neg-neg-es-pba-20435", "autonomous_seed_status": "proposed_not_final", "accepted_label_status": "not_accepted", "can_enter_training_now": "no", "autonomous_decision": "confirm_specific_archaeological_hard_negative", "training_gate": "eligible_only_after_taxonomy_confirmation", "proposed_training_use": "mamoa_specific_hard_negative_not_generic_absence", "geometry_action": "confirm_mound_non_castro_and_keep_separate_from_absence", "seed_geometry_role": "mamoa_review_buffer_not_absence_area", "review_risk": "archaeological_distractor_not_absence", "next_qgis_action": "confirm_mamoa_taxonomy_or_mark_non_decidible", "pretriage_group": "mamoa_archaeological_hard_negative", "pretriage_decision": "confirm_mamoa_specific_hard_negative", "pretriage_confidence": "high_taxonomy_medium_confusion", "suggested_taxonomy": "mamoa", "label_class": "0", "name": "Mámoa de Pena Escrita", "municipality": "San Sadurniño", "parish": "Lamas (San Xiao)", "country": "ES", "longitude": "-8.033552435280814", "latitude": "43.564559061061054", "fusion_probability": "0.36044579", "fusion_rank": "69", "max_safety_rank": "84", "specialist_probability": "0.20837475", "specialist_rank": "109", "specialist_mean_rank": "91", "negative_type": "megalithic_mound", "morphology_proxy": "", "visual_card": "reports/figures/weak_label_p0_pretriage_v1/p0-26-mamoa-de-pena-escrita.png", "review_buffer_m": "120", "source_queues": "holdout_top_false_positives", "source_lanes": "mamoa_false_positive_review", "source_review_ids": "err-review-0016", "rationale": "Catalogued mamoa/distractor pattern; useful for castro-vs-mamoa separation only after review. Do not use as generic background absence." }, "geometry": { "type": "Point", "coordinates": [ -8.033552435280814, 43.564559061061054 ] } },
{ "type": "Feature", "properties": { "decision_seed_id": "p0-seed-027", "dossier_order": "27", "sample_review_key": "wl-neg-neg-es-pba-24850", "sample_id": "wl-neg-neg-es-pba-24850", "autonomous_seed_status": "proposed_not_final", "accepted_label_status": "not_accepted", "can_enter_training_now": "no", "autonomous_decision": "confirm_specific_archaeological_hard_negative", "training_gate": "eligible_only_after_taxonomy_confirmation", "proposed_training_use": "mamoa_specific_hard_negative_not_generic_absence", "geometry_action": "confirm_mound_non_castro_and_keep_separate_from_absence", "seed_geometry_role": "mamoa_review_buffer_not_absence_area", "review_risk": "archaeological_distractor_not_absence", "next_qgis_action": "confirm_mamoa_taxonomy_or_mark_non_decidible", "pretriage_group": "mamoa_archaeological_hard_negative", "pretriage_decision": "confirm_mamoa_specific_hard_negative", "pretriage_confidence": "high_taxonomy_medium_confusion", "suggested_taxonomy": "mamoa", "label_class": "0", "name": "Mámoa de Rioboo 2/Mámoa de Canteiros 2/M moas do Val", "municipality": "Valdoviño", "parish": "Meirás (San Vicente)", "country": "ES", "longitude": "-8.199558404399172", "latitude": "43.572796295406846", "fusion_probability": "0.32378712", "fusion_rank": "78", "max_safety_rank": "98", "specialist_probability": "0.20227197", "specialist_rank": "110", "specialist_mean_rank": "96", "negative_type": "megalithic_mound", "morphology_proxy": "", "visual_card": "reports/figures/weak_label_p0_pretriage_v1/p0-27-mamoa-de-rioboo-2-mamoa-de-canteiros-2-m-moas-do-val.png", "review_buffer_m": "120", "source_queues": "holdout_top_false_positives", "source_lanes": "mamoa_false_positive_review", "source_review_ids": "err-review-0021", "rationale": "Catalogued mamoa/distractor pattern; useful for castro-vs-mamoa separation only after review. Do not use as generic background absence." }, "geometry": { "type": "Point", "coordinates": [ -8.199558404399172, 43.572796295406846 ] } },
{ "type": "Feature", "properties": { "decision_seed_id": "p0-seed-028", "dossier_order": "28", "sample_review_key": "wl-neg-neg-es-pba-9974", "sample_id": "wl-neg-neg-es-pba-9974", "autonomous_seed_status": "proposed_not_final", "accepted_label_status": "not_accepted", "can_enter_training_now": "no", "autonomous_decision": "confirm_specific_archaeological_hard_negative", "training_gate": "eligible_only_after_taxonomy_confirmation", "proposed_training_use": "mamoa_specific_hard_negative_not_generic_absence", "geometry_action": "confirm_mound_non_castro_and_keep_separate_from_absence", "seed_geometry_role": "mamoa_review_buffer_not_absence_area", "review_risk": "archaeological_distractor_not_absence", "next_qgis_action": "confirm_mamoa_taxonomy_or_mark_non_decidible", "pretriage_group": "mamoa_archaeological_hard_negative", "pretriage_decision": "confirm_mamoa_specific_hard_negative", "pretriage_confidence": "high_taxonomy_medium_confusion", "suggested_taxonomy": "mamoa", "label_class": "0", "name": "Mámoa de Leixa 2", "municipality": "Ferrol", "parish": "Leixa (San Pedro)", "country": "ES", "longitude": "-8.197523939371287", "latitude": "43.52116200826383", "fusion_probability": "0.37433017", "fusion_rank": "67", "max_safety_rank": "81", "specialist_probability": "0.16740709", "specialist_rank": "115", "specialist_mean_rank": "93", "negative_type": "megalithic_mound", "morphology_proxy": "", "visual_card": "reports/figures/weak_label_p0_pretriage_v1/p0-28-mamoa-de-leixa-2.png", "review_buffer_m": "120", "source_queues": "holdout_top_false_positives", "source_lanes": "mamoa_false_positive_review", "source_review_ids": "err-review-0014", "rationale": "Catalogued mamoa/distractor pattern; useful for castro-vs-mamoa separation only after review. Do not use as generic background absence." }, "geometry": { "type": "Point", "coordinates": [ -8.197523939371287, 43.521162008263829 ] } },
{ "type": "Feature", "properties": { "decision_seed_id": "p0-seed-029", "dossier_order": "29", "sample_review_key": "wl-neg-neg-es-pba-14222", "sample_id": "wl-neg-neg-es-pba-14222", "autonomous_seed_status": "proposed_not_final", "accepted_label_status": "not_accepted", "can_enter_training_now": "no", "autonomous_decision": "confirm_specific_archaeological_hard_negative", "training_gate": "eligible_only_after_taxonomy_confirmation", "proposed_training_use": "mamoa_specific_hard_negative_not_generic_absence", "geometry_action": "confirm_mound_non_castro_and_keep_separate_from_absence", "seed_geometry_role": "mamoa_review_buffer_not_absence_area", "review_risk": "archaeological_distractor_not_absence", "next_qgis_action": "confirm_mamoa_taxonomy_or_mark_non_decidible", "pretriage_group": "mamoa_archaeological_hard_negative", "pretriage_decision": "confirm_mamoa_specific_hard_negative", "pretriage_confidence": "high_taxonomy_medium_confusion", "suggested_taxonomy": "mamoa", "label_class": "0", "name": "Mámoa de Leixa 3/Mámoa de Trasancos", "municipality": "Narón", "parish": "Trasancos (San Mateo)", "country": "ES", "longitude": "-8.198459950939915", "latitude": "43.52249373946746", "fusion_probability": "0.37254851", "fusion_rank": "68", "max_safety_rank": "82", "specialist_probability": "0.13321068", "specialist_rank": "133", "specialist_mean_rank": "98", "negative_type": "megalithic_mound", "morphology_proxy": "", "visual_card": "reports/figures/weak_label_p0_pretriage_v1/p0-29-mamoa-de-leixa-3-mamoa-de-trasancos.png", "review_buffer_m": "120", "source_queues": "holdout_top_false_positives", "source_lanes": "mamoa_false_positive_review", "source_review_ids": "err-review-0015", "rationale": "Catalogued mamoa/distractor pattern; useful for castro-vs-mamoa separation only after review. Do not use as generic background absence." }, "geometry": { "type": "Point", "coordinates": [ -8.198459950939915, 43.522493739467457 ] } },
{ "type": "Feature", "properties": { "decision_seed_id": "p0-seed-030", "dossier_order": "30", "sample_review_key": "wl-neg-neg-es-pba-9947", "sample_id": "wl-neg-neg-es-pba-9947", "autonomous_seed_status": "proposed_not_final", "accepted_label_status": "not_accepted", "can_enter_training_now": "no", "autonomous_decision": "confirm_specific_archaeological_hard_negative", "training_gate": "eligible_only_after_taxonomy_confirmation", "proposed_training_use": "mamoa_specific_hard_negative_not_generic_absence", "geometry_action": "confirm_mound_non_castro_and_keep_separate_from_absence", "seed_geometry_role": "mamoa_review_buffer_not_absence_area", "review_risk": "archaeological_distractor_not_absence", "next_qgis_action": "confirm_mamoa_taxonomy_or_mark_non_decidible", "pretriage_group": "mamoa_archaeological_hard_negative", "pretriage_decision": "confirm_mamoa_specific_hard_negative", "pretriage_confidence": "high_taxonomy_medium_confusion", "suggested_taxonomy": "mamoa", "label_class": "0", "name": "Mámoa de Leixa 1", "municipality": "Ferrol", "parish": "Leixa (San Pedro)", "country": "ES", "longitude": "-8.198684457741432", "latitude": "43.52031757782413", "fusion_probability": "0.32482753", "fusion_rank": "77", "max_safety_rank": "97", "specialist_probability": "0.11844492", "specialist_rank": "142", "specialist_mean_rank": "111", "negative_type": "megalithic_mound", "morphology_proxy": "", "visual_card": "reports/figures/weak_label_p0_pretriage_v1/p0-30-mamoa-de-leixa-1.png", "review_buffer_m": "120", "source_queues": "holdout_top_false_positives", "source_lanes": "mamoa_false_positive_review", "source_review_ids": "err-review-0020", "rationale": "Catalogued mamoa/distractor pattern; useful for castro-vs-mamoa separation only after review. Do not use as generic background absence." }, "geometry": { "type": "Point", "coordinates": [ -8.198684457741432, 43.52031757782413 ] } }
]
}
