{
"type": "FeatureCollection",
"name": "p0_positive_boundary_proposals",
"crs": { "type": "name", "properties": { "name": "urn:ogc:def:crs:OGC:1.3:CRS84" } },
"features": [
{ "type": "Feature", "properties": { "proposal_id": "p0-boundary-proposal-001", "decision_seed_id": "p0-seed-001", "dossier_order": "01", "sample_id": "wl-pos-pos-es-pba-14588", "name": "Castro de Pena Lopesa", "municipality": "Narón", "parish": "O Val (Santa María A Maior)", "final_split": "test_o_val", "morphology_proxy": "hilltop_hint", "proposal_status": "rough_relief_proposal_not_label", "accepted_label_status": "not_accepted", "can_enter_training_now": "no", "needs_review": "yes", "method": "hilltop_dem_lrm_component", "proposal_area_m2": "44415.8", "search_radius_m": "120", "dem_path": "data/external/weak-label-relief-v1/test_o_val/positive/wl-tile-v1-02535-pos-es-pba-14588-mdt5.tif", "dem_status": "valid", "resolution_m": "5.00", "mask_pixels": "1793", "geometry_note": "Rough relief-derived proposal; use only as a tracing aid, not as an accepted boundary.", "visual_card": "reports/figures/weak_label_p0_pretriage_v1/p0-01-castro-de-pena-lopesa.png", "rationale": "Autonomous relief proposal for QGIS tracing. The geometry may approximate a visible terrain unit, but it is not a validated castro boundary and must not enter training until reviewed.", "sample_review_key": "wl-pos-pos-es-pba-14588", "autonomous_seed_status": "proposed_not_final", "autonomous_decision": "positive_boundary_review_required", "training_gate": "needs_reviewed_polygon_before_strong_training", "proposed_training_use": "positive_candidate_after_boundary_review", "geometry_action": "draw_or_refine_visible_castro_boundary", "seed_geometry_role": "review_search_area_not_label", "review_risk": "local_holdout_boundary_risk", "next_qgis_action": "inspect_RGB_DEM_slope_LRM_then_draw_boundary_or_mark_needs_followup", "dataset": "holdouts", "pretriage_group": "o_val_local_first", "pretriage_decision": "local_positive_boundary_review", "pretriage_confidence": "high_model_signal_boundary_needed", "suggested_taxonomy": "castro", "label_class": "1", "country": "ES", "longitude": "-8.22594601477777", "latitude": "43.57701844556937", "fusion_probability": "0.06230073", "fusion_rank": "199", "max_safety_rank": "72", "specialist_probability": "1.00000000", "specialist_rank": "2", "specialist_mean_rank": "51", "negative_type": "", "review_buffer_m": "120", "source_queues": "holdout_low_rank_positives;holdout_morphology_rescues", "source_lanes": "mamoa_specialist_positive_review", "source_review_ids": "err-review-0025;err-review-0028" }, "geometry": { "type": "Polygon", "coordinates": [ [ [ -8.226006342920092, 43.578070092320381 ], [ -8.225720180038557, 43.578083209192044 ], [ -8.225635051541543, 43.578071789247261 ], [ -8.225632499523305, 43.578042361794651 ], [ -8.225510720677795, 43.578047943468114 ], [ -8.225465914579093, 43.578038553763562 ], [ -8.225445949071503, 43.578032776097466 ], [ -8.225443640231223, 43.578006151738919 ], [ -8.22536620890622, 43.578009700651542 ], [ -8.225330698369323, 43.577999424482599 ], [ -8.225318858386649, 43.577994976000035 ], [ -8.225316442394394, 43.577967115300837 ], [ -8.225252504544017, 43.577970045698443 ], [ -8.225201409033488, 43.577950848177956 ], [ -8.225190784954011, 43.577945840918744 ], [ -8.225189244711505, 43.577928078712112 ], [ -8.225156301696654, 43.577929588522821 ], [ -8.22512624078705, 43.577915420419131 ], [ -8.225123708374698, 43.577886216023487 ], [ -8.225071236128688, 43.577888620843005 ], [ -8.225061522162925, 43.577882987241843 ], [ -8.225058172128277, 43.577844353292363 ], [ -8.224999539457606, 43.577847040410418 ], [ -8.22499633793916, 43.577845183689604 ], [ -8.224992635972242, 43.577802490518714 ], [ -8.224934206443869, 43.577805168292919 ], [ -8.224930750089261, 43.577802724261659 ], [ -8.2249270999066, 43.577760627702574 ], [ -8.22487461846916, 43.577763032851841 ], [ -8.224864800369904, 43.577756090335598 ], [ -8.22486156393134, 43.577718764843922 ], [ -8.224822874214311, 43.577720537918232 ], [ -8.224797950439923, 43.57769907301693 ], [ -8.224796028046466, 43.577676901942759 ], [ -8.224773410266675, 43.577677938459978 ], [ -8.224767320484936, 43.577672693797737 ], [ -8.224730374153129, 43.577633676938262 ], [ -8.224726617477254, 43.577590350292986 ], [ -8.224690896906941, 43.577591987254692 ], [ -8.224684796312427, 43.5775855447556 ], [ -8.224661654492971, 43.577555092092005 ], [ -8.224657207115595, 43.577503798590044 ], [ -8.224623837299424, 43.577505327803763 ], [ -8.224614419486375, 43.577492934727537 ], [ -8.224590918770845, 43.577453252598623 ], [ -8.224583922321733, 43.57737255811594 ], [ -8.224547435991498, 43.577374230123375 ], [ -8.224515926709429, 43.577302318282229 ], [ -8.224499014220411, 43.577107251400157 ], [ -8.22446950378991, 43.577108603711146 ], [ -8.224466056639262, 43.577086328537213 ], [ -8.22446562927937, 43.577063914982254 ], [ -8.22449513968823, 43.577062562673362 ], [ -8.22447822740779, 43.576867495776604 ], [ -8.224497066833132, 43.576793276698368 ], [ -8.224533552815519, 43.57679160472464 ], [ -8.224526556604529, 43.576710910225188 ], [ -8.224543017278151, 43.57666939683854 ], [ -8.224550219934589, 43.57665624211625 ], [ -8.224583589285793, 43.576654712947608 ], [ -8.224579142114393, 43.576603419431152 ], [ -8.224596840679283, 43.576571095207143 ], [ -8.224601780149099, 43.576564146782559 ], [ -8.224637500116909, 43.57656250987926 ], [ -8.224633743648024, 43.576519183219418 ], [ -8.2246636578619, 43.576477102354147 ], [ -8.224668793461877, 43.576471343266647 ], [ -8.22469141079382, 43.576470306792856 ], [ -8.22468948852187, 43.57644813571013 ], [ -8.224710507046987, 43.576424565397168 ], [ -8.224749195941193, 43.576422792402639 ], [ -8.224745959724592, 43.57638546689536 ], [ -8.224754500753749, 43.576377683021043 ], [ -8.224806980998077, 43.576375277987445 ], [ -8.224803331083429, 43.576333181409503 ], [ -8.224806337850138, 43.576330441184389 ], [ -8.224864765964469, 43.576327763547283 ], [ -8.224861064286502, 43.576285070356064 ], [ -8.22486391967464, 43.576282936054305 ], [ -8.224922550840368, 43.576280249082146 ], [ -8.224919201081901, 43.57624161511324 ], [ -8.224927864803544, 43.576235139273543 ], [ -8.224980335625775, 43.576232734592061 ], [ -8.224977803432608, 43.576203530180976 ], [ -8.22500517824804, 43.576186729796341 ], [ -8.225038120320693, 43.576185220076979 ], [ -8.225036580217672, 43.576167457860535 ], [ -8.22504625496394, 43.576161520296139 ], [ -8.225093628398865, 43.576137809870517 ], [ -8.22515756432681, 43.576134879659286 ], [ -8.225155148565715, 43.576107018943794 ], [ -8.225166126029739, 43.576101524701642 ], [ -8.225199579241822, 43.576088087801935 ], [ -8.225277008125115, 43.576084539126057 ], [ -8.225274699516206, 43.576057914751225 ], [ -8.225293508265279, 43.576050359956525 ], [ -8.22533633615534, 43.57603695372665 ], [ -8.225458110982048, 43.576031372442849 ], [ -8.225455559231655, 43.576001944971409 ], [ -8.225538038006862, 43.575982842815797 ], [ -8.225824191025136, 43.575969726900531 ], [ -8.225822047501881, 43.575945008905073 ], [ -8.225852781580977, 43.575942494658563 ], [ -8.225883706635347, 43.575942182645662 ], [ -8.225885850183616, 43.575966900638704 ], [ -8.226172002967227, 43.575953783856662 ], [ -8.226257128492614, 43.575965203548186 ], [ -8.226259680630086, 43.575994630982109 ], [ -8.226381455191682, 43.575989048719102 ], [ -8.226426259842071, 43.575998438134917 ], [ -8.22644622473368, 43.576004215659538 ], [ -8.22644853385443, 43.576030839984739 ], [ -8.226525962509712, 43.576027290466669 ], [ -8.226561472019059, 43.576037566313147 ], [ -8.226573311682282, 43.576042014682123 ], [ -8.226575728091749, 43.576069875334738 ], [ -8.226639663796268, 43.576066944298269 ], [ -8.226690758046892, 43.576086141234327 ], [ -8.226701381894712, 43.576091148364739 ], [ -8.226702922482984, 43.576108910534131 ], [ -8.22673586442377, 43.576107400327722 ], [ -8.22676592472793, 43.576121568035354 ], [ -8.226768457778043, 43.576150772363334 ], [ -8.226820928372563, 43.576148366840769 ], [ -8.226830642193191, 43.576154000298594 ], [ -8.226833993163478, 43.576192634150004 ], [ -8.226892624056861, 43.576189946171922 ], [ -8.226895825535781, 43.576191802841187 ], [ -8.226899528639294, 43.57623449589417 ], [ -8.22695795646526, 43.57623181719196 ], [ -8.226961412800023, 43.576234261162455 ], [ -8.226965064205491, 43.57627635759583 ], [ -8.227017544176283, 43.576273951551919 ], [ -8.227027362248069, 43.576280893883208 ], [ -8.227030599862065, 43.576318219255 ], [ -8.227069288544627, 43.576316445478746 ], [ -8.227094212462156, 43.576337909873743 ], [ -8.227096135609017, 43.576360080871638 ], [ -8.227118752811512, 43.576359043919723 ], [ -8.227124842642361, 43.576364288453227 ], [ -8.227161789594925, 43.576403304501596 ], [ -8.227165547861246, 43.576446630987149 ], [ -8.227201267613131, 43.57644499328633 ], [ -8.227207368336959, 43.576451435643541 ], [ -8.227230510917869, 43.57648188774948 ], [ -8.227234960321024, 43.576533181049527 ], [ -8.227268329460994, 43.576531651100687 ], [ -8.227277747630431, 43.576544043938576 ], [ -8.227301249652944, 43.576583725445055 ], [ -8.227308249538236, 43.576664419588205 ], [ -8.227344735278781, 43.576662746721233 ], [ -8.227376247459615, 43.576734657630489 ], [ -8.227393169016983, 43.576929723627693 ], [ -8.227422679222137, 43.576928370566428 ], [ -8.227426127444321, 43.576950645596469 ], [ -8.227426555901266, 43.576973059085049 ], [ -8.22739704567447, 43.576974412148395 ], [ -8.227413967440532, 43.577169478130912 ], [ -8.227395131586103, 43.577243697513673 ], [ -8.227358645497718, 43.577245370414389 ], [ -8.227365645621253, 43.577326064540777 ], [ -8.227349186797765, 43.577367578243738 ], [ -8.227341984699883, 43.577380733115639 ], [ -8.227308615094959, 43.577382263109584 ], [ -8.227313064704191, 43.577433556395128 ], [ -8.227295367429416, 43.577465880977861 ], [ -8.22729042821773, 43.577472829506739 ], [ -8.227254707863352, 43.577474467266008 ], [ -8.227258466336759, 43.577517793736995 ], [ -8.227228553554799, 43.577559875214313 ], [ -8.227223418127879, 43.577565634409012 ], [ -8.227200800477545, 43.577566671404355 ], [ -8.227202723745966, 43.577588842393681 ], [ -8.227181705877843, 43.577612413135334 ], [ -8.227143016372473, 43.577614186991383 ], [ -8.227146254208527, 43.577651512347543 ], [ -8.22713771334079, 43.577659296393833 ], [ -8.227085232176908, 43.577661702553463 ], [ -8.227088883850497, 43.577703798967974 ], [ -8.227085877130826, 43.577706539251217 ], [ -8.227027447890844, 43.577709218090561 ], [ -8.227031151283416, 43.577751911123215 ], [ -8.227028295912584, 43.57775404547867 ], [ -8.226969663514287, 43.577756733602712 ], [ -8.226973014760853, 43.577795367434675 ], [ -8.226964351065506, 43.577801843429235 ], [ -8.226911879047231, 43.577804249089873 ], [ -8.226914412316605, 43.577833453402413 ], [ -8.226887037372647, 43.577850254254287 ], [ -8.226854094489678, 43.577851764552079 ], [ -8.226855635217477, 43.577869526711652 ], [ -8.226845960405845, 43.577875464433639 ], [ -8.226798586428025, 43.577899175618512 ], [ -8.226734648801097, 43.577902106841428 ], [ -8.226737065441785, 43.577929967477758 ], [ -8.226726087817958, 43.577935461879967 ], [ -8.226692634001639, 43.577948899260356 ], [ -8.226615202904675, 43.577952449015214 ], [ -8.226617512256851, 43.577979073324144 ], [ -8.226598703114993, 43.577986628358126 ], [ -8.22655587420498, 43.578000035116069 ], [ -8.226434095624613, 43.578005617768802 ], [ -8.226436648029967, 43.578035045183881 ], [ -8.226354166850717, 43.578054148113978 ], [ -8.226068004203878, 43.578067265852468 ], [ -8.226070147986478, 43.578091983829019 ], [ -8.226039412832522, 43.57809449818852 ], [ -8.22600848667768, 43.578094810299348 ], [ -8.226006342920092, 43.578070092320381 ] ] ] } },
{ "type": "Feature", "properties": { "proposal_id": "p0-boundary-proposal-002", "decision_seed_id": "p0-seed-003", "dossier_order": "03", "sample_id": "wl-pos-pos-es-pba-24710", "name": "Castro de Punta Taraza", "municipality": "Valdoviño", "parish": "Meirás (San Vicente)", "final_split": "test_trasancos", "morphology_proxy": "coastal_promontory_hint", "proposal_status": "rough_relief_proposal_not_label", "accepted_label_status": "not_accepted", "can_enter_training_now": "no", "needs_review": "yes", "method": "promontory_slope_lrm_component", "proposal_area_m2": "36696.2", "search_radius_m": "120", "dem_path": "data/external/weak-label-relief-v1/test_trasancos/positive/wl-tile-v1-02731-pos-es-pba-24710-mdt5.tif", "dem_status": "valid", "resolution_m": "5.00", "mask_pixels": "1480", "geometry_note": "Rough relief-derived proposal; use only as a tracing aid, not as an accepted boundary.", "visual_card": "reports/figures/weak_label_p0_pretriage_v1/p0-03-castro-de-punta-taraza.png", "rationale": "Autonomous relief proposal for QGIS tracing. The geometry may approximate a visible terrain unit, but it is not a validated castro boundary and must not enter training until reviewed.", "sample_review_key": "wl-pos-pos-es-pba-24710", "autonomous_seed_status": "proposed_not_final", "autonomous_decision": "positive_boundary_review_required", "training_gate": "needs_reviewed_polygon_before_strong_training", "proposed_training_use": "positive_candidate_after_boundary_review", "geometry_action": "draw_or_refine_visible_castro_boundary", "seed_geometry_role": "review_search_area_not_label", "review_risk": "variable_morphology_promontory_boundary_risk", "next_qgis_action": "inspect_RGB_DEM_slope_LRM_then_draw_boundary_or_mark_needs_followup", "dataset": "holdouts", "pretriage_group": "positive_rescue", "pretriage_decision": "positive_boundary_review", "pretriage_confidence": "high_model_signal_boundary_needed", "suggested_taxonomy": "castro", "label_class": "1", "country": "ES", "longitude": "-8.198712287595123", "latitude": "43.60215405961929", "fusion_probability": "0.96686012", "fusion_rank": "4", "max_safety_rank": "3", "specialist_probability": "1.00000000", "specialist_rank": "1", "specialist_mean_rank": "4", "negative_type": "", "review_buffer_m": "120", "source_queues": "holdout_morphology_rescues", "source_lanes": "mamoa_specialist_positive_review", "source_review_ids": "err-review-0031" }, "geometry": { "type": "Polygon", "coordinates": [ [ [ -8.198772209183419, 43.603205381205932 ], [ -8.198484206375067, 43.603218513761355 ], [ -8.198400890686273, 43.603207322900495 ], [ -8.198398322282507, 43.603177576709228 ], [ -8.198275230710964, 43.603183189208941 ], [ -8.198231573322653, 43.603174033758322 ], [ -8.198211778582877, 43.603168302913097 ], [ -8.198205592731602, 43.603096658142817 ], [ -8.198143921260787, 43.603099470034934 ], [ -8.198140063859141, 43.603054792795795 ], [ -8.198078392424659, 43.603057604650431 ], [ -8.19807453507714, 43.603012927406297 ], [ -8.198012863678997, 43.603015739223444 ], [ -8.198016720981256, 43.603060416471934 ], [ -8.197921370603693, 43.603064763770398 ], [ -8.1978920755594, 43.603050953352685 ], [ -8.19788952085595, 43.603021362758355 ], [ -8.197836392133825, 43.603023785000012 ], [ -8.197827363669571, 43.603018547931171 ], [ -8.197823992273436, 43.602979497213937 ], [ -8.197764702166737, 43.602982200329023 ], [ -8.197762185480469, 43.602980740491425 ], [ -8.197758463781389, 43.602937631627029 ], [ -8.197699437653602, 43.602940322672765 ], [ -8.197696609328679, 43.602938322368502 ], [ -8.197692935379811, 43.602895765997665 ], [ -8.197639858381358, 43.602898185788646 ], [ -8.197630669179679, 43.602891686803133 ], [ -8.197627407068696, 43.602853900325826 ], [ -8.19758816969037, 43.602855689145365 ], [ -8.197563838143418, 43.602834730328048 ], [ -8.197561878848051, 43.602812034611524 ], [ -8.197538716116075, 43.602813090581265 ], [ -8.197532822509936, 43.60280801391194 ], [ -8.197496286197495, 43.602769421464743 ], [ -8.19749249383977, 43.602725491567021 ], [ -8.197456260684142, 43.602727143382033 ], [ -8.197450297980041, 43.602720845100158 ], [ -8.197427599626689, 43.6026909673649 ], [ -8.197423109039073, 43.602638948469448 ], [ -8.197389253071035, 43.602640491891478 ], [ -8.197379928407567, 43.602628217844888 ], [ -8.197356912725354, 43.602589338918825 ], [ -8.197353724445964, 43.602552405318811 ], [ -8.197415395435453, 43.602549593880894 ], [ -8.197403825096517, 43.602415561993389 ], [ -8.197465495941303, 43.602412750535422 ], [ -8.197457782335823, 43.602323395949362 ], [ -8.197519453081169, 43.60232058446698 ], [ -8.197515596246467, 43.602275907177386 ], [ -8.197577266937632, 43.602273095666249 ], [ -8.197573410066537, 43.602228418380371 ], [ -8.197635080703524, 43.602225606840477 ], [ -8.197631223796034, 43.602180929558337 ], [ -8.197692894378838, 43.602178117989673 ], [ -8.197689037434955, 43.602133440711285 ], [ -8.19775070796358, 43.602130629113859 ], [ -8.197746850983304, 43.602085951839193 ], [ -8.197808521457747, 43.602083140212997 ], [ -8.197804664441078, 43.602038462942069 ], [ -8.19786633486134, 43.602035651287117 ], [ -8.197862477808279, 43.601990974019934 ], [ -8.197800807433275, 43.601993785670523 ], [ -8.197796950434343, 43.601949108398358 ], [ -8.197735280095678, 43.601951920011466 ], [ -8.197731423150866, 43.601907242734313 ], [ -8.197793093444274, 43.601904431125568 ], [ -8.197789236463073, 43.60185975385216 ], [ -8.197850906702296, 43.601856942214638 ], [ -8.197847049684704, 43.601812264944954 ], [ -8.19790871986975, 43.601809453278676 ], [ -8.197904862815763, 43.601764776012736 ], [ -8.197966532946628, 43.601761964317689 ], [ -8.197958818774737, 43.601672609792658 ], [ -8.198020488806165, 43.601669798073218 ], [ -8.198012774579226, 43.601580443554404 ], [ -8.198074444511212, 43.601577631810549 ], [ -8.198070587365784, 43.601532954554585 ], [ -8.198132257243595, 43.601530142781975 ], [ -8.198124542888822, 43.601440788276875 ], [ -8.198186212667196, 43.601437976479865 ], [ -8.198190069885406, 43.601482653728354 ], [ -8.198251739700115, 43.60147984189387 ], [ -8.198255596972448, 43.601524519137385 ], [ -8.198317266823494, 43.601521707265405 ], [ -8.1983134095059, 43.601477030026238 ], [ -8.198621758400991, 43.601462970191285 ], [ -8.19861790086598, 43.601418292973321 ], [ -8.198679570572972, 43.601415480911314 ], [ -8.198683428153242, 43.601460158124922 ], [ -8.198868437356454, 43.601451721727095 ], [ -8.198864579640414, 43.601407044526574 ], [ -8.198926249311715, 43.601404232332065 ], [ -8.198922391559282, 43.601359555135268 ], [ -8.198984061176404, 43.60135674291201 ], [ -8.19897634560763, 43.60126738852528 ], [ -8.198914676081023, 43.601270200739805 ], [ -8.198899245230917, 43.601091491941411 ], [ -8.198940560397654, 43.601089607923313 ], [ -8.199023873177014, 43.60110079853343 ], [ -8.199026441702893, 43.601130544705917 ], [ -8.19914952894232, 43.601124931606485 ], [ -8.199193184919368, 43.601134086774444 ], [ -8.19921297904831, 43.601139817479037 ], [ -8.199215307729464, 43.601166784981558 ], [ -8.199293767399542, 43.601163206900317 ], [ -8.199328440523262, 43.60117324525816 ], [ -8.199340067439259, 43.601177615072864 ], [ -8.199342504537247, 43.601205837374316 ], [ -8.199407297410431, 43.601202882485843 ], [ -8.199457763462863, 43.601221849380977 ], [ -8.19946813402575, 43.601226738295189 ], [ -8.199469701499231, 43.601244889616531 ], [ -8.199503379326309, 43.601243353701044 ], [ -8.199532673781242, 43.601257163732207 ], [ -8.199535229132787, 43.601286754258311 ], [ -8.199588356182725, 43.601284331303511 ], [ -8.199597384512396, 43.60128956823899 ], [ -8.199600756856803, 43.601328618857615 ], [ -8.199660045166402, 43.601325914871438 ], [ -8.199662561821704, 43.601327374668486 ], [ -8.199666284671274, 43.601370483414449 ], [ -8.199725309079566, 43.601367791429901 ], [ -8.199728137388373, 43.601369791684398 ], [ -8.199731812576209, 43.601412347928814 ], [ -8.19978488809174, 43.601409927231842 ], [ -8.199794077268159, 43.601416426044125 ], [ -8.199797340571598, 43.601454212400697 ], [ -8.199836576901189, 43.601452422868441 ], [ -8.199860908589342, 43.60147338119129 ], [ -8.199862868657448, 43.601496076830117 ], [ -8.199886030798488, 43.601495020414731 ], [ -8.199891924452592, 43.601500096959406 ], [ -8.199928461381468, 43.601538688604336 ], [ -8.19993225535465, 43.601582618340935 ], [ -8.199968487680657, 43.601580965775511 ], [ -8.199974450511727, 43.601587263918667 ], [ -8.199997149614084, 43.601617141106956 ], [ -8.200001642259435, 43.601669159798696 ], [ -8.200035497542059, 43.601667615630227 ], [ -8.200044822559555, 43.601679889440838 ], [ -8.200067839524785, 43.601718767757461 ], [ -8.200074888027563, 43.601800378315431 ], [ -8.200111827564587, 43.601798693446767 ], [ -8.200142754739623, 43.601869313006979 ], [ -8.200159710374242, 43.602065628080929 ], [ -8.200189660238264, 43.602064261999843 ], [ -8.200193099762641, 43.602086531669705 ], [ -8.200193519023349, 43.602108939101036 ], [ -8.20016356913735, 43.60211030518424 ], [ -8.200180524982217, 43.602306620243397 ], [ -8.200161991249047, 43.602379495812549 ], [ -8.200125051359601, 43.602381180715184 ], [ -8.200132100102614, 43.602462791256258 ], [ -8.200115952918033, 43.602503455905854 ], [ -8.200108812793358, 43.602516480713412 ], [ -8.200074957038657, 43.602518024927384 ], [ -8.200079449892263, 43.60257004360448 ], [ -8.200062069206037, 43.602601748867627 ], [ -8.200057236720884, 43.602608539393721 ], [ -8.200021003783291, 43.602610192018098 ], [ -8.200024797965648, 43.602654121740002 ], [ -8.199995187040113, 43.602695730408122 ], [ -8.199990212973448, 43.602701302631033 ], [ -8.199967050373445, 43.602702359090657 ], [ -8.199969010565498, 43.602725054720757 ], [ -8.199948475303891, 43.602748059416534 ], [ -8.199909238139247, 43.602749849029266 ], [ -8.199912501666583, 43.602787635370092 ], [ -8.199904502537512, 43.602794918129504 ], [ -8.199851425814469, 43.60279733894285 ], [ -8.199855101272263, 43.602839895168295 ], [ -8.199852639236886, 43.602842136709086 ], [ -8.199793613399121, 43.602844828831422 ], [ -8.199797336539373, 43.602887937556929 ], [ -8.199795090725694, 43.602889614561988 ], [ -8.199735800893196, 43.602892318694948 ], [ -8.19973917351572, 43.602931369294026 ], [ -8.199731116789257, 43.602937385439645 ], [ -8.199677988296694, 43.602939808533471 ], [ -8.199680543869482, 43.602969399044035 ], [ -8.199653854400617, 43.602985762338569 ], [ -8.199620175609617, 43.602987298346982 ], [ -8.199621743225091, 43.603005449658326 ], [ -8.199612294838548, 43.603011242447757 ], [ -8.199565486380266, 43.603034645679934 ], [ -8.199500691557466, 43.603037600756316 ], [ -8.199503128888701, 43.603065823041376 ], [ -8.199492344619484, 43.603071214930054 ], [ -8.19945966944351, 43.603084324730119 ], [ -8.199381207297444, 43.603087903049989 ], [ -8.199383536212025, 43.603114870536103 ], [ -8.199364882623366, 43.603122354626365 ], [ -8.199323142724362, 43.603135404200756 ], [ -8.199200051419908, 43.603141017691954 ], [ -8.199202620215432, 43.603170763845483 ], [ -8.199121883272856, 43.603189435536962 ], [ -8.198833880700789, 43.603202568969479 ], [ -8.198836041951585, 43.603227597555716 ], [ -8.198805301239791, 43.603230104519184 ], [ -8.198774370408861, 43.603230409794612 ], [ -8.198772209183419, 43.603205381205932 ] ] ] } },
{ "type": "Feature", "properties": { "proposal_id": "p0-boundary-proposal-003", "decision_seed_id": "p0-seed-004", "dossier_order": "04", "sample_id": "wl-pos-pos-es-pba-24709", "name": "Castro de Punta Frouxeira", "municipality": "Valdoviño", "parish": "Valdoviño (Santaia)", "final_split": "test_trasancos", "morphology_proxy": "coastal_promontory_hint", "proposal_status": "rough_relief_proposal_not_label", "accepted_label_status": "not_accepted", "can_enter_training_now": "no", "needs_review": "yes", "method": "promontory_slope_lrm_component", "proposal_area_m2": "34048.1", "search_radius_m": "120", "dem_path": "data/external/weak-label-relief-v1/test_trasancos/positive/wl-tile-v1-02730-pos-es-pba-24709-mdt5.tif", "dem_status": "valid", "resolution_m": "5.00", "mask_pixels": "1373", "geometry_note": "Rough relief-derived proposal; use only as a tracing aid, not as an accepted boundary.", "visual_card": "reports/figures/weak_label_p0_pretriage_v1/p0-04-castro-de-punta-frouxeira.png", "rationale": "Autonomous relief proposal for QGIS tracing. The geometry may approximate a visible terrain unit, but it is not a validated castro boundary and must not enter training until reviewed.", "sample_review_key": "wl-pos-pos-es-pba-24709", "autonomous_seed_status": "proposed_not_final", "autonomous_decision": "positive_boundary_review_required", "training_gate": "needs_reviewed_polygon_before_strong_training", "proposed_training_use": "positive_candidate_after_boundary_review", "geometry_action": "draw_or_refine_visible_castro_boundary", "seed_geometry_role": "review_search_area_not_label", "review_risk": "variable_morphology_promontory_boundary_risk", "next_qgis_action": "inspect_RGB_DEM_slope_LRM_then_draw_boundary_or_mark_needs_followup", "dataset": "holdouts", "pretriage_group": "positive_rescue", "pretriage_decision": "positive_boundary_review", "pretriage_confidence": "high_model_signal_boundary_needed", "suggested_taxonomy": "castro", "label_class": "1", "country": "ES", "longitude": "-8.148872875517807", "latitude": "43.618480398789906", "fusion_probability": "0.93602800", "fusion_rank": "7", "max_safety_rank": "4", "specialist_probability": "0.99999962", "specialist_rank": "3", "specialist_mean_rank": "6", "negative_type": "", "review_buffer_m": "120", "source_queues": "holdout_morphology_rescues", "source_lanes": "mamoa_specialist_positive_review", "source_review_ids": "err-review-0030" }, "geometry": { "type": "Polygon", "coordinates": [ [ [ -8.148870271599234, 43.619534017640937 ], [ -8.148640622926131, 43.619544388581971 ], [ -8.148560751400291, 43.619533628219322 ], [ -8.148558155152152, 43.619503284239634 ], [ -8.148432663347332, 43.619508951165265 ], [ -8.148391183563024, 43.619500235692556 ], [ -8.148371719477751, 43.61949459254555 ], [ -8.14836935714278, 43.619466981400663 ], [ -8.148289000215554, 43.619470610019455 ], [ -8.148255913093008, 43.619461017155089 ], [ -8.148244690993323, 43.61945679460716 ], [ -8.148242218400837, 43.619427894008112 ], [ -8.148180559334261, 43.619430678237109 ], [ -8.148172918361599, 43.619341366309605 ], [ -8.148234577337648, 43.619338582089242 ], [ -8.148226936309579, 43.619249270167906 ], [ -8.148288595186266, 43.619246485923071 ], [ -8.148284774640137, 43.619201829965782 ], [ -8.148346433462725, 43.619199045692142 ], [ -8.148342612880114, 43.619154389738554 ], [ -8.148404271648603, 43.619151605436109 ], [ -8.148400451029509, 43.619106949486209 ], [ -8.14833879230628, 43.619109733784349 ], [ -8.148334971741228, 43.619065077829532 ], [ -8.14827331305443, 43.619067862090233 ], [ -8.14826949254342, 43.619023206130478 ], [ -8.148207833893048, 43.619025990353755 ], [ -8.14820401343608, 43.618981334389055 ], [ -8.14814235482214, 43.6189841185749 ], [ -8.148138534419214, 43.618939462605283 ], [ -8.148015217255351, 43.618945030868971 ], [ -8.148019037567751, 43.618989686847215 ], [ -8.147957378927305, 43.618992470933712 ], [ -8.14796119920322, 43.619037126915664 ], [ -8.147899540508678, 43.619039910973356 ], [ -8.147888079843058, 43.618905943012706 ], [ -8.147826421275472, 43.618908727024326 ], [ -8.147818780966148, 43.618819415038836 ], [ -8.14775712248025, 43.618822199008711 ], [ -8.147753302384023, 43.618777543010744 ], [ -8.147691643934554, 43.618780326943195 ], [ -8.147684003858952, 43.618691014936729 ], [ -8.147622345491177, 43.618693798827437 ], [ -8.147610885579402, 43.618559830800166 ], [ -8.147549227338583, 43.618562614644802 ], [ -8.147541587531814, 43.618473302614902 ], [ -8.147479929372683, 43.618476086417793 ], [ -8.147476109527728, 43.6184314303976 ], [ -8.147599425746634, 43.618425862767339 ], [ -8.147603245682113, 43.618470518778906 ], [ -8.147664903823575, 43.618467734909764 ], [ -8.147668723813094, 43.618512390916408 ], [ -8.147730381990987, 43.618509607009841 ], [ -8.147734202034547, 43.618554263011539 ], [ -8.147795860248868, 43.618551479067555 ], [ -8.147792040160049, 43.61850682307017 ], [ -8.147853698320274, 43.618504039097388 ], [ -8.147849878194972, 43.618459383103705 ], [ -8.147911536301102, 43.618456599102124 ], [ -8.147896255706629, 43.618277975138469 ], [ -8.147957913622879, 43.618275191121029 ], [ -8.147950273287794, 43.618185879144136 ], [ -8.148011931104689, 43.618183095102225 ], [ -8.148004290714198, 43.618093783131485 ], [ -8.148065948431737, 43.618090999065082 ], [ -8.148062128204398, 43.618046343083087 ], [ -8.148123785867844, 43.618043558987893 ], [ -8.148112325102721, 43.617909591051188 ], [ -8.148050667575058, 43.617912375133443 ], [ -8.148043027199394, 43.617823063163925 ], [ -8.147981369753417, 43.617825847204443 ], [ -8.14797372950339, 43.617736535223827 ], [ -8.147912072139102, 43.617739319222586 ], [ -8.147905658810151, 43.617664348326855 ], [ -8.147931047687884, 43.61764880546643 ], [ -8.14802774655341, 43.617644439217472 ], [ -8.148023926413863, 43.617599783229309 ], [ -8.148085583624708, 43.617596999177266 ], [ -8.148083111268859, 43.617568098561563 ], [ -8.148093526954714, 43.617562898963008 ], [ -8.148124723362585, 43.617550403374921 ], [ -8.148205077753341, 43.617546774998004 ], [ -8.148202715655154, 43.617519163836448 ], [ -8.148221067449905, 43.617511813077478 ], [ -8.14826074109107, 43.617499433024278 ], [ -8.148447885817856, 43.617490982251844 ], [ -8.148444329864637, 43.61744941769232 ], [ -8.148461052637755, 43.617445559195211 ], [ -8.148567379405446, 43.617440757717134 ], [ -8.148571199925993, 43.617485413668312 ], [ -8.148632856966808, 43.617482629326858 ], [ -8.148636677541392, 43.617527285273091 ], [ -8.148698334618636, 43.617524500894213 ], [ -8.14870215524726, 43.617569156835529 ], [ -8.148763812360924, 43.617566372419212 ], [ -8.14876763304359, 43.617611028355583 ], [ -8.148829290193682, 43.617608243901856 ], [ -8.148825469465757, 43.617563587969812 ], [ -8.148887126561755, 43.617560803487272 ], [ -8.148883305797353, 43.617516147558923 ], [ -8.148944962839254, 43.617513363047593 ], [ -8.148941142038373, 43.617468707122946 ], [ -8.14900279902618, 43.617465922582824 ], [ -8.148998978188819, 43.617421266661857 ], [ -8.149105304823587, 43.617416464685576 ], [ -8.149185173561174, 43.617427224803031 ], [ -8.14918776993659, 43.617457568763761 ], [ -8.149313257325707, 43.617451901220129 ], [ -8.149354735770283, 43.6174606164221 ], [ -8.149374199255293, 43.617466259430273 ], [ -8.14937656188518, 43.617493870541111 ], [ -8.149456916042162, 43.617490241287996 ], [ -8.149490002208955, 43.617499833849472 ], [ -8.149501224006229, 43.617504056289256 ], [ -8.149503697035774, 43.617532956840712 ], [ -8.14957006517824, 43.61752995920547 ], [ -8.149619326535396, 43.617548494770489 ], [ -8.149629216634819, 43.617553161873076 ], [ -8.149653760423021, 43.617839978232588 ], [ -8.149715417720971, 43.617837193289361 ], [ -8.149723060575806, 43.61792650502332 ], [ -8.149784717955438, 43.617923720038355 ], [ -8.149792360935916, 43.618013031761201 ], [ -8.149854018397232, 43.618010246734478 ], [ -8.149869304644616, 43.6181888701555 ], [ -8.149930962278136, 43.618186085078392 ], [ -8.14993860554504, 43.618275396776554 ], [ -8.149876947821003, 43.618278181862301 ], [ -8.149880769422367, 43.618322837714771 ], [ -8.14994242719167, 43.618320052624718 ], [ -8.14995007051127, 43.618409364319184 ], [ -8.150011728362259, 43.618406579187379 ], [ -8.150015550080493, 43.618451235029369 ], [ -8.150077207967906, 43.618448449860125 ], [ -8.150081029740182, 43.618493105697162 ], [ -8.150266003485173, 43.618484749977789 ], [ -8.150269825402018, 43.618529405801276 ], [ -8.150331483344601, 43.618526620490933 ], [ -8.150340842011937, 43.618635966758262 ], [ -8.150322885670526, 43.618706322767558 ], [ -8.150285113157228, 43.618708029089014 ], [ -8.150292245070487, 43.618791358337717 ], [ -8.150276691709021, 43.618830431138981 ], [ -8.150269671460471, 43.618843212057769 ], [ -8.150234920797605, 43.618844781855763 ], [ -8.150239489335691, 43.618898160946692 ], [ -8.150222712127213, 43.618928705107571 ], [ -8.150218082552005, 43.618935199432336 ], [ -8.15018090632247, 43.618936878783821 ], [ -8.150184762920109, 43.618981939856418 ], [ -8.150155733490298, 43.619022661968337 ], [ -8.150151065022905, 43.619027883731157 ], [ -8.150126891692578, 43.619028975693546 ], [ -8.150128918311479, 43.619052655202971 ], [ -8.150109299794797, 43.619074598826678 ], [ -8.150069055057957, 43.61907641675225 ], [ -8.150072362977365, 43.619115067646383 ], [ -8.150065385416243, 43.619121410987518 ], [ -8.150011218332756, 43.619123857785851 ], [ -8.150014934258065, 43.619167276377112 ], [ -8.150013496613546, 43.619168583345342 ], [ -8.149953381516974, 43.619171298794356 ], [ -8.149949559748743, 43.619126642953631 ], [ -8.149887901155891, 43.619129428088286 ], [ -8.149884079441701, 43.619084772242616 ], [ -8.14976076232001, 43.619090342403958 ], [ -8.149764583943673, 43.619134998258254 ], [ -8.149702925324309, 43.619137783293574 ], [ -8.149706746911491, 43.619182439151572 ], [ -8.14964508823803, 43.619185224158088 ], [ -8.149648909788727, 43.61922988001978 ], [ -8.149587251061163, 43.61923266499749 ], [ -8.149594894098389, 43.619321976727676 ], [ -8.149656552916477, 43.619319191741326 ], [ -8.149660374493523, 43.619363847601164 ], [ -8.149598715630171, 43.619366632591834 ], [ -8.149602537170736, 43.619411288455382 ], [ -8.149540878253283, 43.619414073417246 ], [ -8.149543241120005, 43.619441684511429 ], [ -8.149524888939686, 43.619449035503237 ], [ -8.149485214350632, 43.619461416045347 ], [ -8.149483040785816, 43.619461514217548 ], [ -8.149479219326995, 43.619416858345993 ], [ -8.149417560391868, 43.619419643241635 ], [ -8.149413738987091, 43.619374987365134 ], [ -8.149290421180854, 43.619380557048423 ], [ -8.149294242495104, 43.619425212933557 ], [ -8.149232583533466, 43.619427997729844 ], [ -8.149236404811232, 43.619472653618665 ], [ -8.149174745795497, 43.619475438386154 ], [ -8.149178567036779, 43.619520094278677 ], [ -8.149055248888269, 43.619525663722925 ], [ -8.149057252097968, 43.619549074203796 ], [ -8.148965045881848, 43.619556552155444 ], [ -8.148872274737746, 43.619557428128601 ], [ -8.148870271599234, 43.619534017640937 ] ], [ [ -8.148224179173873, 43.617770054870967 ], [ -8.148285836539255, 43.617767270702309 ], [ -8.148282016192331, 43.617722614733289 ], [ -8.148343673503616, 43.617719830535833 ], [ -8.148339853120209, 43.617675174570486 ], [ -8.148278195854186, 43.617677958763615 ], [ -8.148274375524817, 43.617633302793344 ], [ -8.148212718295216, 43.617636086949041 ], [ -8.148208898019892, 43.617591430973839 ], [ -8.148147240826713, 43.617594215092112 ], [ -8.148151061056781, 43.617638871071634 ], [ -8.148089403809514, 43.617641655161108 ], [ -8.1480932240031, 43.617686311144332 ], [ -8.148031566701739, 43.617689095205016 ], [ -8.148035386858846, 43.617733751191935 ], [ -8.148097044205468, 43.617730967126946 ], [ -8.148100864416612, 43.617775623108933 ], [ -8.14816252179966, 43.617772839006498 ], [ -8.148166342064844, 43.617817494983555 ], [ -8.14822799948432, 43.617814710843703 ], [ -8.148224179173873, 43.617770054870967 ] ] ] } },
{ "type": "Feature", "properties": { "proposal_id": "p0-boundary-proposal-004", "decision_seed_id": "p0-seed-005", "dossier_order": "05", "sample_id": "wl-pos-pos-es-pba-10262", "name": "Necrópole de Santa Comba/Castro de Santa Comba", "municipality": "Ferrol", "parish": "Covas (San Martiño)", "final_split": "test_trasancos", "morphology_proxy": "generic_castro_hint", "proposal_status": "rough_relief_proposal_not_label", "accepted_label_status": "not_accepted", "can_enter_training_now": "no", "needs_review": "yes", "method": "generic_relief_component", "proposal_area_m2": "31010.5", "search_radius_m": "120", "dem_path": "data/external/weak-label-relief-v1/test_trasancos/positive/wl-tile-v1-02678-pos-es-pba-10262-mdt5.tif", "dem_status": "valid", "resolution_m": "5.00", "mask_pixels": "1248", "geometry_note": "Rough relief-derived proposal; use only as a tracing aid, not as an accepted boundary.", "visual_card": "reports/figures/weak_label_p0_pretriage_v1/p0-05-necropole-de-santa-comba-castro-de-santa-comba.png", "rationale": "Autonomous relief proposal for QGIS tracing. The geometry may approximate a visible terrain unit, but it is not a validated castro boundary and must not enter training until reviewed.", "sample_review_key": "wl-pos-pos-es-pba-10262", "autonomous_seed_status": "proposed_not_final", "autonomous_decision": "positive_boundary_review_required", "training_gate": "needs_reviewed_polygon_before_strong_training", "proposed_training_use": "positive_candidate_after_boundary_review", "geometry_action": "draw_or_refine_visible_castro_boundary", "seed_geometry_role": "review_search_area_not_label", "review_risk": "positive_boundary_uncertainty", "next_qgis_action": "inspect_RGB_DEM_slope_LRM_then_draw_boundary_or_mark_needs_followup", "dataset": "holdouts", "pretriage_group": "positive_rescue", "pretriage_decision": "positive_boundary_review", "pretriage_confidence": "medium_model_signal_boundary_needed", "suggested_taxonomy": "castro", "label_class": "1", "country": "ES", "longitude": "-8.282642845995516", "latitude": "43.559082757693524", "fusion_probability": "0.97212417", "fusion_rank": "3", "max_safety_rank": "2", "specialist_probability": "0.99999575", "specialist_rank": "4", "specialist_mean_rank": "2", "negative_type": "", "review_buffer_m": "120", "source_queues": "holdout_morphology_rescues", "source_lanes": "mamoa_specialist_positive_review", "source_review_ids": "err-review-0032" }, "geometry": { "type": "Polygon", "coordinates": [ [ [ -8.283132024495389, 43.560070243990204 ], [ -8.283134545390192, 43.560099012530337 ], [ -8.283048418240838, 43.560119011701261 ], [ -8.282421681047214, 43.560148053074897 ], [ -8.282332759843491, 43.560136165179109 ], [ -8.282330239326923, 43.560107396601872 ], [ -8.28221110489828, 43.560112916493594 ], [ -8.282163905000276, 43.560103046863276 ], [ -8.282143564765644, 43.56009717037265 ], [ -8.282141294543004, 43.560071257623903 ], [ -8.282065955379933, 43.56007474822502 ], [ -8.2820286998263, 43.560063984688064 ], [ -8.282016400725324, 43.560059369847075 ], [ -8.282014025758357, 43.560032260833715 ], [ -8.281952349957827, 43.560035118320577 ], [ -8.281944515834603, 43.559945694565513 ], [ -8.281882840115447, 43.559948552010368 ], [ -8.281878923112565, 43.559903840127475 ], [ -8.281817247429565, 43.559906697534778 ], [ -8.28181333048091, 43.559861985646791 ], [ -8.281751654834061, 43.559864843016527 ], [ -8.281747737939632, 43.559820131123487 ], [ -8.281686062328939, 43.559822988455672 ], [ -8.281666478217987, 43.559599428958776 ], [ -8.281604802824326, 43.559602286235666 ], [ -8.28159696933343, 43.55951286242361 ], [ -8.281535294021138, 43.559515719658492 ], [ -8.281531377334419, 43.559471007747078 ], [ -8.281469702058283, 43.559473864944415 ], [ -8.2814618688023, 43.559384441110815 ], [ -8.281400193607537, 43.559387298266167 ], [ -8.281396277038274, 43.559342586343966 ], [ -8.281334601879665, 43.559345443461751 ], [ -8.281330685364626, 43.559300731534506 ], [ -8.281207335110658, 43.559306445661832 ], [ -8.281174815905974, 43.558935185546325 ], [ -8.281194300258351, 43.558858115881215 ], [ -8.281229846039272, 43.558856469263048 ], [ -8.281222948039911, 43.558777716965309 ], [ -8.281240076337024, 43.558734398800148 ], [ -8.281247409609581, 43.558720975564505 ], [ -8.281279771488652, 43.558719476422638 ], [ -8.281275412949494, 43.558669716617871 ], [ -8.281293791330405, 43.558636075711092 ], [ -8.28129895268169, 43.558628801141474 ], [ -8.281333613154883, 43.558627195502936 ], [ -8.281329929539456, 43.558585141352424 ], [ -8.28136049954651, 43.558542054926768 ], [ -8.281365969725742, 43.558535909861661 ], [ -8.281387454667216, 43.558534914565342 ], [ -8.281385609317704, 43.558513847214279 ], [ -8.281407651458833, 43.558489085578827 ], [ -8.28144521250522, 43.558487345535802 ], [ -8.281442027795336, 43.558450987761141 ], [ -8.281451707713936, 43.558442151278918 ], [ -8.281502970252735, 43.558439776481372 ], [ -8.281499367305818, 43.558398644343498 ], [ -8.28150351517982, 43.558394857876678 ], [ -8.281560727909763, 43.558392207402072 ], [ -8.281557064385884, 43.558350384092009 ], [ -8.281561193814364, 43.558347292458109 ], [ -8.281618485476303, 43.558344638297875 ], [ -8.281615177615945, 43.558306875649478 ], [ -8.281625111969628, 43.558299437949479 ], [ -8.281676242952358, 43.558297069168795 ], [ -8.281673755294888, 43.558268670256815 ], [ -8.281702571588477, 43.558250956055055 ], [ -8.281734000337925, 43.558249500014824 ], [ -8.281732515439913, 43.558232548693134 ], [ -8.281742676049845, 43.558226302664629 ], [ -8.281791239304249, 43.558201954849615 ], [ -8.281853431579645, 43.558199073531 ], [ -8.281851056839894, 43.558171964501661 ], [ -8.281862450850241, 43.55816625195046 ], [ -8.28189752582527, 43.558152137299913 ], [ -8.281972862613257, 43.558148646931777 ], [ -8.281970592618114, 43.558122734167036 ], [ -8.281989742287884, 43.558115028051176 ], [ -8.28203483675145, 43.55810088226157 ], [ -8.282153967249654, 43.558095362755409 ], [ -8.282151446997627, 43.558066594159612 ], [ -8.282237571639579, 43.558046595797776 ], [ -8.282864287237462, 43.558017556542815 ], [ -8.282953205336183, 43.5580294441801 ], [ -8.282955725966405, 43.558058212738807 ], [ -8.283074856203172, 43.558052692277357 ], [ -8.283122054574054, 43.558062561606334 ], [ -8.2831423941807, 43.558068437953494 ], [ -8.283144664673717, 43.558094350669364 ], [ -8.283220001237803, 43.558090859483087 ], [ -8.283257255711677, 43.558101622683658 ], [ -8.283269554480379, 43.558106237407017 ], [ -8.283271929850642, 43.558133346374483 ], [ -8.283334121906593, 43.558130464253992 ], [ -8.283386541378203, 43.558150132929711 ], [ -8.283397709820326, 43.558155390652431 ], [ -8.283399195181174, 43.558172341928739 ], [ -8.283430623803554, 43.558170885424204 ], [ -8.283462298382684, 43.558185796709999 ], [ -8.283468704817626, 43.558258907321772 ], [ -8.283407030971022, 43.558261765501229 ], [ -8.28341094887946, 43.558306477286521 ], [ -8.28304090533817, 43.558323625694371 ], [ -8.283036987701019, 43.558278913882454 ], [ -8.282851965943637, 43.558287487625925 ], [ -8.282855883445144, 43.558332199451158 ], [ -8.282670861470532, 43.558340772909844 ], [ -8.282674778845402, 43.558385484747745 ], [ -8.282613104790521, 43.558388342505502 ], [ -8.282617022129184, 43.558433054347198 ], [ -8.282555348020024, 43.55843591207627 ], [ -8.28255926532248, 43.558480623921788 ], [ -8.282620939476857, 43.558477766188275 ], [ -8.282628774199225, 43.558567189868512 ], [ -8.282690448434968, 43.558564332092999 ], [ -8.282694365854876, 43.558609043927731 ], [ -8.282756040126769, 43.55860618611468 ], [ -8.282759957600904, 43.558650897944347 ], [ -8.28282163190895, 43.558648040093736 ], [ -8.282825549437307, 43.558692751918308 ], [ -8.282887223781502, 43.558689894030145 ], [ -8.282891141364086, 43.558734605849672 ], [ -8.282952815744432, 43.558731747923936 ], [ -8.282960651027055, 43.558821171552218 ], [ -8.283022325488764, 43.558818313584489 ], [ -8.283030160897855, 43.558907737201345 ], [ -8.283091835440937, 43.55890487919163 ], [ -8.283099670976497, 43.55899430279711 ], [ -8.283161345600941, 43.558991444745395 ], [ -8.283165263427449, 43.559036156542739 ], [ -8.283226938088045, 43.559033298453464 ], [ -8.283234773858526, 43.55912272203738 ], [ -8.283296448600487, 43.559119863906105 ], [ -8.28330428449744, 43.55920928747863 ], [ -8.28336595932077, 43.559206429305355 ], [ -8.283369877327976, 43.559251141086243 ], [ -8.283431552187455, 43.559248282875416 ], [ -8.283435470248888, 43.559292994651223 ], [ -8.283497145144519, 43.559290136402829 ], [ -8.28350106326018, 43.55933484817357 ], [ -8.283562738191959, 43.559331989887632 ], [ -8.283566656361847, 43.559376701653285 ], [ -8.283628331329778, 43.55937384332978 ], [ -8.283636167787018, 43.559463266850337 ], [ -8.283697842836316, 43.559460408484838 ], [ -8.28370176112367, 43.559505120239727 ], [ -8.283763436209115, 43.55950226183667 ], [ -8.283767354550696, 43.559546973586485 ], [ -8.283829029672299, 43.559544115145869 ], [ -8.283836866472923, 43.559633538634735 ], [ -8.283775191260888, 43.559636397084226 ], [ -8.283779109629499, 43.559681108832145 ], [ -8.283840784886753, 43.559678250378219 ], [ -8.283843971175443, 43.559714608004072 ], [ -8.283834291441037, 43.559723444681126 ], [ -8.283783028007118, 43.559725820579416 ], [ -8.283786632674435, 43.559766952555904 ], [ -8.283782484865867, 43.559770739102873 ], [ -8.283725271036998, 43.559773390755744 ], [ -8.283728936242579, 43.559815213908799 ], [ -8.283724806839599, 43.55981830562034 ], [ -8.283667513976383, 43.559820960907196 ], [ -8.283670823293313, 43.559858723420312 ], [ -8.283660888970861, 43.559866161297897 ], [ -8.283609756825275, 43.559868531033771 ], [ -8.283612245530948, 43.559896929848918 ], [ -8.283583429104723, 43.559914644542729 ], [ -8.283551999583674, 43.559916101135443 ], [ -8.283553485079031, 43.559933052402315 ], [ -8.283543324401561, 43.559939298596497 ], [ -8.283494760594035, 43.559963647190145 ], [ -8.283432566668621, 43.559966529494062 ], [ -8.283434942266162, 43.559993638445548 ], [ -8.28342354809104, 43.55999935116315 ], [ -8.28338847248458, 43.560013466317983 ], [ -8.283313133545434, 43.560016957737282 ], [ -8.283315404266, 43.560042870437194 ], [ -8.283296254197921, 43.560050576797209 ], [ -8.283251158662569, 43.560064723143128 ], [ -8.283132024495389, 43.560070243990204 ] ], [ [ -8.283128106552098, 43.560025532198551 ], [ -8.283189782225611, 43.560022674077914 ], [ -8.283185864246109, 43.559977962290077 ], [ -8.283247539865338, 43.559975104140754 ], [ -8.283243621849627, 43.559930392356705 ], [ -8.283181946275619, 43.559933250501587 ], [ -8.283178028314136, 43.559888538712457 ], [ -8.283116352776281, 43.559891396819779 ], [ -8.283112434869027, 43.559846685025605 ], [ -8.283050759367324, 43.559849543095375 ], [ -8.283046841514299, 43.559804831296098 ], [ -8.282985166048746, 43.559807689328302 ], [ -8.282989083856556, 43.559852401132012 ], [ -8.28292740833672, 43.559855259135517 ], [ -8.282931326108317, 43.559899970943015 ], [ -8.282869650534197, 43.559902828917849 ], [ -8.282873568269585, 43.559947540729134 ], [ -8.282935243888923, 43.55994468274988 ], [ -8.282939161678541, 43.559989394556112 ], [ -8.283000837334034, 43.559986536539284 ], [ -8.283004755177878, 43.560031248340444 ], [ -8.283066430869519, 43.560028390286057 ], [ -8.283070348767593, 43.560073102082143 ], [ -8.283132024495389, 43.560070243990204 ], [ -8.283128106552098, 43.560025532198551 ] ], [ [ -8.282850061992388, 43.559679269851834 ], [ -8.282911737340417, 43.55967641189919 ], [ -8.282907819613865, 43.559631700088531 ], [ -8.28296949490761, 43.559628842107195 ], [ -8.282965577144848, 43.55958413030033 ], [ -8.28290390189632, 43.559586988277232 ], [ -8.282899984187784, 43.559542276465294 ], [ -8.282838308975411, 43.559545134404644 ], [ -8.282834391321101, 43.559500422587647 ], [ -8.282772716144882, 43.55950328048943 ], [ -8.282768798544797, 43.55945856866736 ], [ -8.282830473675801, 43.55945571077001 ], [ -8.282822638412231, 43.559366287132846 ], [ -8.282760963371661, 43.559369145021307 ], [ -8.282757045798606, 43.559324433197361 ], [ -8.282695370794187, 43.55932729104827 ], [ -8.282691453275355, 43.559282579219214 ], [ -8.282629778307088, 43.559285437032571 ], [ -8.282633695780701, 43.559330148866053 ], [ -8.282572020758156, 43.559333006650725 ], [ -8.282568103329757, 43.559288294812809 ], [ -8.28250642834336, 43.559291152559915 ], [ -8.282502510969193, 43.55924644071694 ], [ -8.282440836018948, 43.559249298426494 ], [ -8.282444753347901, 43.559294010273902 ], [ -8.282383078343376, 43.559296867954785 ], [ -8.282386995636122, 43.559341579806002 ], [ -8.282325320577312, 43.559344437458179 ], [ -8.282333155099391, 43.559433861167584 ], [ -8.282394830248629, 43.559431003506525 ], [ -8.282402664897177, 43.559520427204532 ], [ -8.28246434012779, 43.559517569501494 ], [ -8.282468257510791, 43.559562281345094 ], [ -8.282529932777557, 43.55955942360449 ], [ -8.282533850214785, 43.559604135443053 ], [ -8.282657200811556, 43.5595984198536 ], [ -8.282661118348228, 43.559643131682648 ], [ -8.282722793678237, 43.5596402738338 ], [ -8.282726711269136, 43.559684985657768 ], [ -8.282788386635294, 43.559682127771367 ], [ -8.282792304280422, 43.559726839590276 ], [ -8.282853979682731, 43.559723981666316 ], [ -8.282850061992388, 43.559679269851834 ] ] ] } },
{ "type": "Feature", "properties": { "proposal_id": "p0-boundary-proposal-005", "decision_seed_id": "p0-seed-006", "dossier_order": "06", "sample_id": "wl-pos-pos-es-pba-24674", "name": "Castro da Punta do Vico", "municipality": "Valdoviño", "parish": "Valdoviño (Santaia)", "final_split": "test_trasancos", "morphology_proxy": "coastal_promontory_hint", "proposal_status": "rough_relief_proposal_not_label", "accepted_label_status": "not_accepted", "can_enter_training_now": "no", "needs_review": "yes", "method": "promontory_slope_lrm_component", "proposal_area_m2": "24880.8", "search_radius_m": "120", "dem_path": "data/external/weak-label-relief-v1/test_trasancos/positive/wl-tile-v1-02720-pos-es-pba-24674-mdt5.tif", "dem_status": "valid", "resolution_m": "5.00", "mask_pixels": "1006", "geometry_note": "Rough relief-derived proposal; use only as a tracing aid, not as an accepted boundary.", "visual_card": "reports/figures/weak_label_p0_pretriage_v1/p0-06-castro-da-punta-do-vico.png", "rationale": "Autonomous relief proposal for QGIS tracing. The geometry may approximate a visible terrain unit, but it is not a validated castro boundary and must not enter training until reviewed.", "sample_review_key": "wl-pos-pos-es-pba-24674", "autonomous_seed_status": "proposed_not_final", "autonomous_decision": "positive_boundary_review_required", "training_gate": "needs_reviewed_polygon_before_strong_training", "proposed_training_use": "positive_candidate_after_boundary_review", "geometry_action": "draw_or_refine_visible_castro_boundary", "seed_geometry_role": "review_search_area_not_label", "review_risk": "variable_morphology_promontory_boundary_risk", "next_qgis_action": "inspect_RGB_DEM_slope_LRM_then_draw_boundary_or_mark_needs_followup", "dataset": "holdouts", "pretriage_group": "positive_rescue", "pretriage_decision": "positive_boundary_review", "pretriage_confidence": "medium_model_signal_boundary_needed", "suggested_taxonomy": "castro", "label_class": "1", "country": "ES", "longitude": "-8.147683735016127", "latitude": "43.62230830936563", "fusion_probability": "0.26762530", "fusion_rank": "93", "max_safety_rank": "25", "specialist_probability": "0.99996177", "specialist_rank": "6", "specialist_mean_rank": "37", "negative_type": "", "review_buffer_m": "120", "source_queues": "holdout_low_rank_positives;holdout_morphology_rescues", "source_lanes": "mamoa_specialist_positive_review", "source_review_ids": "err-review-0026;err-review-0029" }, "geometry": { "type": "Polygon", "coordinates": [ [ [ -8.146986637634052, 43.623258763370359 ], [ -8.146937412312745, 43.623240241985847 ], [ -8.146927521422832, 43.623235574688152 ], [ -8.146925904871189, 43.623216677466374 ], [ -8.14689083020094, 43.623218260877309 ], [ -8.146863016391249, 43.623205136114315 ], [ -8.146860421853509, 43.623174805973015 ], [ -8.146806061820262, 43.623177259966234 ], [ -8.14679834750215, 43.623172781240747 ], [ -8.146794938926318, 43.62313293443728 ], [ -8.146734419713843, 43.623135666439616 ], [ -8.146733211513077, 43.623134964989049 ], [ -8.146729456089615, 43.623091062859174 ], [ -8.146669319836828, 43.62309377753887 ], [ -8.146667688459429, 43.623092622781371 ], [ -8.146663973343401, 43.623049191238692 ], [ -8.146609786532897, 43.623051637317744 ], [ -8.146601797857706, 43.623045982584273 ], [ -8.14659849068768, 43.623007319575862 ], [ -8.146558230925679, 43.623009136944837 ], [ -8.146535034559106, 43.622989138604659 ], [ -8.146533008122441, 43.622965447870655 ], [ -8.146508821737418, 43.622966539657781 ], [ -8.146503311024539, 43.622961788685529 ], [ -8.146467561190644, 43.622923991655959 ], [ -8.146463706029754, 43.622878920889192 ], [ -8.146426519343853, 43.622880599492184 ], [ -8.14642082662308, 43.622874580763529 ], [ -8.146398970582197, 43.622845781047801 ], [ -8.146394404144434, 43.62279239385488 ], [ -8.146359645906049, 43.622793962816928 ], [ -8.1463505062313, 43.622781919427254 ], [ -8.14632841086231, 43.622744546581217 ], [ -8.146321282982971, 43.622661211522107 ], [ -8.146283505911512, 43.622662916726902 ], [ -8.146253695488189, 43.6225947228248 ], [ -8.146240523365822, 43.622440718619373 ], [ -8.146212781358171, 43.622441970836292 ], [ -8.146202522591352, 43.622375192414118 ], [ -8.146201323288892, 43.62230800506773 ], [ -8.14622906523544, 43.62230675285663 ], [ -8.146215893308282, 43.622152748637454 ], [ -8.146233853785215, 43.622082398443432 ], [ -8.146271630496125, 43.622080693272991 ], [ -8.146264502860301, 43.621997358196765 ], [ -8.146280059509342, 43.621958285786945 ], [ -8.146287076511516, 43.621945513103988 ], [ -8.146321834265059, 43.621943944188153 ], [ -8.146317268039223, 43.621890556980318 ], [ -8.146334047973179, 43.621860013265362 ], [ -8.146338671181836, 43.621853528882362 ], [ -8.146375857239812, 43.62185185033924 ], [ -8.146372002291631, 43.62180677955751 ], [ -8.146401035544953, 43.621766058228921 ], [ -8.146405694154174, 43.621760848213412 ], [ -8.146429880059767, 43.621759756471988 ], [ -8.146427853751309, 43.621736065728967 ], [ -8.146447463291562, 43.621714135115617 ], [ -8.146487722196403, 43.621712317828333 ], [ -8.146484415253354, 43.621673654803963 ], [ -8.146491378665187, 43.621667325121095 ], [ -8.146545564242446, 43.621664879159574 ], [ -8.146541849399384, 43.621621447597704 ], [ -8.146543271402047, 43.621620155006553 ], [ -8.146603406197899, 43.621617440465727 ], [ -8.146599651067712, 43.621573538315204 ], [ -8.146600730405368, 43.621572733600878 ], [ -8.146722909463245, 43.621567218229217 ], [ -8.146726729098248, 43.621611873455137 ], [ -8.146911713382524, 43.621603522690862 ], [ -8.146907893611715, 43.62155886747788 ], [ -8.147154539019343, 43.621547732679105 ], [ -8.147150719076244, 43.621503077482778 ], [ -8.147274041636519, 43.621497509893302 ], [ -8.147277861670156, 43.621542165081003 ], [ -8.147339522982314, 43.621539381232267 ], [ -8.147335702903407, 43.621494726048894 ], [ -8.147397364161458, 43.621491942171367 ], [ -8.147393544046064, 43.621447286991682 ], [ -8.147455205250017, 43.62144450308535 ], [ -8.147439924695153, 43.621265882377678 ], [ -8.147563246714412, 43.621260314500169 ], [ -8.147561054048271, 43.621234683998246 ], [ -8.147591790402753, 43.621232191690019 ], [ -8.147684564247232, 43.621231316631679 ], [ -8.147686568698331, 43.621254746490195 ], [ -8.147916330474327, 43.621244372346695 ], [ -8.14799609632858, 43.621255118516096 ], [ -8.147998694036485, 43.621285481024678 ], [ -8.148124260837243, 43.621279811177168 ], [ -8.148165669046014, 43.621288511390986 ], [ -8.148185133712234, 43.621294154544366 ], [ -8.148187497626923, 43.621321783377056 ], [ -8.148267908513457, 43.621318152383111 ], [ -8.148300943693814, 43.621327729827449 ], [ -8.148312166158741, 43.621331952351518 ], [ -8.148314640392067, 43.621360869803617 ], [ -8.148381051603463, 43.621357870901491 ], [ -8.148430275714526, 43.621376391719686 ], [ -8.148440166389303, 43.621381058897072 ], [ -8.148441783311721, 43.621399956079863 ], [ -8.148476856839171, 43.621398372245288 ], [ -8.148504670090965, 43.621411496640384 ], [ -8.148507265295693, 43.621441826712498 ], [ -8.148561623619598, 43.621439371987591 ], [ -8.148569337823254, 43.621443850598908 ], [ -8.148580389365021, 43.621573007495073 ], [ -8.148518728139031, 43.621575792014802 ], [ -8.148526370078491, 43.62166510221325 ], [ -8.148464708753126, 43.621667886708501 ], [ -8.148472350637176, 43.621757196913109 ], [ -8.148410689212437, 43.621759981383867 ], [ -8.148418331041071, 43.621849291594636 ], [ -8.148356669516962, 43.621852076040909 ], [ -8.148364311290182, 43.621941386257838 ], [ -8.1483026496667, 43.621944170679619 ], [ -8.148310291384504, 43.622033480902708 ], [ -8.148248629661648, 43.622036265300004 ], [ -8.148256271324037, 43.622125575529253 ], [ -8.148194609501806, 43.622128359902064 ], [ -8.148202251108778, 43.622217670137481 ], [ -8.148140589187173, 43.622220454485806 ], [ -8.14814440995856, 43.622265109606893 ], [ -8.148082747982849, 43.62226789392642 ], [ -8.148086568717748, 43.622312549051216 ], [ -8.148024906687931, 43.622315333341923 ], [ -8.148055472521058, 43.622672574352528 ], [ -8.147993810120246, 43.622675358644663 ], [ -8.148001451575789, 43.622764668899748 ], [ -8.147939789075597, 43.622767453167391 ], [ -8.147958892641764, 43.622990728815921 ], [ -8.147897229906382, 43.622993513072025 ], [ -8.147904871303766, 43.623082823335736 ], [ -8.147843208469006, 43.62308560756734 ], [ -8.147847029135599, 43.623130262702595 ], [ -8.14778536624673, 43.623133046905394 ], [ -8.14778918687683, 43.623177702044345 ], [ -8.147604198021394, 43.623186054466984 ], [ -8.147600377527111, 43.623141399315088 ], [ -8.1475387146029, 43.623144183385421 ], [ -8.147534894162668, 43.623099528228593 ], [ -8.147473231274894, 43.623102312261473 ], [ -8.147461770142689, 43.622968346774343 ], [ -8.147400107381895, 43.622971130761165 ], [ -8.147392466761534, 43.622881820424702 ], [ -8.147454129431784, 43.622879036446513 ], [ -8.147442668431273, 43.62274507095011 ], [ -8.147381005896836, 43.62274785491536 ], [ -8.147373365364267, 43.622658544572694 ], [ -8.147435027808161, 43.622655760616091 ], [ -8.147427387220173, 43.622566450279592 ], [ -8.147365724866818, 43.622569234227576 ], [ -8.147361904631262, 43.622524579054087 ], [ -8.147300242314346, 43.62252736296464 ], [ -8.147296422132841, 43.622482707786219 ], [ -8.147234759852362, 43.622485491659326 ], [ -8.147230939724903, 43.622440836475967 ], [ -8.14716927748086, 43.622443620311643 ], [ -8.147165457407452, 43.622398965123352 ], [ -8.147103795199845, 43.622401748921597 ], [ -8.147099975180485, 43.622357093728382 ], [ -8.146914988640471, 43.622365444911438 ], [ -8.146918808524019, 43.622410100117598 ], [ -8.146857146281077, 43.622412883783355 ], [ -8.146860966128131, 43.62245753899321 ], [ -8.146799303831084, 43.622460322630168 ], [ -8.146826042689371, 43.622772909112129 ], [ -8.146887705303314, 43.622770125444973 ], [ -8.146906804977517, 43.62299340146339 ], [ -8.146968467808986, 43.622990617741543 ], [ -8.146983747887452, 43.6231692385279 ], [ -8.147045410891172, 43.623166454755662 ], [ -8.147053051073623, 43.623255765136498 ], [ -8.146986637634052, 43.623258763370359 ] ] ] } },
{ "type": "Feature", "properties": { "proposal_id": "p0-boundary-proposal-006", "decision_seed_id": "p0-seed-007", "dossier_order": "07", "sample_id": "wl-pos-pos-es-pba-24678", "name": "Castro de Coto Redondo", "municipality": "Valdoviño", "parish": "Pantín (Santiago)", "final_split": "test_trasancos", "morphology_proxy": "hilltop_hint", "proposal_status": "rough_relief_proposal_not_label", "accepted_label_status": "not_accepted", "can_enter_training_now": "no", "needs_review": "yes", "method": "hilltop_dem_lrm_component", "proposal_area_m2": "38916.0", "search_radius_m": "120", "dem_path": "data/external/weak-label-relief-v1/test_trasancos/positive/wl-tile-v1-02724-pos-es-pba-24678-mdt5.tif", "dem_status": "valid", "resolution_m": "4.99", "mask_pixels": "1576", "geometry_note": "Rough relief-derived proposal; use only as a tracing aid, not as an accepted boundary.", "visual_card": "reports/figures/weak_label_p0_pretriage_v1/p0-07-castro-de-coto-redondo.png", "rationale": "Autonomous relief proposal for QGIS tracing. The geometry may approximate a visible terrain unit, but it is not a validated castro boundary and must not enter training until reviewed.", "sample_review_key": "wl-pos-pos-es-pba-24678", "autonomous_seed_status": "proposed_not_final", "autonomous_decision": "positive_boundary_review_required", "training_gate": "needs_reviewed_polygon_before_strong_training", "proposed_training_use": "positive_candidate_after_boundary_review", "geometry_action": "draw_or_refine_visible_castro_boundary", "seed_geometry_role": "review_search_area_not_label", "review_risk": "positive_boundary_uncertainty", "next_qgis_action": "inspect_RGB_DEM_slope_LRM_then_draw_boundary_or_mark_needs_followup", "dataset": "holdouts", "pretriage_group": "positive_rescue", "pretriage_decision": "positive_boundary_review", "pretriage_confidence": "medium_model_signal_boundary_needed", "suggested_taxonomy": "castro", "label_class": "1", "country": "ES", "longitude": "-8.110405528230721", "latitude": "43.64384397902806", "fusion_probability": "0.47510947", "fusion_rank": "54", "max_safety_rank": "64", "specialist_probability": "0.99790934", "specialist_rank": "8", "specialist_mean_rank": "31", "negative_type": "", "review_buffer_m": "120", "source_queues": "holdout_low_rank_positives", "source_lanes": "mamoa_specialist_positive_review", "source_review_ids": "err-review-0027" }, "geometry": { "type": "Polygon", "coordinates": [ [ [ -8.110402342494574, 43.644897228652582 ], [ -8.110170099462689, 43.64490763838058 ], [ -8.110092852751515, 43.644897210720934 ], [ -8.110090234761268, 43.644866408448209 ], [ -8.109962874520459, 43.644872116768759 ], [ -8.109923056021081, 43.64486374022718 ], [ -8.109903841282303, 43.644858164675803 ], [ -8.109901452670268, 43.644830060097846 ], [ -8.109819624932172, 43.644833727519263 ], [ -8.109787747731882, 43.644824477652918 ], [ -8.109776833842957, 43.644820368431112 ], [ -8.109774333448641, 43.644790947839773 ], [ -8.109706740194362, 43.644793977216942 ], [ -8.109658390659053, 43.64477577291801 ], [ -8.109648866561747, 43.644771276127251 ], [ -8.109647214381829, 43.644751835431492 ], [ -8.10961111795895, 43.644753453156191 ], [ -8.109584381558005, 43.644740829572491 ], [ -8.109581758073384, 43.644709959397645 ], [ -8.109526488805219, 43.644712436350382 ], [ -8.109519737864067, 43.64470851492176 ], [ -8.109516301855477, 43.644668083321477 ], [ -8.109454872291023, 43.644670836317346 ], [ -8.109454626255822, 43.644670693402169 ], [ -8.109450845728105, 43.644626207203004 ], [ -8.109389881740817, 43.64462893929857 ], [ -8.109389135634586, 43.644628410913043 ], [ -8.109385389691269, 43.644584331042239 ], [ -8.109330374152501, 43.644586796528145 ], [ -8.109323274619936, 43.644581768692959 ], [ -8.10931993374497, 43.644542454839168 ], [ -8.109278907102953, 43.644544293400422 ], [ -8.10925655424569, 43.644525012545586 ], [ -8.109254477889207, 43.644500578593792 ], [ -8.109229523733422, 43.64450169687256 ], [ -8.109224283998508, 43.644497177238392 ], [ -8.109189131663944, 43.644459991359412 ], [ -8.109185228788405, 43.644414062729531 ], [ -8.109147320625159, 43.644415761494955 ], [ -8.109141818723893, 43.644409941294825 ], [ -8.109120604461587, 43.644381969123145 ], [ -8.109115979894879, 43.64432754681259 ], [ -8.109080534944685, 43.644329135173408 ], [ -8.10907152539615, 43.644317255552565 ], [ -8.109050130825874, 43.644281038521179 ], [ -8.109042938007223, 43.644196391254681 ], [ -8.109004518324365, 43.64419811289379 ], [ -8.108975550180263, 43.644131771605046 ], [ -8.108962310227229, 43.643975956441942 ], [ -8.108933942469532, 43.643977227621036 ], [ -8.108923723079945, 43.643910471204748 ], [ -8.108922563246749, 43.643843308824721 ], [ -8.108950930941933, 43.643842037651538 ], [ -8.108937691186357, 43.643686222474507 ], [ -8.108955207866131, 43.643617798156384 ], [ -8.108993627182119, 43.643616076551972 ], [ -8.108986434609664, 43.643531429268137 ], [ -8.109001535059207, 43.643493576840768 ], [ -8.109008464911316, 43.643480982950159 ], [ -8.109043909366834, 43.643479394636103 ], [ -8.109039285014978, 43.643424972310399 ], [ -8.10905560225634, 43.643395318276035 ], [ -8.109060076953039, 43.643389051003481 ], [ -8.109097984475852, 43.64338735229861 ], [ -8.109094081815803, 43.643341423653546 ], [ -8.109122671083647, 43.643301381346348 ], [ -8.109127105768911, 43.643296428174637 ], [ -8.109152059429796, 43.643295309942644 ], [ -8.109149983204739, 43.643270875981628 ], [ -8.109168901651397, 43.643249745631479 ], [ -8.109209927419487, 43.643247907152855 ], [ -8.109206586773899, 43.643208593282893 ], [ -8.109212781032518, 43.643202969705342 ], [ -8.109329456399646, 43.643197741074353 ], [ -8.109325663126951, 43.643153101497703 ], [ -8.109510646181771, 43.64314481152131 ], [ -8.109506852781918, 43.643100171956895 ], [ -8.109691835621925, 43.643091881695241 ], [ -8.109688042094913, 43.643047242143069 ], [ -8.109934685577631, 43.643036188014285 ], [ -8.109938479285807, 43.643080827549333 ], [ -8.110000140179848, 43.643078063930069 ], [ -8.10999634642638, 43.643033424399292 ], [ -8.110058007266357, 43.643030660751165 ], [ -8.110054213476312, 43.642986021224068 ], [ -8.110300856567346, 43.64297496631751 ], [ -8.110304650538556, 43.643019605827483 ], [ -8.110489632900594, 43.643011314286937 ], [ -8.110493427016397, 43.643055953783445 ], [ -8.110616748637808, 43.643050425915568 ], [ -8.110620542852912, 43.64309506540291 ], [ -8.110682203695751, 43.643092301415003 ], [ -8.110685997964865, 43.643136940897449 ], [ -8.110809319714809, 43.643131412813716 ], [ -8.110813114083223, 43.643176052286989 ], [ -8.110874774990327, 43.64317328819115 ], [ -8.110878569412751, 43.643217927659514 ], [ -8.111001891291224, 43.643212399359932 ], [ -8.111005685812952, 43.643257038819101 ], [ -8.111067346784317, 43.643254274615344 ], [ -8.111071141360055, 43.643298914069625 ], [ -8.111132802367941, 43.643296149828451 ], [ -8.111136596997689, 43.643340789277836 ], [ -8.111198258042092, 43.64333802499926 ], [ -8.111205847418333, 43.643427303887641 ], [ -8.111267508544548, 43.64342453956737 ], [ -8.111275098046249, 43.643513818444717 ], [ -8.111336759254277, 43.643511054082765 ], [ -8.11134434888144, 43.643600332949077 ], [ -8.111406010171274, 43.643597568545445 ], [ -8.111409805043229, 43.6436422079734 ], [ -8.111471466369581, 43.643639443532358 ], [ -8.111475261295547, 43.64368408295541 ], [ -8.11153692265842, 43.643681318476965 ], [ -8.11153312768716, 43.64363667905819 ], [ -8.111594788995964, 43.643633914550904 ], [ -8.111590993988136, 43.643589275135817 ], [ -8.111652655242869, 43.643586510599683 ], [ -8.111641270135818, 43.643452592363538 ], [ -8.111579609016959, 43.643455356886818 ], [ -8.111568224124264, 43.643321438632292 ], [ -8.111506563132505, 43.643324203109586 ], [ -8.111498973338223, 43.64323492426162 ], [ -8.111437312428272, 43.643237688697226 ], [ -8.111433517589502, 43.643193049268028 ], [ -8.111371856716072, 43.643195813666232 ], [ -8.111364267155274, 43.643106534797418 ], [ -8.111302606363651, 43.643109299153942 ], [ -8.111298811641625, 43.643064659714334 ], [ -8.111237150886517, 43.643067424033447 ], [ -8.111233356218499, 43.643022784588943 ], [ -8.111171695499911, 43.643025548870654 ], [ -8.111167900885906, 43.642980909421262 ], [ -8.111044579512988, 43.64298643787675 ], [ -8.111040784998284, 43.642941798418171 ], [ -8.110917463680854, 43.64294732673261 ], [ -8.110913669265452, 43.642902687264851 ], [ -8.110790348003514, 43.642908215438233 ], [ -8.11078655368741, 43.642863575961293 ], [ -8.110724893088573, 43.642866339994015 ], [ -8.110721098826478, 43.642821700512179 ], [ -8.11084845458458, 43.642815991559026 ], [ -8.110888271798165, 43.642824367839019 ], [ -8.110907485944402, 43.64282994325287 ], [ -8.110909874858766, 43.64285804779648 ], [ -8.110991699775726, 43.642854379725968 ], [ -8.111023576055805, 43.642863629299327 ], [ -8.111034489650768, 43.64286773841571 ], [ -8.1110369904923, 43.642897158958974 ], [ -8.111104581479248, 43.642894128899407 ], [ -8.111152929827444, 43.642912332640556 ], [ -8.111162453717842, 43.642916829315297 ], [ -8.111164106280619, 43.642936269971244 ], [ -8.111200201527804, 43.642934651809476 ], [ -8.111226937393477, 43.64294727503885 ], [ -8.111229561559202, 43.642978145143836 ], [ -8.111284829090209, 43.642975667445555 ], [ -8.111291579931516, 43.642979588774097 ], [ -8.111295016928315, 43.643020020274115 ], [ -8.111356444633877, 43.643017266371793 ], [ -8.111356690666067, 43.643017409282969 ], [ -8.111360472387956, 43.643061895362102 ], [ -8.111421434602711, 43.643059162293234 ], [ -8.111422180704793, 43.643059690665609 ], [ -8.111425927938123, 43.643103770407784 ], [ -8.111480941943228, 43.643101303979634 ], [ -8.111488041457367, 43.643106331680769 ], [ -8.111491383578823, 43.643145645411174 ], [ -8.111532409127074, 43.643143806102493 ], [ -8.111554762118143, 43.643163086502632 ], [ -8.111556839310047, 43.643187520372251 ], [ -8.111581792831045, 43.643186401612077 ], [ -8.111587032609757, 43.64319092113525 ], [ -8.111622185544514, 43.643228106242354 ], [ -8.111626090115164, 43.643274034706756 ], [ -8.111663997413549, 43.643272335154506 ], [ -8.111669499433471, 43.64327815522654 ], [ -8.111690714401318, 43.643306126887346 ], [ -8.111695341127552, 43.643360548988532 ], [ -8.111730785363338, 43.643358959844846 ], [ -8.11173979525705, 43.643370839237654 ], [ -8.111761191027462, 43.643407055703328 ], [ -8.111768387464764, 43.643491702621724 ], [ -8.111806806531382, 43.643489980075771 ], [ -8.111835777361522, 43.643556320510207 ], [ -8.111849024547601, 43.643712134984632 ], [ -8.111877392051243, 43.643710863088259 ], [ -8.111887614645974, 43.643777619081291 ], [ -8.111888777785406, 43.643844781268896 ], [ -8.111860410219252, 43.643846053171188 ], [ -8.111873657602901, 43.644001867631701 ], [ -8.111856144219933, 43.644070292238432 ], [ -8.111817724786452, 43.644072014819088 ], [ -8.111824921470076, 43.644156661720118 ], [ -8.111809822707702, 43.644194514440201 ], [ -8.111802893390688, 43.644207108475598 ], [ -8.111767448660233, 43.644208697666073 ], [ -8.111772075601426, 43.644263119752125 ], [ -8.111755759542122, 43.644292774118881 ], [ -8.111751285078114, 43.644299041486313 ], [ -8.111713377139306, 43.644300741099123 ], [ -8.111709581955378, 43.644256101697515 ], [ -8.111647920021243, 43.644258866297896 ], [ -8.111644124891326, 43.644214226891393 ], [ -8.111582462993711, 43.644216991454364 ], [ -8.111586258078333, 43.644261630865159 ], [ -8.111524596126648, 43.644264395399283 ], [ -8.111528391174696, 43.644309034813737 ], [ -8.111466729168946, 43.644311799319041 ], [ -8.111470524180421, 43.644356438737184 ], [ -8.111532186231466, 43.644353674227602 ], [ -8.111547318962863, 43.644531672188243 ], [ -8.111546668006005, 43.64453226319494 ], [ -8.111485704313525, 43.644534996403571 ], [ -8.111489486330841, 43.644579482461886 ], [ -8.111489266367119, 43.644579646264823 ], [ -8.111427837082307, 43.644582400316516 ], [ -8.111431274362685, 43.644622831796546 ], [ -8.111425238793522, 43.644627326363924 ], [ -8.111369969760446, 43.644629804204271 ], [ -8.111372594153453, 43.644660674293242 ], [ -8.111348198629148, 43.644675589807299 ], [ -8.111312102347938, 43.644677208066867 ], [ -8.111313755060468, 43.644696648712255 ], [ -8.111305064833472, 43.644701961940228 ], [ -8.11126016541006, 43.644724346030443 ], [ -8.111192572387514, 43.644727376282525 ], [ -8.111195073468446, 43.644756796808913 ], [ -8.111184938365671, 43.644761849532152 ], [ -8.111154869720973, 43.644773876067291 ], [ -8.111073042219529, 43.644777544382208 ], [ -8.111075431373399, 43.644805648908921 ], [ -8.111057306776205, 43.644812898165895 ], [ -8.111019209220064, 43.644824767235846 ], [ -8.110891849252248, 43.644830476587103 ], [ -8.11089446764881, 43.644861278821395 ], [ -8.110819573398224, 43.644878526099639 ], [ -8.110587330589917, 43.644888936671776 ], [ -8.110589358553197, 43.644912794564867 ], [ -8.110497144958156, 43.644920240338131 ], [ -8.110404370385226, 43.644921086552536 ], [ -8.110402342494574, 43.644897228652582 ] ] ] } }
]
}
